<?xml version="1.0" encoding="UTF-8"?>
<gpx version="1.1" creator="PointService" xmlns="http://www.topografix.com/GPX/1/1">
  <trk>
    <name>Circle Route</name>
    <trkseg>
      <trkpt lat="55.348580" lon="25.785170"></trkpt>
      <trkpt lat="55.348484" lon="25.786633"></trkpt>
      <trkpt lat="55.348389" lon="25.788096"></trkpt>
      <trkpt lat="55.348293" lon="25.789559"></trkpt>
      <trkpt lat="55.348197" lon="25.791021"></trkpt>
      <trkpt lat="55.348102" lon="25.792484"></trkpt>
      <trkpt lat="55.348006" lon="25.793947"></trkpt>
      <trkpt lat="55.347910" lon="25.795410"></trkpt>
      <trkpt lat="55.347870" lon="25.795740"></trkpt>
      <trkpt lat="55.347780" lon="25.795980"></trkpt>
      <trkpt lat="55.347680" lon="25.796150"></trkpt>
      <trkpt lat="55.347510" lon="25.796250"></trkpt>
      <trkpt lat="55.346790" lon="25.796405"></trkpt>
      <trkpt lat="55.346070" lon="25.796560"></trkpt>
      <trkpt lat="55.345900" lon="25.796680"></trkpt>
      <trkpt lat="55.345780" lon="25.796840"></trkpt>
      <trkpt lat="55.345650" lon="25.797150"></trkpt>
      <trkpt lat="55.345288" lon="25.798420"></trkpt>
      <trkpt lat="55.344925" lon="25.799690"></trkpt>
      <trkpt lat="55.344563" lon="25.800960"></trkpt>
      <trkpt lat="55.344200" lon="25.802230"></trkpt>
      <trkpt lat="55.343950" lon="25.802895"></trkpt>
      <trkpt lat="55.343700" lon="25.803560"></trkpt>
      <trkpt lat="55.343460" lon="25.804050"></trkpt>
      <trkpt lat="55.343065" lon="25.804740"></trkpt>
      <trkpt lat="55.342670" lon="25.805430"></trkpt>
      <trkpt lat="55.342590" lon="25.805620"></trkpt>
      <trkpt lat="55.342520" lon="25.805860"></trkpt>
      <trkpt lat="55.342470" lon="25.806280"></trkpt>
      <trkpt lat="55.342470" lon="25.806500"></trkpt>
      <trkpt lat="55.342550" lon="25.807000"></trkpt>
      <trkpt lat="55.342690" lon="25.807510"></trkpt>
      <trkpt lat="55.342960" lon="25.808340"></trkpt>
      <trkpt lat="55.343090" lon="25.808790"></trkpt>
      <trkpt lat="55.342950" lon="25.808990"></trkpt>
      <trkpt lat="55.342445" lon="25.809785"></trkpt>
      <trkpt lat="55.341940" lon="25.810580"></trkpt>
      <trkpt lat="55.341500" lon="25.811260"></trkpt>
      <trkpt lat="55.341320" lon="25.811440"></trkpt>
      <trkpt lat="55.341050" lon="25.811650"></trkpt>
      <trkpt lat="55.340338" lon="25.812198"></trkpt>
      <trkpt lat="55.339626" lon="25.812746"></trkpt>
      <trkpt lat="55.338914" lon="25.813294"></trkpt>
      <trkpt lat="55.338202" lon="25.813842"></trkpt>
      <trkpt lat="55.337490" lon="25.814390"></trkpt>
      <trkpt lat="55.337100" lon="25.814790"></trkpt>
      <trkpt lat="55.336680" lon="25.815300"></trkpt>
      <trkpt lat="55.336440" lon="25.815630"></trkpt>
      <trkpt lat="55.336200" lon="25.816060"></trkpt>
      <trkpt lat="55.335930" lon="25.816620"></trkpt>
      <trkpt lat="55.335615" lon="25.817380"></trkpt>
      <trkpt lat="55.335300" lon="25.818140"></trkpt>
      <trkpt lat="55.335190" lon="25.818470"></trkpt>
      <trkpt lat="55.334920" lon="25.819500"></trkpt>
      <trkpt lat="55.334740" lon="25.820070"></trkpt>
      <trkpt lat="55.334350" lon="25.821070"></trkpt>
      <trkpt lat="55.334180" lon="25.821330"></trkpt>
      <trkpt lat="55.333930" lon="25.821640"></trkpt>
      <trkpt lat="55.333280" lon="25.822620"></trkpt>
      <trkpt lat="55.332930" lon="25.823060"></trkpt>
      <trkpt lat="55.332200" lon="25.823830"></trkpt>
      <trkpt lat="55.331470" lon="25.824600"></trkpt>
      <trkpt lat="55.330930" lon="25.825263"></trkpt>
      <trkpt lat="55.330390" lon="25.825927"></trkpt>
      <trkpt lat="55.329850" lon="25.826590"></trkpt>
      <trkpt lat="55.329710" lon="25.826800"></trkpt>
      <trkpt lat="55.329420" lon="25.827350"></trkpt>
      <trkpt lat="55.329027" lon="25.828337"></trkpt>
      <trkpt lat="55.328633" lon="25.829323"></trkpt>
      <trkpt lat="55.328240" lon="25.830310"></trkpt>
      <trkpt lat="55.328160" lon="25.830480"></trkpt>
      <trkpt lat="55.327960" lon="25.830800"></trkpt>
      <trkpt lat="55.327420" lon="25.831435"></trkpt>
      <trkpt lat="55.326880" lon="25.832070"></trkpt>
      <trkpt lat="55.326700" lon="25.832210"></trkpt>
      <trkpt lat="55.326590" lon="25.832260"></trkpt>
      <trkpt lat="55.326390" lon="25.832290"></trkpt>
      <trkpt lat="55.326310" lon="25.832270"></trkpt>
      <trkpt lat="55.326090" lon="25.832140"></trkpt>
      <trkpt lat="55.325980" lon="25.832030"></trkpt>
      <trkpt lat="55.325710" lon="25.831660"></trkpt>
      <trkpt lat="55.325590" lon="25.831430"></trkpt>
      <trkpt lat="55.325430" lon="25.831000"></trkpt>
      <trkpt lat="55.325220" lon="25.830200"></trkpt>
      <trkpt lat="55.325140" lon="25.829990"></trkpt>
      <trkpt lat="55.325070" lon="25.829860"></trkpt>
      <trkpt lat="55.324870" lon="25.829630"></trkpt>
      <trkpt lat="55.324230" lon="25.829120"></trkpt>
      <trkpt lat="55.323950" lon="25.828940"></trkpt>
      <trkpt lat="55.323620" lon="25.828790"></trkpt>
      <trkpt lat="55.323440" lon="25.828760"></trkpt>
      <trkpt lat="55.322875" lon="25.828785"></trkpt>
      <trkpt lat="55.322310" lon="25.828810"></trkpt>
      <trkpt lat="55.322100" lon="25.828780"></trkpt>
      <trkpt lat="55.322000" lon="25.828730"></trkpt>
      <trkpt lat="55.321790" lon="25.828550"></trkpt>
      <trkpt lat="55.321630" lon="25.828190"></trkpt>
      <trkpt lat="55.321470" lon="25.827660"></trkpt>
      <trkpt lat="55.321350" lon="25.827150"></trkpt>
      <trkpt lat="55.321310" lon="25.826900"></trkpt>
      <trkpt lat="55.321280" lon="25.825420"></trkpt>
      <trkpt lat="55.321180" lon="25.824650"></trkpt>
      <trkpt lat="55.321050" lon="25.824080"></trkpt>
      <trkpt lat="55.320940" lon="25.823730"></trkpt>
      <trkpt lat="55.320610" lon="25.822890"></trkpt>
      <trkpt lat="55.320500" lon="25.822650"></trkpt>
      <trkpt lat="55.320350" lon="25.822390"></trkpt>
      <trkpt lat="55.320170" lon="25.822150"></trkpt>
      <trkpt lat="55.319940" lon="25.821920"></trkpt>
      <trkpt lat="55.319410" lon="25.821470"></trkpt>
      <trkpt lat="55.318620" lon="25.820970"></trkpt>
      <trkpt lat="55.318050" lon="25.820420"></trkpt>
      <trkpt lat="55.317320" lon="25.819860"></trkpt>
      <trkpt lat="55.316900" lon="25.819450"></trkpt>
      <trkpt lat="55.316740" lon="25.819330"></trkpt>
      <trkpt lat="55.316570" lon="25.819220"></trkpt>
      <trkpt lat="55.316110" lon="25.818980"></trkpt>
      <trkpt lat="55.315480" lon="25.818740"></trkpt>
      <trkpt lat="55.314870" lon="25.818607"></trkpt>
      <trkpt lat="55.314260" lon="25.818473"></trkpt>
      <trkpt lat="55.313650" lon="25.818340"></trkpt>
      <trkpt lat="55.313160" lon="25.818260"></trkpt>
      <trkpt lat="55.312830" lon="25.818250"></trkpt>
      <trkpt lat="55.312240" lon="25.818280"></trkpt>
      <trkpt lat="55.311775" lon="25.818255"></trkpt>
      <trkpt lat="55.311310" lon="25.818230"></trkpt>
      <trkpt lat="55.310980" lon="25.818250"></trkpt>
      <trkpt lat="55.310660" lon="25.818300"></trkpt>
      <trkpt lat="55.310510" lon="25.818350"></trkpt>
      <trkpt lat="55.310340" lon="25.818430"></trkpt>
      <trkpt lat="55.309990" lon="25.818660"></trkpt>
      <trkpt lat="55.309230" lon="25.819240"></trkpt>
      <trkpt lat="55.309110" lon="25.819310"></trkpt>
      <trkpt lat="55.308960" lon="25.819360"></trkpt>
      <trkpt lat="55.308740" lon="25.819360"></trkpt>
      <trkpt lat="55.308640" lon="25.819320"></trkpt>
      <trkpt lat="55.308400" lon="25.819170"></trkpt>
      <trkpt lat="55.307970" lon="25.818860"></trkpt>
      <trkpt lat="55.307550" lon="25.818670"></trkpt>
      <trkpt lat="55.307110" lon="25.818600"></trkpt>
      <trkpt lat="55.306500" lon="25.818630"></trkpt>
      <trkpt lat="55.306030" lon="25.818680"></trkpt>
      <trkpt lat="55.306030" lon="25.818790"></trkpt>
      <trkpt lat="55.305990" lon="25.818870"></trkpt>
      <trkpt lat="55.305690" lon="25.819230"></trkpt>
      <trkpt lat="55.305235" lon="25.819975"></trkpt>
      <trkpt lat="55.304780" lon="25.820720"></trkpt>
      <trkpt lat="55.304620" lon="25.821040"></trkpt>
      <trkpt lat="55.304375" lon="25.821840"></trkpt>
      <trkpt lat="55.304130" lon="25.822640"></trkpt>
      <trkpt lat="55.303990" lon="25.823010"></trkpt>
      <trkpt lat="55.303850" lon="25.823270"></trkpt>
      <trkpt lat="55.303295" lon="25.823835"></trkpt>
      <trkpt lat="55.302740" lon="25.824400"></trkpt>
      <trkpt lat="55.302300" lon="25.824935"></trkpt>
      <trkpt lat="55.301860" lon="25.825470"></trkpt>
      <trkpt lat="55.301320" lon="25.826630"></trkpt>
      <trkpt lat="55.300960" lon="25.827355"></trkpt>
      <trkpt lat="55.300600" lon="25.828080"></trkpt>
      <trkpt lat="55.300470" lon="25.828580"></trkpt>
      <trkpt lat="55.300340" lon="25.829240"></trkpt>
      <trkpt lat="55.300270" lon="25.829870"></trkpt>
      <trkpt lat="55.300225" lon="25.830915"></trkpt>
      <trkpt lat="55.300180" lon="25.831960"></trkpt>
      <trkpt lat="55.300055" lon="25.833510"></trkpt>
      <trkpt lat="55.299930" lon="25.835060"></trkpt>
      <trkpt lat="55.299930" lon="25.835470"></trkpt>
      <trkpt lat="55.300010" lon="25.836160"></trkpt>
      <trkpt lat="55.300030" lon="25.836700"></trkpt>
      <trkpt lat="55.300260" lon="25.838000"></trkpt>
      <trkpt lat="55.300365" lon="25.838910"></trkpt>
      <trkpt lat="55.300470" lon="25.839820"></trkpt>
      <trkpt lat="55.300510" lon="25.840360"></trkpt>
      <trkpt lat="55.300480" lon="25.840880"></trkpt>
      <trkpt lat="55.300290" lon="25.842370"></trkpt>
      <trkpt lat="55.300030" lon="25.843605"></trkpt>
      <trkpt lat="55.299770" lon="25.844840"></trkpt>
      <trkpt lat="55.299640" lon="25.846020"></trkpt>
      <trkpt lat="55.299530" lon="25.846760"></trkpt>
      <trkpt lat="55.299450" lon="25.847850"></trkpt>
      <trkpt lat="55.299440" lon="25.848530"></trkpt>
      <trkpt lat="55.299480" lon="25.849610"></trkpt>
      <trkpt lat="55.299470" lon="25.849970"></trkpt>
      <trkpt lat="55.299390" lon="25.850570"></trkpt>
      <trkpt lat="55.299260" lon="25.851010"></trkpt>
      <trkpt lat="55.299240" lon="25.851180"></trkpt>
      <trkpt lat="55.299260" lon="25.851750"></trkpt>
      <trkpt lat="55.299300" lon="25.852130"></trkpt>
      <trkpt lat="55.299350" lon="25.852420"></trkpt>
      <trkpt lat="55.299330" lon="25.852760"></trkpt>
      <trkpt lat="55.299040" lon="25.853420"></trkpt>
      <trkpt lat="55.298960" lon="25.853640"></trkpt>
      <trkpt lat="55.298830" lon="25.854210"></trkpt>
      <trkpt lat="55.298620" lon="25.854760"></trkpt>
      <trkpt lat="55.298500" lon="25.854990"></trkpt>
      <trkpt lat="55.298390" lon="25.855170"></trkpt>
      <trkpt lat="55.298300" lon="25.855360"></trkpt>
      <trkpt lat="55.298230" lon="25.855630"></trkpt>
      <trkpt lat="55.297990" lon="25.856850"></trkpt>
      <trkpt lat="55.297850" lon="25.857230"></trkpt>
      <trkpt lat="55.297690" lon="25.857510"></trkpt>
      <trkpt lat="55.297250" lon="25.858485"></trkpt>
      <trkpt lat="55.296810" lon="25.859460"></trkpt>
      <trkpt lat="55.296315" lon="25.860160"></trkpt>
      <trkpt lat="55.295820" lon="25.860860"></trkpt>
      <trkpt lat="55.295710" lon="25.861180"></trkpt>
      <trkpt lat="55.295450" lon="25.861040"></trkpt>
      <trkpt lat="55.295010" lon="25.860740"></trkpt>
      <trkpt lat="55.294650" lon="25.860450"></trkpt>
      <trkpt lat="55.294370" lon="25.860330"></trkpt>
      <trkpt lat="55.294120" lon="25.860300"></trkpt>
      <trkpt lat="55.293800" lon="25.860200"></trkpt>
      <trkpt lat="55.293560" lon="25.860220"></trkpt>
      <trkpt lat="55.293190" lon="25.860380"></trkpt>
      <trkpt lat="55.292810" lon="25.860590"></trkpt>
      <trkpt lat="55.292590" lon="25.860620"></trkpt>
      <trkpt lat="55.292350" lon="25.860550"></trkpt>
      <trkpt lat="55.291950" lon="25.860270"></trkpt>
      <trkpt lat="55.291470" lon="25.859900"></trkpt>
      <trkpt lat="55.290980" lon="25.859660"></trkpt>
      <trkpt lat="55.290620" lon="25.859510"></trkpt>
      <trkpt lat="55.290350" lon="25.859540"></trkpt>
      <trkpt lat="55.290070" lon="25.859530"></trkpt>
      <trkpt lat="55.289680" lon="25.859360"></trkpt>
      <trkpt lat="55.289380" lon="25.859140"></trkpt>
      <trkpt lat="55.288910" lon="25.858540"></trkpt>
      <trkpt lat="55.288710" lon="25.858350"></trkpt>
      <trkpt lat="55.288510" lon="25.858260"></trkpt>
      <trkpt lat="55.288310" lon="25.858110"></trkpt>
      <trkpt lat="55.288010" lon="25.857660"></trkpt>
      <trkpt lat="55.287820" lon="25.857310"></trkpt>
      <trkpt lat="55.287580" lon="25.856950"></trkpt>
      <trkpt lat="55.287260" lon="25.856760"></trkpt>
      <trkpt lat="55.286890" lon="25.856630"></trkpt>
      <trkpt lat="55.286250" lon="25.856320"></trkpt>
      <trkpt lat="55.286120" lon="25.856190"></trkpt>
      <trkpt lat="55.286030" lon="25.856380"></trkpt>
      <trkpt lat="55.285880" lon="25.856520"></trkpt>
      <trkpt lat="55.285460" lon="25.856580"></trkpt>
      <trkpt lat="55.285140" lon="25.856570"></trkpt>
      <trkpt lat="55.284620" lon="25.856370"></trkpt>
      <trkpt lat="55.284240" lon="25.856280"></trkpt>
      <trkpt lat="55.283600" lon="25.856280"></trkpt>
      <trkpt lat="55.282950" lon="25.856360"></trkpt>
      <trkpt lat="55.282480" lon="25.856460"></trkpt>
      <trkpt lat="55.282100" lon="25.856490"></trkpt>
      <trkpt lat="55.281770" lon="25.856410"></trkpt>
      <trkpt lat="55.281330" lon="25.856270"></trkpt>
      <trkpt lat="55.280890" lon="25.856260"></trkpt>
      <trkpt lat="55.280430" lon="25.856500"></trkpt>
      <trkpt lat="55.280170" lon="25.856470"></trkpt>
      <trkpt lat="55.279780" lon="25.856310"></trkpt>
      <trkpt lat="55.279460" lon="25.856420"></trkpt>
      <trkpt lat="55.279090" lon="25.856640"></trkpt>
      <trkpt lat="55.278870" lon="25.856990"></trkpt>
      <trkpt lat="55.278720" lon="25.857450"></trkpt>
      <trkpt lat="55.278570" lon="25.857740"></trkpt>
      <trkpt lat="55.278580" lon="25.857730"></trkpt>
      <trkpt lat="55.278560" lon="25.857780"></trkpt>
      <trkpt lat="55.278210" lon="25.858050"></trkpt>
      <trkpt lat="55.277730" lon="25.858290"></trkpt>
      <trkpt lat="55.277290" lon="25.858630"></trkpt>
      <trkpt lat="55.277020" lon="25.859490"></trkpt>
      <trkpt lat="55.276730" lon="25.859840"></trkpt>
      <trkpt lat="55.276240" lon="25.860980"></trkpt>
      <trkpt lat="55.276170" lon="25.861380"></trkpt>
      <trkpt lat="55.275990" lon="25.862110"></trkpt>
      <trkpt lat="55.275850" lon="25.862760"></trkpt>
      <trkpt lat="55.275780" lon="25.863190"></trkpt>
      <trkpt lat="55.275730" lon="25.863670"></trkpt>
      <trkpt lat="55.275670" lon="25.864930"></trkpt>
      <trkpt lat="55.275590" lon="25.865980"></trkpt>
      <trkpt lat="55.275520" lon="25.866300"></trkpt>
      <trkpt lat="55.275210" lon="25.866970"></trkpt>
      <trkpt lat="55.274900" lon="25.867640"></trkpt>
      <trkpt lat="55.274460" lon="25.868480"></trkpt>
      <trkpt lat="55.274080" lon="25.869700"></trkpt>
      <trkpt lat="55.273730" lon="25.871020"></trkpt>
      <trkpt lat="55.273505" lon="25.871755"></trkpt>
      <trkpt lat="55.273280" lon="25.872490"></trkpt>
      <trkpt lat="55.273220" lon="25.872950"></trkpt>
      <trkpt lat="55.273200" lon="25.874420"></trkpt>
      <trkpt lat="55.273240" lon="25.874990"></trkpt>
      <trkpt lat="55.273360" lon="25.875710"></trkpt>
      <trkpt lat="55.273320" lon="25.876030"></trkpt>
      <trkpt lat="55.273220" lon="25.876240"></trkpt>
      <trkpt lat="55.273170" lon="25.876410"></trkpt>
      <trkpt lat="55.272354" lon="25.876485"></trkpt>
      <trkpt lat="55.271538" lon="25.876560"></trkpt>
      <trkpt lat="55.270721" lon="25.876635"></trkpt>
      <trkpt lat="55.269905" lon="25.876710"></trkpt>
      <trkpt lat="55.269089" lon="25.876785"></trkpt>
      <trkpt lat="55.268273" lon="25.876860"></trkpt>
      <trkpt lat="55.267456" lon="25.876935"></trkpt>
      <trkpt lat="55.266640" lon="25.877010"></trkpt>
      <trkpt lat="55.266390" lon="25.877070"></trkpt>
      <trkpt lat="55.266665" lon="25.878550"></trkpt>
      <trkpt lat="55.266940" lon="25.880030"></trkpt>
      <trkpt lat="55.266330" lon="25.880050"></trkpt>
      <trkpt lat="55.265940" lon="25.880140"></trkpt>
      <trkpt lat="55.265250" lon="25.880625"></trkpt>
      <trkpt lat="55.264560" lon="25.881110"></trkpt>
      <trkpt lat="55.264350" lon="25.881340"></trkpt>
      <trkpt lat="55.263980" lon="25.882050"></trkpt>
      <trkpt lat="55.263800" lon="25.882220"></trkpt>
      <trkpt lat="55.263640" lon="25.882280"></trkpt>
      <trkpt lat="55.263250" lon="25.882350"></trkpt>
      <trkpt lat="55.263060" lon="25.882470"></trkpt>
      <trkpt lat="55.262620" lon="25.882790"></trkpt>
      <trkpt lat="55.262420" lon="25.882860"></trkpt>
      <trkpt lat="55.262160" lon="25.882780"></trkpt>
      <trkpt lat="55.261660" lon="25.882310"></trkpt>
      <trkpt lat="55.261300" lon="25.882140"></trkpt>
      <trkpt lat="55.260520" lon="25.882210"></trkpt>
      <trkpt lat="55.260150" lon="25.882280"></trkpt>
      <trkpt lat="55.259660" lon="25.882330"></trkpt>
      <trkpt lat="55.259170" lon="25.882210"></trkpt>
      <trkpt lat="55.258680" lon="25.882090"></trkpt>
      <trkpt lat="55.258040" lon="25.881955"></trkpt>
      <trkpt lat="55.257400" lon="25.881820"></trkpt>
      <trkpt lat="55.256680" lon="25.882170"></trkpt>
      <trkpt lat="55.256040" lon="25.882670"></trkpt>
      <trkpt lat="55.255400" lon="25.883170"></trkpt>
      <trkpt lat="55.254805" lon="25.883725"></trkpt>
      <trkpt lat="55.254210" lon="25.884280"></trkpt>
      <trkpt lat="55.254030" lon="25.884940"></trkpt>
      <trkpt lat="55.253840" lon="25.886100"></trkpt>
      <trkpt lat="55.253630" lon="25.886670"></trkpt>
      <trkpt lat="55.253440" lon="25.887000"></trkpt>
      <trkpt lat="55.253040" lon="25.887470"></trkpt>
      <trkpt lat="55.252550" lon="25.887950"></trkpt>
      <trkpt lat="55.252060" lon="25.888430"></trkpt>
      <trkpt lat="55.251240" lon="25.888810"></trkpt>
      <trkpt lat="55.250650" lon="25.888995"></trkpt>
      <trkpt lat="55.250060" lon="25.889180"></trkpt>
      <trkpt lat="55.249570" lon="25.889350"></trkpt>
      <trkpt lat="55.248990" lon="25.889150"></trkpt>
      <trkpt lat="55.248470" lon="25.889290"></trkpt>
      <trkpt lat="55.247870" lon="25.889390"></trkpt>
      <trkpt lat="55.247760" lon="25.890510"></trkpt>
      <trkpt lat="55.247590" lon="25.891320"></trkpt>
      <trkpt lat="55.247580" lon="25.891470"></trkpt>
      <trkpt lat="55.247600" lon="25.891650"></trkpt>
      <trkpt lat="55.247775" lon="25.892595"></trkpt>
      <trkpt lat="55.247950" lon="25.893540"></trkpt>
      <trkpt lat="55.248220" lon="25.894700"></trkpt>
      <trkpt lat="55.248560" lon="25.895555"></trkpt>
      <trkpt lat="55.248900" lon="25.896410"></trkpt>
      <trkpt lat="55.249000" lon="25.896750"></trkpt>
      <trkpt lat="55.249070" lon="25.897140"></trkpt>
      <trkpt lat="55.249090" lon="25.897520"></trkpt>
      <trkpt lat="55.248630" lon="25.897810"></trkpt>
      <trkpt lat="55.248170" lon="25.898100"></trkpt>
      <trkpt lat="55.247570" lon="25.898550"></trkpt>
      <trkpt lat="55.246970" lon="25.899000"></trkpt>
      <trkpt lat="55.246200" lon="25.899780"></trkpt>
      <trkpt lat="55.246020" lon="25.899940"></trkpt>
      <trkpt lat="55.245800" lon="25.900030"></trkpt>
      <trkpt lat="55.245610" lon="25.900090"></trkpt>
      <trkpt lat="55.244960" lon="25.900125"></trkpt>
      <trkpt lat="55.244310" lon="25.900160"></trkpt>
      <trkpt lat="55.244060" lon="25.900240"></trkpt>
      <trkpt lat="55.243930" lon="25.900330"></trkpt>
      <trkpt lat="55.243540" lon="25.900740"></trkpt>
      <trkpt lat="55.243410" lon="25.900840"></trkpt>
      <trkpt lat="55.243240" lon="25.900920"></trkpt>
      <trkpt lat="55.242630" lon="25.901070"></trkpt>
      <trkpt lat="55.242020" lon="25.901230"></trkpt>
      <trkpt lat="55.241450" lon="25.901470"></trkpt>
      <trkpt lat="55.240955" lon="25.901725"></trkpt>
      <trkpt lat="55.240460" lon="25.901980"></trkpt>
      <trkpt lat="55.240320" lon="25.901990"></trkpt>
      <trkpt lat="55.239990" lon="25.901880"></trkpt>
      <trkpt lat="55.239340" lon="25.901465"></trkpt>
      <trkpt lat="55.238690" lon="25.901050"></trkpt>
      <trkpt lat="55.238370" lon="25.900810"></trkpt>
      <trkpt lat="55.238080" lon="25.900690"></trkpt>
      <trkpt lat="55.237530" lon="25.900565"></trkpt>
      <trkpt lat="55.236980" lon="25.900440"></trkpt>
      <trkpt lat="55.236515" lon="25.900310"></trkpt>
      <trkpt lat="55.236050" lon="25.900180"></trkpt>
      <trkpt lat="55.235920" lon="25.900200"></trkpt>
      <trkpt lat="55.235770" lon="25.900310"></trkpt>
      <trkpt lat="55.235093" lon="25.900980"></trkpt>
      <trkpt lat="55.234417" lon="25.901650"></trkpt>
      <trkpt lat="55.233740" lon="25.902320"></trkpt>
      <trkpt lat="55.233190" lon="25.902830"></trkpt>
      <trkpt lat="55.232640" lon="25.903340"></trkpt>
      <trkpt lat="55.232200" lon="25.903765"></trkpt>
      <trkpt lat="55.231760" lon="25.904190"></trkpt>
      <trkpt lat="55.231230" lon="25.904730"></trkpt>
      <trkpt lat="55.230840" lon="25.905090"></trkpt>
      <trkpt lat="55.230490" lon="25.905380"></trkpt>
      <trkpt lat="55.229740" lon="25.905840"></trkpt>
      <trkpt lat="55.229580" lon="25.905960"></trkpt>
      <trkpt lat="55.229420" lon="25.906110"></trkpt>
      <trkpt lat="55.229300" lon="25.906260"></trkpt>
      <trkpt lat="55.229160" lon="25.906480"></trkpt>
      <trkpt lat="55.229050" lon="25.906700"></trkpt>
      <trkpt lat="55.228625" lon="25.907675"></trkpt>
      <trkpt lat="55.228200" lon="25.908650"></trkpt>
      <trkpt lat="55.227820" lon="25.909580"></trkpt>
      <trkpt lat="55.227620" lon="25.910200"></trkpt>
      <trkpt lat="55.227355" lon="25.911390"></trkpt>
      <trkpt lat="55.227090" lon="25.912580"></trkpt>
      <trkpt lat="55.226930" lon="25.913150"></trkpt>
      <trkpt lat="55.226617" lon="25.914087"></trkpt>
      <trkpt lat="55.226303" lon="25.915023"></trkpt>
      <trkpt lat="55.225990" lon="25.915960"></trkpt>
      <trkpt lat="55.225750" lon="25.916610"></trkpt>
      <trkpt lat="55.225440" lon="25.917260"></trkpt>
      <trkpt lat="55.224893" lon="25.918295"></trkpt>
      <trkpt lat="55.224345" lon="25.919330"></trkpt>
      <trkpt lat="55.223798" lon="25.920365"></trkpt>
      <trkpt lat="55.223250" lon="25.921400"></trkpt>
      <trkpt lat="55.223090" lon="25.921790"></trkpt>
      <trkpt lat="55.222750" lon="25.922890"></trkpt>
      <trkpt lat="55.222600" lon="25.923460"></trkpt>
      <trkpt lat="55.222410" lon="25.924300"></trkpt>
      <trkpt lat="55.222220" lon="25.925140"></trkpt>
      <trkpt lat="55.221980" lon="25.925880"></trkpt>
      <trkpt lat="55.221870" lon="25.926130"></trkpt>
      <trkpt lat="55.221750" lon="25.926340"></trkpt>
      <trkpt lat="55.221430" lon="25.926830"></trkpt>
      <trkpt lat="55.220850" lon="25.927635"></trkpt>
      <trkpt lat="55.220270" lon="25.928440"></trkpt>
      <trkpt lat="55.219640" lon="25.929360"></trkpt>
      <trkpt lat="55.219010" lon="25.930280"></trkpt>
      <trkpt lat="55.218380" lon="25.931200"></trkpt>
      <trkpt lat="55.217845" lon="25.931935"></trkpt>
      <trkpt lat="55.217310" lon="25.932670"></trkpt>
      <trkpt lat="55.216920" lon="25.933260"></trkpt>
      <trkpt lat="55.216660" lon="25.933720"></trkpt>
      <trkpt lat="55.216530" lon="25.934010"></trkpt>
      <trkpt lat="55.216280" lon="25.934700"></trkpt>
      <trkpt lat="55.216110" lon="25.935410"></trkpt>
      <trkpt lat="55.216020" lon="25.935960"></trkpt>
      <trkpt lat="55.215900" lon="25.936540"></trkpt>
      <trkpt lat="55.215615" lon="25.937620"></trkpt>
      <trkpt lat="55.215330" lon="25.938700"></trkpt>
      <trkpt lat="55.215090" lon="25.939500"></trkpt>
      <trkpt lat="55.214870" lon="25.940060"></trkpt>
      <trkpt lat="55.214660" lon="25.940500"></trkpt>
      <trkpt lat="55.214330" lon="25.941000"></trkpt>
      <trkpt lat="55.214170" lon="25.941190"></trkpt>
      <trkpt lat="55.213725" lon="25.941620"></trkpt>
      <trkpt lat="55.213280" lon="25.942050"></trkpt>
      <trkpt lat="55.213060" lon="25.942250"></trkpt>
      <trkpt lat="55.212730" lon="25.942590"></trkpt>
      <trkpt lat="55.212650" lon="25.942470"></trkpt>
      <trkpt lat="55.211880" lon="25.942110"></trkpt>
      <trkpt lat="55.211530" lon="25.942130"></trkpt>
      <trkpt lat="55.210800" lon="25.941470"></trkpt>
      <trkpt lat="55.210460" lon="25.940890"></trkpt>
      <trkpt lat="55.210240" lon="25.940730"></trkpt>
      <trkpt lat="55.209560" lon="25.940380"></trkpt>
      <trkpt lat="55.208880" lon="25.940030"></trkpt>
      <trkpt lat="55.208470" lon="25.939690"></trkpt>
      <trkpt lat="55.207900" lon="25.938770"></trkpt>
      <trkpt lat="55.207260" lon="25.937780"></trkpt>
      <trkpt lat="55.206840" lon="25.937340"></trkpt>
      <trkpt lat="55.206450" lon="25.937030"></trkpt>
      <trkpt lat="55.206430" lon="25.936900"></trkpt>
      <trkpt lat="55.206360" lon="25.936750"></trkpt>
      <trkpt lat="55.205710" lon="25.935730"></trkpt>
      <trkpt lat="55.205390" lon="25.935410"></trkpt>
      <trkpt lat="55.205150" lon="25.934990"></trkpt>
      <trkpt lat="55.204520" lon="25.934280"></trkpt>
      <trkpt lat="55.204340" lon="25.933160"></trkpt>
      <trkpt lat="55.204160" lon="25.932040"></trkpt>
      <trkpt lat="55.204010" lon="25.931180"></trkpt>
      <trkpt lat="55.203860" lon="25.930320"></trkpt>
      <trkpt lat="55.203510" lon="25.929110"></trkpt>
      <trkpt lat="55.203360" lon="25.928520"></trkpt>
      <trkpt lat="55.203170" lon="25.928100"></trkpt>
      <trkpt lat="55.203130" lon="25.927960"></trkpt>
      <trkpt lat="55.203100" lon="25.927780"></trkpt>
      <trkpt lat="55.203070" lon="25.927230"></trkpt>
      <trkpt lat="55.202895" lon="25.926140"></trkpt>
      <trkpt lat="55.202720" lon="25.925050"></trkpt>
      <trkpt lat="55.202580" lon="25.923810"></trkpt>
      <trkpt lat="55.202520" lon="25.923640"></trkpt>
      <trkpt lat="55.202430" lon="25.923490"></trkpt>
      <trkpt lat="55.202240" lon="25.923280"></trkpt>
      <trkpt lat="55.201690" lon="25.922380"></trkpt>
      <trkpt lat="55.201295" lon="25.921670"></trkpt>
      <trkpt lat="55.200900" lon="25.920960"></trkpt>
      <trkpt lat="55.200640" lon="25.920650"></trkpt>
      <trkpt lat="55.200290" lon="25.920140"></trkpt>
      <trkpt lat="55.199915" lon="25.919365"></trkpt>
      <trkpt lat="55.199540" lon="25.918590"></trkpt>
      <trkpt lat="55.199180" lon="25.918010"></trkpt>
      <trkpt lat="55.198970" lon="25.917250"></trkpt>
      <trkpt lat="55.198910" lon="25.917100"></trkpt>
      <trkpt lat="55.198860" lon="25.917060"></trkpt>
      <trkpt lat="55.198570" lon="25.917140"></trkpt>
      <trkpt lat="55.198440" lon="25.917160"></trkpt>
      <trkpt lat="55.198340" lon="25.917120"></trkpt>
      <trkpt lat="55.198230" lon="25.916850"></trkpt>
      <trkpt lat="55.198120" lon="25.916390"></trkpt>
      <trkpt lat="55.197900" lon="25.915160"></trkpt>
      <trkpt lat="55.197690" lon="25.914500"></trkpt>
      <trkpt lat="55.197120" lon="25.913290"></trkpt>
      <trkpt lat="55.196690" lon="25.912430"></trkpt>
      <trkpt lat="55.196420" lon="25.911940"></trkpt>
      <trkpt lat="55.196060" lon="25.911115"></trkpt>
      <trkpt lat="55.195700" lon="25.910290"></trkpt>
      <trkpt lat="55.195250" lon="25.909150"></trkpt>
      <trkpt lat="55.194800" lon="25.908010"></trkpt>
      <trkpt lat="55.194560" lon="25.907250"></trkpt>
      <trkpt lat="55.194390" lon="25.906800"></trkpt>
      <trkpt lat="55.194260" lon="25.906520"></trkpt>
      <trkpt lat="55.193750" lon="25.905610"></trkpt>
      <trkpt lat="55.193560" lon="25.905210"></trkpt>
      <trkpt lat="55.193250" lon="25.904305"></trkpt>
      <trkpt lat="55.192940" lon="25.903400"></trkpt>
      <trkpt lat="55.192810" lon="25.903100"></trkpt>
      <trkpt lat="55.192610" lon="25.902760"></trkpt>
      <trkpt lat="55.192175" lon="25.902170"></trkpt>
      <trkpt lat="55.191740" lon="25.901580"></trkpt>
      <trkpt lat="55.191295" lon="25.901155"></trkpt>
      <trkpt lat="55.190850" lon="25.900730"></trkpt>
      <trkpt lat="55.190180" lon="25.899875"></trkpt>
      <trkpt lat="55.189510" lon="25.899020"></trkpt>
      <trkpt lat="55.188910" lon="25.897960"></trkpt>
      <trkpt lat="55.188380" lon="25.897480"></trkpt>
      <trkpt lat="55.187850" lon="25.897000"></trkpt>
      <trkpt lat="55.187220" lon="25.896290"></trkpt>
      <trkpt lat="55.187160" lon="25.896200"></trkpt>
      <trkpt lat="55.187150" lon="25.896190"></trkpt>
      <trkpt lat="55.186630" lon="25.895365"></trkpt>
      <trkpt lat="55.186110" lon="25.894540"></trkpt>
      <trkpt lat="55.185920" lon="25.894070"></trkpt>
      <trkpt lat="55.185580" lon="25.893390"></trkpt>
      <trkpt lat="55.185190" lon="25.892350"></trkpt>
      <trkpt lat="55.184855" lon="25.891645"></trkpt>
      <trkpt lat="55.184520" lon="25.890940"></trkpt>
      <trkpt lat="55.184125" lon="25.890535"></trkpt>
      <trkpt lat="55.183730" lon="25.890130"></trkpt>
      <trkpt lat="55.183240" lon="25.889655"></trkpt>
      <trkpt lat="55.182750" lon="25.889180"></trkpt>
      <trkpt lat="55.182070" lon="25.888400"></trkpt>
      <trkpt lat="55.181500" lon="25.887390"></trkpt>
      <trkpt lat="55.180915" lon="25.886790"></trkpt>
      <trkpt lat="55.180330" lon="25.886190"></trkpt>
      <trkpt lat="55.179690" lon="25.885660"></trkpt>
      <trkpt lat="55.178933" lon="25.884993"></trkpt>
      <trkpt lat="55.178177" lon="25.884327"></trkpt>
      <trkpt lat="55.177420" lon="25.883660"></trkpt>
      <trkpt lat="55.176860" lon="25.882930"></trkpt>
      <trkpt lat="55.176255" lon="25.882320"></trkpt>
      <trkpt lat="55.175650" lon="25.881710"></trkpt>
      <trkpt lat="55.175440" lon="25.881430"></trkpt>
      <trkpt lat="55.175130" lon="25.880785"></trkpt>
      <trkpt lat="55.174820" lon="25.880140"></trkpt>
      <trkpt lat="55.174430" lon="25.879520"></trkpt>
      <trkpt lat="55.173940" lon="25.878777"></trkpt>
      <trkpt lat="55.173450" lon="25.878033"></trkpt>
      <trkpt lat="55.172960" lon="25.877290"></trkpt>
      <trkpt lat="55.172275" lon="25.876305"></trkpt>
      <trkpt lat="55.171590" lon="25.875320"></trkpt>
      <trkpt lat="55.170905" lon="25.874335"></trkpt>
      <trkpt lat="55.170220" lon="25.873350"></trkpt>
      <trkpt lat="55.169778" lon="25.872362"></trkpt>
      <trkpt lat="55.169335" lon="25.871375"></trkpt>
      <trkpt lat="55.168893" lon="25.870387"></trkpt>
      <trkpt lat="55.168450" lon="25.869400"></trkpt>
      <trkpt lat="55.168090" lon="25.868210"></trkpt>
      <trkpt lat="55.167750" lon="25.867520"></trkpt>
      <trkpt lat="55.167410" lon="25.866830"></trkpt>
      <trkpt lat="55.167250" lon="25.866210"></trkpt>
      <trkpt lat="55.167090" lon="25.865240"></trkpt>
      <trkpt lat="55.166775" lon="25.864145"></trkpt>
      <trkpt lat="55.166460" lon="25.863050"></trkpt>
      <trkpt lat="55.166295" lon="25.862185"></trkpt>
      <trkpt lat="55.166130" lon="25.861320"></trkpt>
      <trkpt lat="55.166070" lon="25.860430"></trkpt>
      <trkpt lat="55.166170" lon="25.859750"></trkpt>
      <trkpt lat="55.166250" lon="25.858460"></trkpt>
      <trkpt lat="55.166490" lon="25.856970"></trkpt>
      <trkpt lat="55.166565" lon="25.855865"></trkpt>
      <trkpt lat="55.166640" lon="25.854760"></trkpt>
      <trkpt lat="55.166520" lon="25.853840"></trkpt>
      <trkpt lat="55.166400" lon="25.852920"></trkpt>
      <trkpt lat="55.166340" lon="25.852440"></trkpt>
      <trkpt lat="55.166240" lon="25.850960"></trkpt>
      <trkpt lat="55.166340" lon="25.849750"></trkpt>
      <trkpt lat="55.166500" lon="25.848560"></trkpt>
      <trkpt lat="55.166480" lon="25.847910"></trkpt>
      <trkpt lat="55.166320" lon="25.847400"></trkpt>
      <trkpt lat="55.165990" lon="25.846065"></trkpt>
      <trkpt lat="55.165660" lon="25.844730"></trkpt>
      <trkpt lat="55.165610" lon="25.844360"></trkpt>
      <trkpt lat="55.165630" lon="25.843910"></trkpt>
      <trkpt lat="55.165720" lon="25.843300"></trkpt>
      <trkpt lat="55.166010" lon="25.841950"></trkpt>
      <trkpt lat="55.166270" lon="25.841055"></trkpt>
      <trkpt lat="55.166530" lon="25.840160"></trkpt>
      <trkpt lat="55.166520" lon="25.840050"></trkpt>
      <trkpt lat="55.166845" lon="25.839460"></trkpt>
      <trkpt lat="55.167170" lon="25.838870"></trkpt>
      <trkpt lat="55.166885" lon="25.838125"></trkpt>
      <trkpt lat="55.166600" lon="25.837380"></trkpt>
      <trkpt lat="55.166520" lon="25.837050"></trkpt>
      <trkpt lat="55.166510" lon="25.835995"></trkpt>
      <trkpt lat="55.166500" lon="25.834940"></trkpt>
      <trkpt lat="55.166360" lon="25.834750"></trkpt>
      <trkpt lat="55.165850" lon="25.833790"></trkpt>
      <trkpt lat="55.165730" lon="25.833440"></trkpt>
      <trkpt lat="55.165550" lon="25.832650"></trkpt>
      <trkpt lat="55.165410" lon="25.831810"></trkpt>
      <trkpt lat="55.165310" lon="25.831410"></trkpt>
      <trkpt lat="55.165150" lon="25.830970"></trkpt>
      <trkpt lat="55.164970" lon="25.830590"></trkpt>
      <trkpt lat="55.164690" lon="25.830180"></trkpt>
      <trkpt lat="55.164043" lon="25.829423"></trkpt>
      <trkpt lat="55.163397" lon="25.828667"></trkpt>
      <trkpt lat="55.162750" lon="25.827910"></trkpt>
      <trkpt lat="55.162370" lon="25.827360"></trkpt>
      <trkpt lat="55.162160" lon="25.826860"></trkpt>
      <trkpt lat="55.162110" lon="25.826640"></trkpt>
      <trkpt lat="55.162000" lon="25.825865"></trkpt>
      <trkpt lat="55.161890" lon="25.825090"></trkpt>
      <trkpt lat="55.161840" lon="25.824490"></trkpt>
      <trkpt lat="55.161840" lon="25.823790"></trkpt>
      <trkpt lat="55.161883" lon="25.822398"></trkpt>
      <trkpt lat="55.161925" lon="25.821005"></trkpt>
      <trkpt lat="55.161968" lon="25.819613"></trkpt>
      <trkpt lat="55.162010" lon="25.818220"></trkpt>
      <trkpt lat="55.162000" lon="25.817570"></trkpt>
      <trkpt lat="55.161960" lon="25.817070"></trkpt>
      <trkpt lat="55.161860" lon="25.816510"></trkpt>
      <trkpt lat="55.161700" lon="25.815920"></trkpt>
      <trkpt lat="55.161380" lon="25.814920"></trkpt>
      <trkpt lat="55.161060" lon="25.813920"></trkpt>
      <trkpt lat="55.160780" lon="25.813170"></trkpt>
      <trkpt lat="55.160500" lon="25.812420"></trkpt>
      <trkpt lat="55.160060" lon="25.811140"></trkpt>
      <trkpt lat="55.159620" lon="25.809860"></trkpt>
      <trkpt lat="55.159335" lon="25.809095"></trkpt>
      <trkpt lat="55.159050" lon="25.808330"></trkpt>
      <trkpt lat="55.158700" lon="25.807545"></trkpt>
      <trkpt lat="55.158350" lon="25.806760"></trkpt>
      <trkpt lat="55.157950" lon="25.805775"></trkpt>
      <trkpt lat="55.157550" lon="25.804790"></trkpt>
      <trkpt lat="55.157340" lon="25.804120"></trkpt>
      <trkpt lat="55.157180" lon="25.803440"></trkpt>
      <trkpt lat="55.157045" lon="25.802680"></trkpt>
      <trkpt lat="55.156910" lon="25.801920"></trkpt>
      <trkpt lat="55.156770" lon="25.801240"></trkpt>
      <trkpt lat="55.156600" lon="25.800650"></trkpt>
      <trkpt lat="55.156310" lon="25.799760"></trkpt>
      <trkpt lat="55.155995" lon="25.798860"></trkpt>
      <trkpt lat="55.155680" lon="25.797960"></trkpt>
      <trkpt lat="55.155470" lon="25.797190"></trkpt>
      <trkpt lat="55.155380" lon="25.796730"></trkpt>
      <trkpt lat="55.155247" lon="25.795637"></trkpt>
      <trkpt lat="55.155113" lon="25.794543"></trkpt>
      <trkpt lat="55.154980" lon="25.793450"></trkpt>
      <trkpt lat="55.154960" lon="25.792490"></trkpt>
      <trkpt lat="55.155025" lon="25.791505"></trkpt>
      <trkpt lat="55.155090" lon="25.790520"></trkpt>
      <trkpt lat="55.155100" lon="25.790070"></trkpt>
      <trkpt lat="55.155080" lon="25.789510"></trkpt>
      <trkpt lat="55.154990" lon="25.789020"></trkpt>
      <trkpt lat="55.154850" lon="25.788530"></trkpt>
      <trkpt lat="55.154480" lon="25.787397"></trkpt>
      <trkpt lat="55.154110" lon="25.786263"></trkpt>
      <trkpt lat="55.153740" lon="25.785130"></trkpt>
      <trkpt lat="55.153640" lon="25.784750"></trkpt>
      <trkpt lat="55.153550" lon="25.784240"></trkpt>
      <trkpt lat="55.153540" lon="25.783820"></trkpt>
      <trkpt lat="55.153580" lon="25.782870"></trkpt>
      <trkpt lat="55.153645" lon="25.782045"></trkpt>
      <trkpt lat="55.153710" lon="25.781220"></trkpt>
      <trkpt lat="55.153890" lon="25.780355"></trkpt>
      <trkpt lat="55.154070" lon="25.779490"></trkpt>
      <trkpt lat="55.154120" lon="25.778880"></trkpt>
      <trkpt lat="55.154120" lon="25.778530"></trkpt>
      <trkpt lat="55.154037" lon="25.777483"></trkpt>
      <trkpt lat="55.153953" lon="25.776437"></trkpt>
      <trkpt lat="55.153870" lon="25.775390"></trkpt>
      <trkpt lat="55.153850" lon="25.773900"></trkpt>
      <trkpt lat="55.153880" lon="25.773280"></trkpt>
      <trkpt lat="55.153980" lon="25.772250"></trkpt>
      <trkpt lat="55.154010" lon="25.771640"></trkpt>
      <trkpt lat="55.153990" lon="25.771270"></trkpt>
      <trkpt lat="55.153930" lon="25.770950"></trkpt>
      <trkpt lat="55.153840" lon="25.770630"></trkpt>
      <trkpt lat="55.153740" lon="25.770380"></trkpt>
      <trkpt lat="55.153590" lon="25.770100"></trkpt>
      <trkpt lat="55.153490" lon="25.769980"></trkpt>
      <trkpt lat="55.152980" lon="25.769190"></trkpt>
      <trkpt lat="55.152660" lon="25.768740"></trkpt>
      <trkpt lat="55.152160" lon="25.767880"></trkpt>
      <trkpt lat="55.151920" lon="25.767320"></trkpt>
      <trkpt lat="55.151660" lon="25.766460"></trkpt>
      <trkpt lat="55.151470" lon="25.765560"></trkpt>
      <trkpt lat="55.151810" lon="25.765120"></trkpt>
      <trkpt lat="55.152030" lon="25.764780"></trkpt>
      <trkpt lat="55.152290" lon="25.764460"></trkpt>
      <trkpt lat="55.152655" lon="25.763810"></trkpt>
      <trkpt lat="55.153020" lon="25.763160"></trkpt>
      <trkpt lat="55.153100" lon="25.762680"></trkpt>
      <trkpt lat="55.153170" lon="25.762450"></trkpt>
      <trkpt lat="55.153710" lon="25.761857"></trkpt>
      <trkpt lat="55.154250" lon="25.761263"></trkpt>
      <trkpt lat="55.154790" lon="25.760670"></trkpt>
      <trkpt lat="55.155530" lon="25.760070"></trkpt>
      <trkpt lat="55.155920" lon="25.759430"></trkpt>
      <trkpt lat="55.156295" lon="25.758450"></trkpt>
      <trkpt lat="55.156670" lon="25.757470"></trkpt>
      <trkpt lat="55.156870" lon="25.757210"></trkpt>
      <trkpt lat="55.157150" lon="25.756970"></trkpt>
      <trkpt lat="55.157855" lon="25.756725"></trkpt>
      <trkpt lat="55.158560" lon="25.756480"></trkpt>
      <trkpt lat="55.158790" lon="25.756450"></trkpt>
      <trkpt lat="55.159000" lon="25.756460"></trkpt>
      <trkpt lat="55.159820" lon="25.756890"></trkpt>
      <trkpt lat="55.160160" lon="25.756970"></trkpt>
      <trkpt lat="55.160570" lon="25.756820"></trkpt>
      <trkpt lat="55.161040" lon="25.756525"></trkpt>
      <trkpt lat="55.161510" lon="25.756230"></trkpt>
      <trkpt lat="55.161690" lon="25.756040"></trkpt>
      <trkpt lat="55.162140" lon="25.754980"></trkpt>
      <trkpt lat="55.162270" lon="25.754830"></trkpt>
      <trkpt lat="55.163120" lon="25.754440"></trkpt>
      <trkpt lat="55.163860" lon="25.754230"></trkpt>
      <trkpt lat="55.164480" lon="25.754030"></trkpt>
      <trkpt lat="55.164720" lon="25.753920"></trkpt>
      <trkpt lat="55.165270" lon="25.753610"></trkpt>
      <trkpt lat="55.165760" lon="25.753120"></trkpt>
      <trkpt lat="55.166130" lon="25.752810"></trkpt>
      <trkpt lat="55.166690" lon="25.752413"></trkpt>
      <trkpt lat="55.167250" lon="25.752017"></trkpt>
      <trkpt lat="55.167810" lon="25.751620"></trkpt>
      <trkpt lat="55.168180" lon="25.751470"></trkpt>
      <trkpt lat="55.168620" lon="25.751380"></trkpt>
      <trkpt lat="55.168820" lon="25.751290"></trkpt>
      <trkpt lat="55.169040" lon="25.751130"></trkpt>
      <trkpt lat="55.169630" lon="25.750125"></trkpt>
      <trkpt lat="55.170220" lon="25.749120"></trkpt>
      <trkpt lat="55.170310" lon="25.748880"></trkpt>
      <trkpt lat="55.170340" lon="25.748300"></trkpt>
      <trkpt lat="55.170420" lon="25.747940"></trkpt>
      <trkpt lat="55.170670" lon="25.747360"></trkpt>
      <trkpt lat="55.170860" lon="25.747110"></trkpt>
      <trkpt lat="55.170960" lon="25.746910"></trkpt>
      <trkpt lat="55.171260" lon="25.746400"></trkpt>
      <trkpt lat="55.171950" lon="25.745773"></trkpt>
      <trkpt lat="55.172640" lon="25.745147"></trkpt>
      <trkpt lat="55.173330" lon="25.744520"></trkpt>
      <trkpt lat="55.173745" lon="25.743970"></trkpt>
      <trkpt lat="55.174160" lon="25.743420"></trkpt>
      <trkpt lat="55.174610" lon="25.742570"></trkpt>
      <trkpt lat="55.174900" lon="25.742100"></trkpt>
      <trkpt lat="55.175290" lon="25.741730"></trkpt>
      <trkpt lat="55.175400" lon="25.741550"></trkpt>
      <trkpt lat="55.175560" lon="25.740870"></trkpt>
      <trkpt lat="55.175850" lon="25.740050"></trkpt>
      <trkpt lat="55.176440" lon="25.739120"></trkpt>
      <trkpt lat="55.176550" lon="25.738670"></trkpt>
      <trkpt lat="55.176490" lon="25.737830"></trkpt>
      <trkpt lat="55.176500" lon="25.737160"></trkpt>
      <trkpt lat="55.176570" lon="25.736280"></trkpt>
      <trkpt lat="55.176680" lon="25.735113"></trkpt>
      <trkpt lat="55.176790" lon="25.733947"></trkpt>
      <trkpt lat="55.176900" lon="25.732780"></trkpt>
      <trkpt lat="55.176950" lon="25.732400"></trkpt>
      <trkpt lat="55.177100" lon="25.731670"></trkpt>
      <trkpt lat="55.177415" lon="25.730670"></trkpt>
      <trkpt lat="55.177730" lon="25.729670"></trkpt>
      <trkpt lat="55.177920" lon="25.728480"></trkpt>
      <trkpt lat="55.178070" lon="25.727050"></trkpt>
      <trkpt lat="55.178190" lon="25.725680"></trkpt>
      <trkpt lat="55.178280" lon="25.724980"></trkpt>
      <trkpt lat="55.178390" lon="25.724340"></trkpt>
      <trkpt lat="55.178530" lon="25.723700"></trkpt>
      <trkpt lat="55.178855" lon="25.722690"></trkpt>
      <trkpt lat="55.179180" lon="25.721680"></trkpt>
      <trkpt lat="55.179420" lon="25.720760"></trkpt>
      <trkpt lat="55.179700" lon="25.719615"></trkpt>
      <trkpt lat="55.179980" lon="25.718470"></trkpt>
      <trkpt lat="55.180100" lon="25.717670"></trkpt>
      <trkpt lat="55.180130" lon="25.717050"></trkpt>
      <trkpt lat="55.180110" lon="25.716360"></trkpt>
      <trkpt lat="55.180010" lon="25.715900"></trkpt>
      <trkpt lat="55.179880" lon="25.715580"></trkpt>
      <trkpt lat="55.179720" lon="25.715300"></trkpt>
      <trkpt lat="55.179065" lon="25.714495"></trkpt>
      <trkpt lat="55.178410" lon="25.713690"></trkpt>
      <trkpt lat="55.178350" lon="25.713530"></trkpt>
      <trkpt lat="55.178310" lon="25.713200"></trkpt>
      <trkpt lat="55.178350" lon="25.712980"></trkpt>
      <trkpt lat="55.178683" lon="25.712000"></trkpt>
      <trkpt lat="55.179017" lon="25.711020"></trkpt>
      <trkpt lat="55.179350" lon="25.710040"></trkpt>
      <trkpt lat="55.179590" lon="25.709070"></trkpt>
      <trkpt lat="55.179660" lon="25.708300"></trkpt>
      <trkpt lat="55.179680" lon="25.707030"></trkpt>
      <trkpt lat="55.179740" lon="25.706500"></trkpt>
      <trkpt lat="55.179790" lon="25.706290"></trkpt>
      <trkpt lat="55.179920" lon="25.706020"></trkpt>
      <trkpt lat="55.180335" lon="25.705260"></trkpt>
      <trkpt lat="55.180750" lon="25.704500"></trkpt>
      <trkpt lat="55.180880" lon="25.704160"></trkpt>
      <trkpt lat="55.181270" lon="25.702830"></trkpt>
      <trkpt lat="55.181620" lon="25.701520"></trkpt>
      <trkpt lat="55.181970" lon="25.700210"></trkpt>
      <trkpt lat="55.182410" lon="25.698990"></trkpt>
      <trkpt lat="55.182410" lon="25.699000"></trkpt>
      <trkpt lat="55.182710" lon="25.698250"></trkpt>
      <trkpt lat="55.183050" lon="25.697645"></trkpt>
      <trkpt lat="55.183390" lon="25.697040"></trkpt>
      <trkpt lat="55.183980" lon="25.696190"></trkpt>
      <trkpt lat="55.184250" lon="25.695670"></trkpt>
      <trkpt lat="55.184370" lon="25.695500"></trkpt>
      <trkpt lat="55.184870" lon="25.694880"></trkpt>
      <trkpt lat="55.185295" lon="25.694250"></trkpt>
      <trkpt lat="55.185720" lon="25.693620"></trkpt>
      <trkpt lat="55.185830" lon="25.693270"></trkpt>
      <trkpt lat="55.185960" lon="25.692730"></trkpt>
      <trkpt lat="55.186330" lon="25.692020"></trkpt>
      <trkpt lat="55.186440" lon="25.691760"></trkpt>
      <trkpt lat="55.186510" lon="25.691500"></trkpt>
      <trkpt lat="55.186610" lon="25.690980"></trkpt>
      <trkpt lat="55.186640" lon="25.690710"></trkpt>
      <trkpt lat="55.186650" lon="25.690410"></trkpt>
      <trkpt lat="55.186595" lon="25.689375"></trkpt>
      <trkpt lat="55.186540" lon="25.688340"></trkpt>
      <trkpt lat="55.186490" lon="25.688150"></trkpt>
      <trkpt lat="55.186390" lon="25.688040"></trkpt>
      <trkpt lat="55.186270" lon="25.687940"></trkpt>
      <trkpt lat="55.185480" lon="25.687620"></trkpt>
      <trkpt lat="55.184690" lon="25.687300"></trkpt>
      <trkpt lat="55.184580" lon="25.687200"></trkpt>
      <trkpt lat="55.184510" lon="25.687030"></trkpt>
      <trkpt lat="55.184460" lon="25.686740"></trkpt>
      <trkpt lat="55.184400" lon="25.686130"></trkpt>
      <trkpt lat="55.184350" lon="25.685850"></trkpt>
      <trkpt lat="55.184140" lon="25.685150"></trkpt>
      <trkpt lat="55.184130" lon="25.684860"></trkpt>
      <trkpt lat="55.184190" lon="25.683795"></trkpt>
      <trkpt lat="55.184250" lon="25.682730"></trkpt>
      <trkpt lat="55.184290" lon="25.682540"></trkpt>
      <trkpt lat="55.184615" lon="25.681665"></trkpt>
      <trkpt lat="55.184940" lon="25.680790"></trkpt>
      <trkpt lat="55.185020" lon="25.680500"></trkpt>
      <trkpt lat="55.185090" lon="25.679780"></trkpt>
      <trkpt lat="55.185180" lon="25.678360"></trkpt>
      <trkpt lat="55.185190" lon="25.677990"></trkpt>
      <trkpt lat="55.185070" lon="25.677100"></trkpt>
      <trkpt lat="55.185080" lon="25.676750"></trkpt>
      <trkpt lat="55.185130" lon="25.676100"></trkpt>
      <trkpt lat="55.185100" lon="25.675580"></trkpt>
      <trkpt lat="55.184983" lon="25.674215"></trkpt>
      <trkpt lat="55.184865" lon="25.672850"></trkpt>
      <trkpt lat="55.184748" lon="25.671485"></trkpt>
      <trkpt lat="55.184630" lon="25.670120"></trkpt>
      <trkpt lat="55.184640" lon="25.669970"></trkpt>
      <trkpt lat="55.184730" lon="25.669500"></trkpt>
      <trkpt lat="55.185140" lon="25.668390"></trkpt>
      <trkpt lat="55.185330" lon="25.667025"></trkpt>
      <trkpt lat="55.185520" lon="25.665660"></trkpt>
      <trkpt lat="55.185550" lon="25.665350"></trkpt>
      <trkpt lat="55.185600" lon="25.665090"></trkpt>
      <trkpt lat="55.185810" lon="25.664440"></trkpt>
      <trkpt lat="55.186387" lon="25.663347"></trkpt>
      <trkpt lat="55.186963" lon="25.662253"></trkpt>
      <trkpt lat="55.187540" lon="25.661160"></trkpt>
      <trkpt lat="55.188073" lon="25.660320"></trkpt>
      <trkpt lat="55.188607" lon="25.659480"></trkpt>
      <trkpt lat="55.189140" lon="25.658640"></trkpt>
      <trkpt lat="55.189540" lon="25.658170"></trkpt>
      <trkpt lat="55.189940" lon="25.657700"></trkpt>
      <trkpt lat="55.190295" lon="25.657085"></trkpt>
      <trkpt lat="55.190650" lon="25.656470"></trkpt>
      <trkpt lat="55.190810" lon="25.656150"></trkpt>
      <trkpt lat="55.190870" lon="25.655970"></trkpt>
      <trkpt lat="55.191020" lon="25.655180"></trkpt>
      <trkpt lat="55.191320" lon="25.654610"></trkpt>
      <trkpt lat="55.191710" lon="25.654030"></trkpt>
      <trkpt lat="55.191850" lon="25.653890"></trkpt>
      <trkpt lat="55.191970" lon="25.653830"></trkpt>
      <trkpt lat="55.192580" lon="25.654070"></trkpt>
      <trkpt lat="55.193260" lon="25.654380"></trkpt>
      <trkpt lat="55.193940" lon="25.654690"></trkpt>
      <trkpt lat="55.194620" lon="25.655000"></trkpt>
      <trkpt lat="55.195140" lon="25.655150"></trkpt>
      <trkpt lat="55.195660" lon="25.655300"></trkpt>
      <trkpt lat="55.195950" lon="25.655440"></trkpt>
      <trkpt lat="55.196240" lon="25.655610"></trkpt>
      <trkpt lat="55.196370" lon="25.655710"></trkpt>
      <trkpt lat="55.196650" lon="25.656160"></trkpt>
      <trkpt lat="55.196910" lon="25.656480"></trkpt>
      <trkpt lat="55.197080" lon="25.656740"></trkpt>
      <trkpt lat="55.197515" lon="25.657505"></trkpt>
      <trkpt lat="55.197950" lon="25.658270"></trkpt>
      <trkpt lat="55.198130" lon="25.658470"></trkpt>
      <trkpt lat="55.198720" lon="25.658955"></trkpt>
      <trkpt lat="55.199310" lon="25.659440"></trkpt>
      <trkpt lat="55.199390" lon="25.659450"></trkpt>
      <trkpt lat="55.199510" lon="25.659420"></trkpt>
      <trkpt lat="55.200020" lon="25.658550"></trkpt>
      <trkpt lat="55.200530" lon="25.657680"></trkpt>
      <trkpt lat="55.200900" lon="25.656580"></trkpt>
      <trkpt lat="55.201090" lon="25.656280"></trkpt>
      <trkpt lat="55.201390" lon="25.656040"></trkpt>
      <trkpt lat="55.202020" lon="25.655640"></trkpt>
      <trkpt lat="55.202500" lon="25.655415"></trkpt>
      <trkpt lat="55.202980" lon="25.655190"></trkpt>
      <trkpt lat="55.203290" lon="25.654950"></trkpt>
      <trkpt lat="55.203845" lon="25.654425"></trkpt>
      <trkpt lat="55.204400" lon="25.653900"></trkpt>
      <trkpt lat="55.204910" lon="25.653435"></trkpt>
      <trkpt lat="55.205420" lon="25.652970"></trkpt>
      <trkpt lat="55.205600" lon="25.652750"></trkpt>
      <trkpt lat="55.205660" lon="25.652710"></trkpt>
      <trkpt lat="55.205830" lon="25.652710"></trkpt>
      <trkpt lat="55.206080" lon="25.652890"></trkpt>
      <trkpt lat="55.206150" lon="25.652970"></trkpt>
      <trkpt lat="55.206500" lon="25.653670"></trkpt>
      <trkpt lat="55.206870" lon="25.654310"></trkpt>
      <trkpt lat="55.207000" lon="25.654580"></trkpt>
      <trkpt lat="55.207480" lon="25.655880"></trkpt>
      <trkpt lat="55.207797" lon="25.656857"></trkpt>
      <trkpt lat="55.208113" lon="25.657833"></trkpt>
      <trkpt lat="55.208430" lon="25.658810"></trkpt>
      <trkpt lat="55.208930" lon="25.658520"></trkpt>
      <trkpt lat="55.209430" lon="25.658230"></trkpt>
      <trkpt lat="55.210030" lon="25.657730"></trkpt>
      <trkpt lat="55.210630" lon="25.657230"></trkpt>
      <trkpt lat="55.210880" lon="25.656840"></trkpt>
      <trkpt lat="55.211100" lon="25.656160"></trkpt>
      <trkpt lat="55.211560" lon="25.655510"></trkpt>
      <trkpt lat="55.211680" lon="25.655240"></trkpt>
      <trkpt lat="55.211870" lon="25.654650"></trkpt>
      <trkpt lat="55.212010" lon="25.654340"></trkpt>
      <trkpt lat="55.212260" lon="25.654010"></trkpt>
      <trkpt lat="55.212370" lon="25.653910"></trkpt>
      <trkpt lat="55.212960" lon="25.653720"></trkpt>
      <trkpt lat="55.213040" lon="25.653590"></trkpt>
      <trkpt lat="55.213380" lon="25.652920"></trkpt>
      <trkpt lat="55.213800" lon="25.652350"></trkpt>
      <trkpt lat="55.213900" lon="25.652150"></trkpt>
      <trkpt lat="55.214100" lon="25.652740"></trkpt>
      <trkpt lat="55.214310" lon="25.653695"></trkpt>
      <trkpt lat="55.214520" lon="25.654650"></trkpt>
      <trkpt lat="55.214900" lon="25.655597"></trkpt>
      <trkpt lat="55.215280" lon="25.656543"></trkpt>
      <trkpt lat="55.215660" lon="25.657490"></trkpt>
      <trkpt lat="55.216050" lon="25.658520"></trkpt>
      <trkpt lat="55.216180" lon="25.658980"></trkpt>
      <trkpt lat="55.216270" lon="25.659450"></trkpt>
      <trkpt lat="55.216330" lon="25.660220"></trkpt>
      <trkpt lat="55.216360" lon="25.661130"></trkpt>
      <trkpt lat="55.216390" lon="25.662040"></trkpt>
      <trkpt lat="55.216290" lon="25.663220"></trkpt>
      <trkpt lat="55.216270" lon="25.663660"></trkpt>
      <trkpt lat="55.216330" lon="25.664060"></trkpt>
      <trkpt lat="55.216440" lon="25.664550"></trkpt>
      <trkpt lat="55.216590" lon="25.664850"></trkpt>
      <trkpt lat="55.217175" lon="25.665490"></trkpt>
      <trkpt lat="55.217760" lon="25.666130"></trkpt>
      <trkpt lat="55.218245" lon="25.666545"></trkpt>
      <trkpt lat="55.218730" lon="25.666960"></trkpt>
      <trkpt lat="55.219220" lon="25.667310"></trkpt>
      <trkpt lat="55.219520" lon="25.667300"></trkpt>
      <trkpt lat="55.220070" lon="25.667095"></trkpt>
      <trkpt lat="55.220620" lon="25.666890"></trkpt>
      <trkpt lat="55.221320" lon="25.666590"></trkpt>
      <trkpt lat="55.221720" lon="25.666590"></trkpt>
      <trkpt lat="55.222455" lon="25.666695"></trkpt>
      <trkpt lat="55.223190" lon="25.666800"></trkpt>
      <trkpt lat="55.223670" lon="25.666855"></trkpt>
      <trkpt lat="55.224150" lon="25.666910"></trkpt>
      <trkpt lat="55.224920" lon="25.666840"></trkpt>
      <trkpt lat="55.225250" lon="25.666740"></trkpt>
      <trkpt lat="55.225510" lon="25.666580"></trkpt>
      <trkpt lat="55.225850" lon="25.666310"></trkpt>
      <trkpt lat="55.226160" lon="25.665990"></trkpt>
      <trkpt lat="55.226535" lon="25.665480"></trkpt>
      <trkpt lat="55.226910" lon="25.664970"></trkpt>
      <trkpt lat="55.227447" lon="25.664193"></trkpt>
      <trkpt lat="55.227983" lon="25.663417"></trkpt>
      <trkpt lat="55.228520" lon="25.662640"></trkpt>
      <trkpt lat="55.228770" lon="25.662360"></trkpt>
      <trkpt lat="55.228990" lon="25.663020"></trkpt>
      <trkpt lat="55.229365" lon="25.664020"></trkpt>
      <trkpt lat="55.229740" lon="25.665020"></trkpt>
      <trkpt lat="55.229810" lon="25.664950"></trkpt>
      <trkpt lat="55.230640" lon="25.664570"></trkpt>
      <trkpt lat="55.231250" lon="25.664270"></trkpt>
      <trkpt lat="55.231360" lon="25.664250"></trkpt>
      <trkpt lat="55.231460" lon="25.664260"></trkpt>
      <trkpt lat="55.232090" lon="25.664490"></trkpt>
      <trkpt lat="55.239070" lon="25.667080"></trkpt>
      <trkpt lat="55.239260" lon="25.667380"></trkpt>
      <trkpt lat="55.239480" lon="25.667610"></trkpt>
      <trkpt lat="55.239790" lon="25.667860"></trkpt>
      <trkpt lat="55.240100" lon="25.668040"></trkpt>
      <trkpt lat="55.240310" lon="25.668230"></trkpt>
      <trkpt lat="55.240420" lon="25.668420"></trkpt>
      <trkpt lat="55.240570" lon="25.668850"></trkpt>
      <trkpt lat="55.240650" lon="25.669190"></trkpt>
      <trkpt lat="55.240800" lon="25.670185"></trkpt>
      <trkpt lat="55.240950" lon="25.671180"></trkpt>
      <trkpt lat="55.241030" lon="25.671520"></trkpt>
      <trkpt lat="55.241150" lon="25.671660"></trkpt>
      <trkpt lat="55.241340" lon="25.671760"></trkpt>
      <trkpt lat="55.242040" lon="25.672020"></trkpt>
      <trkpt lat="55.242740" lon="25.672280"></trkpt>
      <trkpt lat="55.243440" lon="25.672540"></trkpt>
      <trkpt lat="55.244140" lon="25.672800"></trkpt>
      <trkpt lat="55.244825" lon="25.673765"></trkpt>
      <trkpt lat="55.245510" lon="25.674730"></trkpt>
      <trkpt lat="55.245640" lon="25.674930"></trkpt>
      <trkpt lat="55.245730" lon="25.675140"></trkpt>
      <trkpt lat="55.245860" lon="25.675290"></trkpt>
      <trkpt lat="55.246090" lon="25.675450"></trkpt>
      <trkpt lat="55.246340" lon="25.675590"></trkpt>
      <trkpt lat="55.246750" lon="25.675760"></trkpt>
      <trkpt lat="55.246980" lon="25.675880"></trkpt>
      <trkpt lat="55.247190" lon="25.676070"></trkpt>
      <trkpt lat="55.247930" lon="25.676900"></trkpt>
      <trkpt lat="55.248060" lon="25.676980"></trkpt>
      <trkpt lat="55.248250" lon="25.676960"></trkpt>
      <trkpt lat="55.248550" lon="25.676890"></trkpt>
      <trkpt lat="55.248650" lon="25.676810"></trkpt>
      <trkpt lat="55.248720" lon="25.676650"></trkpt>
      <trkpt lat="55.248850" lon="25.676220"></trkpt>
      <trkpt lat="55.248970" lon="25.675970"></trkpt>
      <trkpt lat="55.249150" lon="25.675770"></trkpt>
      <trkpt lat="55.249750" lon="25.675520"></trkpt>
      <trkpt lat="55.250230" lon="25.675280"></trkpt>
      <trkpt lat="55.250500" lon="25.674980"></trkpt>
      <trkpt lat="55.250790" lon="25.674530"></trkpt>
      <trkpt lat="55.251175" lon="25.674045"></trkpt>
      <trkpt lat="55.251560" lon="25.673560"></trkpt>
      <trkpt lat="55.252220" lon="25.672640"></trkpt>
      <trkpt lat="55.252520" lon="25.672410"></trkpt>
      <trkpt lat="55.252760" lon="25.672140"></trkpt>
      <trkpt lat="55.253270" lon="25.671190"></trkpt>
      <trkpt lat="55.253460" lon="25.670660"></trkpt>
      <trkpt lat="55.253685" lon="25.669920"></trkpt>
      <trkpt lat="55.253910" lon="25.669180"></trkpt>
      <trkpt lat="55.254070" lon="25.668790"></trkpt>
      <trkpt lat="55.254375" lon="25.668200"></trkpt>
      <trkpt lat="55.254680" lon="25.667610"></trkpt>
      <trkpt lat="55.254930" lon="25.667250"></trkpt>
      <trkpt lat="55.255330" lon="25.666580"></trkpt>
      <trkpt lat="55.255420" lon="25.666500"></trkpt>
      <trkpt lat="55.255620" lon="25.666470"></trkpt>
      <trkpt lat="55.255690" lon="25.666510"></trkpt>
      <trkpt lat="55.255800" lon="25.666710"></trkpt>
      <trkpt lat="55.256225" lon="25.666410"></trkpt>
      <trkpt lat="55.256650" lon="25.666110"></trkpt>
      <trkpt lat="55.256860" lon="25.665780"></trkpt>
      <trkpt lat="55.257380" lon="25.664650"></trkpt>
      <trkpt lat="55.257880" lon="25.663800"></trkpt>
      <trkpt lat="55.258270" lon="25.662995"></trkpt>
      <trkpt lat="55.258660" lon="25.662190"></trkpt>
      <trkpt lat="55.258870" lon="25.661890"></trkpt>
      <trkpt lat="55.259170" lon="25.661670"></trkpt>
      <trkpt lat="55.259450" lon="25.661520"></trkpt>
      <trkpt lat="55.259870" lon="25.661420"></trkpt>
      <trkpt lat="55.260350" lon="25.661050"></trkpt>
      <trkpt lat="55.261120" lon="25.660310"></trkpt>
      <trkpt lat="55.261350" lon="25.660160"></trkpt>
      <trkpt lat="55.261680" lon="25.659990"></trkpt>
      <trkpt lat="55.261830" lon="25.659830"></trkpt>
      <trkpt lat="55.261900" lon="25.659680"></trkpt>
      <trkpt lat="55.262170" lon="25.659110"></trkpt>
      <trkpt lat="55.262330" lon="25.658880"></trkpt>
      <trkpt lat="55.262690" lon="25.658570"></trkpt>
      <trkpt lat="55.263300" lon="25.657780"></trkpt>
      <trkpt lat="55.263910" lon="25.656990"></trkpt>
      <trkpt lat="55.264720" lon="25.656865"></trkpt>
      <trkpt lat="55.265530" lon="25.656740"></trkpt>
      <trkpt lat="55.266250" lon="25.656840"></trkpt>
      <trkpt lat="55.266590" lon="25.656950"></trkpt>
      <trkpt lat="55.267220" lon="25.656730"></trkpt>
      <trkpt lat="55.267860" lon="25.656660"></trkpt>
      <trkpt lat="55.268390" lon="25.656520"></trkpt>
      <trkpt lat="55.268870" lon="25.655710"></trkpt>
      <trkpt lat="55.269440" lon="25.655040"></trkpt>
      <trkpt lat="55.269990" lon="25.655010"></trkpt>
      <trkpt lat="55.270460" lon="25.654870"></trkpt>
      <trkpt lat="55.271050" lon="25.654300"></trkpt>
      <trkpt lat="55.271700" lon="25.654045"></trkpt>
      <trkpt lat="55.272350" lon="25.653790"></trkpt>
      <trkpt lat="55.272810" lon="25.653305"></trkpt>
      <trkpt lat="55.273270" lon="25.652820"></trkpt>
      <trkpt lat="55.273870" lon="25.651710"></trkpt>
      <trkpt lat="55.274405" lon="25.651300"></trkpt>
      <trkpt lat="55.274940" lon="25.650890"></trkpt>
      <trkpt lat="55.274920" lon="25.650140"></trkpt>
      <trkpt lat="55.274880" lon="25.649420"></trkpt>
      <trkpt lat="55.274890" lon="25.648920"></trkpt>
      <trkpt lat="55.275140" lon="25.647905"></trkpt>
      <trkpt lat="55.275390" lon="25.646890"></trkpt>
      <trkpt lat="55.275385" lon="25.646090"></trkpt>
      <trkpt lat="55.275380" lon="25.645290"></trkpt>
      <trkpt lat="55.275440" lon="25.643880"></trkpt>
      <trkpt lat="55.275270" lon="25.643130"></trkpt>
      <trkpt lat="55.274930" lon="25.642600"></trkpt>
      <trkpt lat="55.274590" lon="25.642070"></trkpt>
      <trkpt lat="55.274480" lon="25.641150"></trkpt>
      <trkpt lat="55.274620" lon="25.640410"></trkpt>
      <trkpt lat="55.275270" lon="25.639380"></trkpt>
      <trkpt lat="55.275430" lon="25.638660"></trkpt>
      <trkpt lat="55.275220" lon="25.637880"></trkpt>
      <trkpt lat="55.275010" lon="25.637100"></trkpt>
      <trkpt lat="55.275180" lon="25.636380"></trkpt>
      <trkpt lat="55.275060" lon="25.635180"></trkpt>
      <trkpt lat="55.275150" lon="25.634200"></trkpt>
      <trkpt lat="55.275270" lon="25.633115"></trkpt>
      <trkpt lat="55.275390" lon="25.632030"></trkpt>
      <trkpt lat="55.275210" lon="25.631210"></trkpt>
      <trkpt lat="55.274717" lon="25.630557"></trkpt>
      <trkpt lat="55.274223" lon="25.629903"></trkpt>
      <trkpt lat="55.273730" lon="25.629250"></trkpt>
      <trkpt lat="55.273410" lon="25.628780"></trkpt>
      <trkpt lat="55.273300" lon="25.628670"></trkpt>
      <trkpt lat="55.273615" lon="25.627850"></trkpt>
      <trkpt lat="55.273930" lon="25.627030"></trkpt>
      <trkpt lat="55.274387" lon="25.625760"></trkpt>
      <trkpt lat="55.274843" lon="25.624490"></trkpt>
      <trkpt lat="55.275300" lon="25.623220"></trkpt>
      <trkpt lat="55.275425" lon="25.621790"></trkpt>
      <trkpt lat="55.275550" lon="25.620360"></trkpt>
      <trkpt lat="55.275530" lon="25.619130"></trkpt>
      <trkpt lat="55.275527" lon="25.617647"></trkpt>
      <trkpt lat="55.275523" lon="25.616163"></trkpt>
      <trkpt lat="55.275520" lon="25.614680"></trkpt>
      <trkpt lat="55.275420" lon="25.613480"></trkpt>
      <trkpt lat="55.275420" lon="25.613490"></trkpt>
      <trkpt lat="55.275330" lon="25.612300"></trkpt>
      <trkpt lat="55.275020" lon="25.610940"></trkpt>
      <trkpt lat="55.275080" lon="25.610320"></trkpt>
      <trkpt lat="55.275420" lon="25.610120"></trkpt>
      <trkpt lat="55.275960" lon="25.610080"></trkpt>
      <trkpt lat="55.276500" lon="25.610040"></trkpt>
      <trkpt lat="55.277220" lon="25.609657"></trkpt>
      <trkpt lat="55.277940" lon="25.609273"></trkpt>
      <trkpt lat="55.278660" lon="25.608890"></trkpt>
      <trkpt lat="55.279330" lon="25.608570"></trkpt>
      <trkpt lat="55.280000" lon="25.608250"></trkpt>
      <trkpt lat="55.280780" lon="25.607570"></trkpt>
      <trkpt lat="55.281200" lon="25.606920"></trkpt>
      <trkpt lat="55.281710" lon="25.605870"></trkpt>
      <trkpt lat="55.281920" lon="25.605100"></trkpt>
      <trkpt lat="55.282030" lon="25.604870"></trkpt>
      <trkpt lat="55.282190" lon="25.604800"></trkpt>
      <trkpt lat="55.282860" lon="25.604770"></trkpt>
      <trkpt lat="55.283590" lon="25.604410"></trkpt>
      <trkpt lat="55.284125" lon="25.603885"></trkpt>
      <trkpt lat="55.284660" lon="25.603360"></trkpt>
      <trkpt lat="55.285175" lon="25.602970"></trkpt>
      <trkpt lat="55.285690" lon="25.602580"></trkpt>
      <trkpt lat="55.285720" lon="25.602510"></trkpt>
      <trkpt lat="55.285720" lon="25.602280"></trkpt>
      <trkpt lat="55.285640" lon="25.601470"></trkpt>
      <trkpt lat="55.285420" lon="25.600090"></trkpt>
      <trkpt lat="55.285400" lon="25.599570"></trkpt>
      <trkpt lat="55.285430" lon="25.599170"></trkpt>
      <trkpt lat="55.285710" lon="25.597870"></trkpt>
      <trkpt lat="55.285740" lon="25.597800"></trkpt>
      <trkpt lat="55.285790" lon="25.597770"></trkpt>
      <trkpt lat="55.285750" lon="25.597260"></trkpt>
      <trkpt lat="55.285830" lon="25.597180"></trkpt>
      <trkpt lat="55.285970" lon="25.596650"></trkpt>
      <trkpt lat="55.286080" lon="25.596360"></trkpt>
      <trkpt lat="55.286220" lon="25.596070"></trkpt>
      <trkpt lat="55.286330" lon="25.595920"></trkpt>
      <trkpt lat="55.286400" lon="25.595780"></trkpt>
      <trkpt lat="55.286480" lon="25.595560"></trkpt>
      <trkpt lat="55.286840" lon="25.594960"></trkpt>
      <trkpt lat="55.287070" lon="25.594410"></trkpt>
      <trkpt lat="55.287510" lon="25.593740"></trkpt>
      <trkpt lat="55.287830" lon="25.593180"></trkpt>
      <trkpt lat="55.287930" lon="25.593060"></trkpt>
      <trkpt lat="55.288080" lon="25.593010"></trkpt>
      <trkpt lat="55.288520" lon="25.593140"></trkpt>
      <trkpt lat="55.289167" lon="25.593450"></trkpt>
      <trkpt lat="55.289813" lon="25.593760"></trkpt>
      <trkpt lat="55.290460" lon="25.594070"></trkpt>
      <trkpt lat="55.290740" lon="25.594060"></trkpt>
      <trkpt lat="55.291170" lon="25.593790"></trkpt>
      <trkpt lat="55.291460" lon="25.593810"></trkpt>
      <trkpt lat="55.291890" lon="25.594160"></trkpt>
      <trkpt lat="55.292580" lon="25.594940"></trkpt>
      <trkpt lat="55.293090" lon="25.595705"></trkpt>
      <trkpt lat="55.293600" lon="25.596470"></trkpt>
      <trkpt lat="55.293915" lon="25.597350"></trkpt>
      <trkpt lat="55.294230" lon="25.598230"></trkpt>
      <trkpt lat="55.294270" lon="25.598430"></trkpt>
      <trkpt lat="55.294350" lon="25.599220"></trkpt>
      <trkpt lat="55.294650" lon="25.599820"></trkpt>
      <trkpt lat="55.295050" lon="25.600200"></trkpt>
      <trkpt lat="55.295580" lon="25.600550"></trkpt>
      <trkpt lat="55.296110" lon="25.600900"></trkpt>
      <trkpt lat="55.296793" lon="25.600877"></trkpt>
      <trkpt lat="55.297477" lon="25.600853"></trkpt>
      <trkpt lat="55.298160" lon="25.600830"></trkpt>
      <trkpt lat="55.298830" lon="25.600570"></trkpt>
      <trkpt lat="55.299200" lon="25.600200"></trkpt>
      <trkpt lat="55.299740" lon="25.599340"></trkpt>
      <trkpt lat="55.300280" lon="25.598480"></trkpt>
      <trkpt lat="55.300440" lon="25.598210"></trkpt>
      <trkpt lat="55.300780" lon="25.597740"></trkpt>
      <trkpt lat="55.300620" lon="25.597960"></trkpt>
      <trkpt lat="55.300780" lon="25.597740"></trkpt>
      <trkpt lat="55.300820" lon="25.597680"></trkpt>
      <trkpt lat="55.301150" lon="25.597510"></trkpt>
      <trkpt lat="55.301650" lon="25.597155"></trkpt>
      <trkpt lat="55.302150" lon="25.596800"></trkpt>
      <trkpt lat="55.302753" lon="25.596470"></trkpt>
      <trkpt lat="55.303357" lon="25.596140"></trkpt>
      <trkpt lat="55.303960" lon="25.595810"></trkpt>
      <trkpt lat="55.304400" lon="25.595430"></trkpt>
      <trkpt lat="55.304970" lon="25.594820"></trkpt>
      <trkpt lat="55.305345" lon="25.594160"></trkpt>
      <trkpt lat="55.305720" lon="25.593500"></trkpt>
      <trkpt lat="55.306183" lon="25.592633"></trkpt>
      <trkpt lat="55.306647" lon="25.591767"></trkpt>
      <trkpt lat="55.307110" lon="25.590900"></trkpt>
      <trkpt lat="55.307620" lon="25.589890"></trkpt>
      <trkpt lat="55.307830" lon="25.589590"></trkpt>
      <trkpt lat="55.308040" lon="25.589360"></trkpt>
      <trkpt lat="55.308703" lon="25.588893"></trkpt>
      <trkpt lat="55.309367" lon="25.588427"></trkpt>
      <trkpt lat="55.310030" lon="25.587960"></trkpt>
      <trkpt lat="55.310465" lon="25.587435"></trkpt>
      <trkpt lat="55.310900" lon="25.586910"></trkpt>
      <trkpt lat="55.311350" lon="25.586830"></trkpt>
      <trkpt lat="55.311450" lon="25.586840"></trkpt>
      <trkpt lat="55.311590" lon="25.586880"></trkpt>
      <trkpt lat="55.312040" lon="25.587120"></trkpt>
      <trkpt lat="55.312270" lon="25.587160"></trkpt>
      <trkpt lat="55.312860" lon="25.587160"></trkpt>
      <trkpt lat="55.313450" lon="25.587160"></trkpt>
      <trkpt lat="55.313680" lon="25.587130"></trkpt>
      <trkpt lat="55.314190" lon="25.586870"></trkpt>
      <trkpt lat="55.314370" lon="25.587760"></trkpt>
      <trkpt lat="55.314490" lon="25.588090"></trkpt>
      <trkpt lat="55.314640" lon="25.588350"></trkpt>
      <trkpt lat="55.314830" lon="25.588560"></trkpt>
      <trkpt lat="55.315020" lon="25.588680"></trkpt>
      <trkpt lat="55.315220" lon="25.588760"></trkpt>
      <trkpt lat="55.315360" lon="25.588890"></trkpt>
      <trkpt lat="55.315500" lon="25.589120"></trkpt>
      <trkpt lat="55.315610" lon="25.589370"></trkpt>
      <trkpt lat="55.315720" lon="25.589850"></trkpt>
      <trkpt lat="55.315660" lon="25.590430"></trkpt>
      <trkpt lat="55.315415" lon="25.591715"></trkpt>
      <trkpt lat="55.315170" lon="25.593000"></trkpt>
      <trkpt lat="55.315130" lon="25.593470"></trkpt>
      <trkpt lat="55.314970" lon="25.594510"></trkpt>
      <trkpt lat="55.314815" lon="25.595795"></trkpt>
      <trkpt lat="55.314660" lon="25.597080"></trkpt>
      <trkpt lat="55.314565" lon="25.598065"></trkpt>
      <trkpt lat="55.314470" lon="25.599050"></trkpt>
      <trkpt lat="55.314450" lon="25.599770"></trkpt>
      <trkpt lat="55.314370" lon="25.600850"></trkpt>
      <trkpt lat="55.314380" lon="25.601700"></trkpt>
      <trkpt lat="55.314360" lon="25.602360"></trkpt>
      <trkpt lat="55.314230" lon="25.603290"></trkpt>
      <trkpt lat="55.314190" lon="25.603680"></trkpt>
      <trkpt lat="55.313990" lon="25.604200"></trkpt>
      <trkpt lat="55.313740" lon="25.605180"></trkpt>
      <trkpt lat="55.313470" lon="25.606360"></trkpt>
      <trkpt lat="55.313400" lon="25.607150"></trkpt>
      <trkpt lat="55.313410" lon="25.608010"></trkpt>
      <trkpt lat="55.313390" lon="25.609460"></trkpt>
      <trkpt lat="55.313360" lon="25.609920"></trkpt>
      <trkpt lat="55.313130" lon="25.611070"></trkpt>
      <trkpt lat="55.313150" lon="25.611360"></trkpt>
      <trkpt lat="55.313280" lon="25.611780"></trkpt>
      <trkpt lat="55.313310" lon="25.611980"></trkpt>
      <trkpt lat="55.313350" lon="25.613150"></trkpt>
      <trkpt lat="55.313560" lon="25.613850"></trkpt>
      <trkpt lat="55.313540" lon="25.614220"></trkpt>
      <trkpt lat="55.313420" lon="25.614600"></trkpt>
      <trkpt lat="55.313120" lon="25.615090"></trkpt>
      <trkpt lat="55.312980" lon="25.615470"></trkpt>
      <trkpt lat="55.312890" lon="25.615990"></trkpt>
      <trkpt lat="55.312820" lon="25.616570"></trkpt>
      <trkpt lat="55.312890" lon="25.617690"></trkpt>
      <trkpt lat="55.312980" lon="25.618240"></trkpt>
      <trkpt lat="55.313010" lon="25.618670"></trkpt>
      <trkpt lat="55.312960" lon="25.619280"></trkpt>
      <trkpt lat="55.312880" lon="25.619860"></trkpt>
      <trkpt lat="55.312840" lon="25.620490"></trkpt>
      <trkpt lat="55.312930" lon="25.621290"></trkpt>
      <trkpt lat="55.313120" lon="25.622420"></trkpt>
      <trkpt lat="55.313200" lon="25.623780"></trkpt>
      <trkpt lat="55.313280" lon="25.624340"></trkpt>
      <trkpt lat="55.313510" lon="25.625340"></trkpt>
      <trkpt lat="55.313490" lon="25.626530"></trkpt>
      <trkpt lat="55.313380" lon="25.627190"></trkpt>
      <trkpt lat="55.313140" lon="25.628250"></trkpt>
      <trkpt lat="55.312910" lon="25.629020"></trkpt>
      <trkpt lat="55.312680" lon="25.629790"></trkpt>
      <trkpt lat="55.312360" lon="25.630410"></trkpt>
      <trkpt lat="55.312040" lon="25.631030"></trkpt>
      <trkpt lat="55.311540" lon="25.631725"></trkpt>
      <trkpt lat="55.311040" lon="25.632420"></trkpt>
      <trkpt lat="55.310370" lon="25.633420"></trkpt>
      <trkpt lat="55.310035" lon="25.634015"></trkpt>
      <trkpt lat="55.309700" lon="25.634610"></trkpt>
      <trkpt lat="55.309570" lon="25.634890"></trkpt>
      <trkpt lat="55.309480" lon="25.635000"></trkpt>
      <trkpt lat="55.309310" lon="25.635620"></trkpt>
      <trkpt lat="55.308950" lon="25.636550"></trkpt>
      <trkpt lat="55.308590" lon="25.637480"></trkpt>
      <trkpt lat="55.308230" lon="25.638410"></trkpt>
      <trkpt lat="55.307930" lon="25.639550"></trkpt>
      <trkpt lat="55.308090" lon="25.640320"></trkpt>
      <trkpt lat="55.308250" lon="25.641090"></trkpt>
      <trkpt lat="55.308430" lon="25.642080"></trkpt>
      <trkpt lat="55.308660" lon="25.642850"></trkpt>
      <trkpt lat="55.309057" lon="25.644260"></trkpt>
      <trkpt lat="55.309453" lon="25.645670"></trkpt>
      <trkpt lat="55.309850" lon="25.647080"></trkpt>
      <trkpt lat="55.309960" lon="25.647670"></trkpt>
      <trkpt lat="55.310030" lon="25.648330"></trkpt>
      <trkpt lat="55.310220" lon="25.649110"></trkpt>
      <trkpt lat="55.310260" lon="25.649540"></trkpt>
      <trkpt lat="55.310350" lon="25.651095"></trkpt>
      <trkpt lat="55.310440" lon="25.652650"></trkpt>
      <trkpt lat="55.310630" lon="25.653630"></trkpt>
      <trkpt lat="55.310970" lon="25.654600"></trkpt>
      <trkpt lat="55.311540" lon="25.655617"></trkpt>
      <trkpt lat="55.312110" lon="25.656633"></trkpt>
      <trkpt lat="55.312680" lon="25.657650"></trkpt>
      <trkpt lat="55.313310" lon="25.658240"></trkpt>
      <trkpt lat="55.313570" lon="25.658610"></trkpt>
      <trkpt lat="55.313790" lon="25.659100"></trkpt>
      <trkpt lat="55.314173" lon="25.660070"></trkpt>
      <trkpt lat="55.314557" lon="25.661040"></trkpt>
      <trkpt lat="55.314940" lon="25.662010"></trkpt>
      <trkpt lat="55.315110" lon="25.663155"></trkpt>
      <trkpt lat="55.315280" lon="25.664300"></trkpt>
      <trkpt lat="55.315420" lon="25.664610"></trkpt>
      <trkpt lat="55.315860" lon="25.665340"></trkpt>
      <trkpt lat="55.316020" lon="25.665450"></trkpt>
      <trkpt lat="55.316410" lon="25.665430"></trkpt>
      <trkpt lat="55.316520" lon="25.665340"></trkpt>
      <trkpt lat="55.317150" lon="25.664380"></trkpt>
      <trkpt lat="55.317260" lon="25.664270"></trkpt>
      <trkpt lat="55.317590" lon="25.664200"></trkpt>
      <trkpt lat="55.318460" lon="25.664180"></trkpt>
      <trkpt lat="55.318680" lon="25.664260"></trkpt>
      <trkpt lat="55.319160" lon="25.664600"></trkpt>
      <trkpt lat="55.319280" lon="25.664630"></trkpt>
      <trkpt lat="55.319370" lon="25.664620"></trkpt>
      <trkpt lat="55.319540" lon="25.664520"></trkpt>
      <trkpt lat="55.319640" lon="25.664420"></trkpt>
      <trkpt lat="55.319730" lon="25.664290"></trkpt>
      <trkpt lat="55.319990" lon="25.663710"></trkpt>
      <trkpt lat="55.320315" lon="25.662810"></trkpt>
      <trkpt lat="55.320640" lon="25.661910"></trkpt>
      <trkpt lat="55.320870" lon="25.661065"></trkpt>
      <trkpt lat="55.321100" lon="25.660220"></trkpt>
      <trkpt lat="55.321270" lon="25.659790"></trkpt>
      <trkpt lat="55.321350" lon="25.659660"></trkpt>
      <trkpt lat="55.321820" lon="25.659520"></trkpt>
      <trkpt lat="55.322400" lon="25.659480"></trkpt>
      <trkpt lat="55.322520" lon="25.659500"></trkpt>
      <trkpt lat="55.322910" lon="25.659690"></trkpt>
      <trkpt lat="55.323040" lon="25.659680"></trkpt>
      <trkpt lat="55.323430" lon="25.659300"></trkpt>
      <trkpt lat="55.323890" lon="25.658740"></trkpt>
      <trkpt lat="55.324030" lon="25.658640"></trkpt>
      <trkpt lat="55.324150" lon="25.658490"></trkpt>
      <trkpt lat="55.324240" lon="25.658480"></trkpt>
      <trkpt lat="55.324300" lon="25.658510"></trkpt>
      <trkpt lat="55.324340" lon="25.658560"></trkpt>
      <trkpt lat="55.324650" lon="25.659800"></trkpt>
      <trkpt lat="55.324960" lon="25.661040"></trkpt>
      <trkpt lat="55.325270" lon="25.662280"></trkpt>
      <trkpt lat="55.325400" lon="25.662580"></trkpt>
      <trkpt lat="55.325580" lon="25.662890"></trkpt>
      <trkpt lat="55.325780" lon="25.663190"></trkpt>
      <trkpt lat="55.325980" lon="25.663390"></trkpt>
      <trkpt lat="55.326180" lon="25.663560"></trkpt>
      <trkpt lat="55.327003" lon="25.664027"></trkpt>
      <trkpt lat="55.327827" lon="25.664493"></trkpt>
      <trkpt lat="55.328650" lon="25.664960"></trkpt>
      <trkpt lat="55.328940" lon="25.665280"></trkpt>
      <trkpt lat="55.329140" lon="25.665560"></trkpt>
      <trkpt lat="55.329370" lon="25.665750"></trkpt>
      <trkpt lat="55.329570" lon="25.665820"></trkpt>
      <trkpt lat="55.330356" lon="25.665814"></trkpt>
      <trkpt lat="55.331141" lon="25.665809"></trkpt>
      <trkpt lat="55.331927" lon="25.665803"></trkpt>
      <trkpt lat="55.332713" lon="25.665797"></trkpt>
      <trkpt lat="55.333499" lon="25.665791"></trkpt>
      <trkpt lat="55.334284" lon="25.665786"></trkpt>
      <trkpt lat="55.335070" lon="25.665780"></trkpt>
      <trkpt lat="55.335460" lon="25.665700"></trkpt>
      <trkpt lat="55.335630" lon="25.665590"></trkpt>
      <trkpt lat="55.336130" lon="25.665075"></trkpt>
      <trkpt lat="55.336630" lon="25.664560"></trkpt>
      <trkpt lat="55.337065" lon="25.664145"></trkpt>
      <trkpt lat="55.337500" lon="25.663730"></trkpt>
      <trkpt lat="55.337870" lon="25.663430"></trkpt>
      <trkpt lat="55.337920" lon="25.663630"></trkpt>
      <trkpt lat="55.338070" lon="25.664040"></trkpt>
      <trkpt lat="55.338180" lon="25.664570"></trkpt>
      <trkpt lat="55.338320" lon="25.665640"></trkpt>
      <trkpt lat="55.338410" lon="25.666040"></trkpt>
      <trkpt lat="55.338740" lon="25.667160"></trkpt>
      <trkpt lat="55.339100" lon="25.668030"></trkpt>
      <trkpt lat="55.339460" lon="25.668900"></trkpt>
      <trkpt lat="55.339600" lon="25.669310"></trkpt>
      <trkpt lat="55.339660" lon="25.669620"></trkpt>
      <trkpt lat="55.339640" lon="25.670090"></trkpt>
      <trkpt lat="55.339560" lon="25.670560"></trkpt>
      <trkpt lat="55.339520" lon="25.671580"></trkpt>
      <trkpt lat="55.339480" lon="25.672600"></trkpt>
      <trkpt lat="55.339410" lon="25.673360"></trkpt>
      <trkpt lat="55.339205" lon="25.674220"></trkpt>
      <trkpt lat="55.339000" lon="25.675080"></trkpt>
      <trkpt lat="55.338910" lon="25.675710"></trkpt>
      <trkpt lat="55.338950" lon="25.676990"></trkpt>
      <trkpt lat="55.338860" lon="25.678300"></trkpt>
      <trkpt lat="55.338920" lon="25.678880"></trkpt>
      <trkpt lat="55.339090" lon="25.679460"></trkpt>
      <trkpt lat="55.339550" lon="25.680230"></trkpt>
      <trkpt lat="55.339730" lon="25.680580"></trkpt>
      <trkpt lat="55.339840" lon="25.680990"></trkpt>
      <trkpt lat="55.339910" lon="25.681550"></trkpt>
      <trkpt lat="55.339890" lon="25.682360"></trkpt>
      <trkpt lat="55.339760" lon="25.683070"></trkpt>
      <trkpt lat="55.339500" lon="25.683930"></trkpt>
      <trkpt lat="55.339420" lon="25.684720"></trkpt>
      <trkpt lat="55.339395" lon="25.685845"></trkpt>
      <trkpt lat="55.339370" lon="25.686970"></trkpt>
      <trkpt lat="55.339240" lon="25.688050"></trkpt>
      <trkpt lat="55.339240" lon="25.688310"></trkpt>
      <trkpt lat="55.339350" lon="25.689577"></trkpt>
      <trkpt lat="55.339460" lon="25.690845"></trkpt>
      <trkpt lat="55.339570" lon="25.692112"></trkpt>
      <trkpt lat="55.339680" lon="25.693380"></trkpt>
      <trkpt lat="55.339685" lon="25.694230"></trkpt>
      <trkpt lat="55.339690" lon="25.695080"></trkpt>
      <trkpt lat="55.339660" lon="25.695290"></trkpt>
      <trkpt lat="55.339590" lon="25.695530"></trkpt>
      <trkpt lat="55.339160" lon="25.696500"></trkpt>
      <trkpt lat="55.338765" lon="25.697135"></trkpt>
      <trkpt lat="55.338370" lon="25.697770"></trkpt>
      <trkpt lat="55.338190" lon="25.698090"></trkpt>
      <trkpt lat="55.338080" lon="25.698420"></trkpt>
      <trkpt lat="55.337990" lon="25.699120"></trkpt>
      <trkpt lat="55.337970" lon="25.699460"></trkpt>
      <trkpt lat="55.338000" lon="25.699780"></trkpt>
      <trkpt lat="55.338200" lon="25.700670"></trkpt>
      <trkpt lat="55.338360" lon="25.700940"></trkpt>
      <trkpt lat="55.338490" lon="25.701030"></trkpt>
      <trkpt lat="55.338960" lon="25.701025"></trkpt>
      <trkpt lat="55.339430" lon="25.701020"></trkpt>
      <trkpt lat="55.340010" lon="25.701140"></trkpt>
      <trkpt lat="55.340590" lon="25.701260"></trkpt>
      <trkpt lat="55.340740" lon="25.701380"></trkpt>
      <trkpt lat="55.340890" lon="25.701690"></trkpt>
      <trkpt lat="55.341350" lon="25.702800"></trkpt>
      <trkpt lat="55.341460" lon="25.703500"></trkpt>
      <trkpt lat="55.341540" lon="25.704620"></trkpt>
      <trkpt lat="55.341520" lon="25.704880"></trkpt>
      <trkpt lat="55.341410" lon="25.705715"></trkpt>
      <trkpt lat="55.341300" lon="25.706550"></trkpt>
      <trkpt lat="55.341150" lon="25.707240"></trkpt>
      <trkpt lat="55.340960" lon="25.707870"></trkpt>
      <trkpt lat="55.340930" lon="25.708020"></trkpt>
      <trkpt lat="55.340920" lon="25.708200"></trkpt>
      <trkpt lat="55.340560" lon="25.708640"></trkpt>
      <trkpt lat="55.340045" lon="25.709205"></trkpt>
      <trkpt lat="55.339530" lon="25.709770"></trkpt>
      <trkpt lat="55.338930" lon="25.710360"></trkpt>
      <trkpt lat="55.338160" lon="25.710930"></trkpt>
      <trkpt lat="55.337573" lon="25.711157"></trkpt>
      <trkpt lat="55.336987" lon="25.711383"></trkpt>
      <trkpt lat="55.336400" lon="25.711610"></trkpt>
      <trkpt lat="55.335710" lon="25.711690"></trkpt>
      <trkpt lat="55.335530" lon="25.711890"></trkpt>
      <trkpt lat="55.335440" lon="25.712070"></trkpt>
      <trkpt lat="55.335210" lon="25.712780"></trkpt>
      <trkpt lat="55.335120" lon="25.713130"></trkpt>
      <trkpt lat="55.335070" lon="25.713490"></trkpt>
      <trkpt lat="55.334980" lon="25.713750"></trkpt>
      <trkpt lat="55.334710" lon="25.714210"></trkpt>
      <trkpt lat="55.334530" lon="25.714350"></trkpt>
      <trkpt lat="55.334290" lon="25.714590"></trkpt>
      <trkpt lat="55.334190" lon="25.714760"></trkpt>
      <trkpt lat="55.334050" lon="25.715040"></trkpt>
      <trkpt lat="55.333660" lon="25.716370"></trkpt>
      <trkpt lat="55.333530" lon="25.716670"></trkpt>
      <trkpt lat="55.333430" lon="25.716850"></trkpt>
      <trkpt lat="55.332960" lon="25.717410"></trkpt>
      <trkpt lat="55.332690" lon="25.718220"></trkpt>
      <trkpt lat="55.332475" lon="25.719195"></trkpt>
      <trkpt lat="55.332260" lon="25.720170"></trkpt>
      <trkpt lat="55.332220" lon="25.720420"></trkpt>
      <trkpt lat="55.332230" lon="25.721480"></trkpt>
      <trkpt lat="55.332240" lon="25.722540"></trkpt>
      <trkpt lat="55.332210" lon="25.723080"></trkpt>
      <trkpt lat="55.332140" lon="25.724015"></trkpt>
      <trkpt lat="55.332070" lon="25.724950"></trkpt>
      <trkpt lat="55.332050" lon="25.725150"></trkpt>
      <trkpt lat="55.332000" lon="25.725360"></trkpt>
      <trkpt lat="55.332040" lon="25.725750"></trkpt>
      <trkpt lat="55.332090" lon="25.726130"></trkpt>
      <trkpt lat="55.332680" lon="25.726165"></trkpt>
      <trkpt lat="55.333270" lon="25.726200"></trkpt>
      <trkpt lat="55.334005" lon="25.726670"></trkpt>
      <trkpt lat="55.334740" lon="25.727140"></trkpt>
      <trkpt lat="55.335090" lon="25.727260"></trkpt>
      <trkpt lat="55.335390" lon="25.727300"></trkpt>
      <trkpt lat="55.335570" lon="25.727270"></trkpt>
      <trkpt lat="55.336400" lon="25.727750"></trkpt>
      <trkpt lat="55.336910" lon="25.728410"></trkpt>
      <trkpt lat="55.337670" lon="25.729200"></trkpt>
      <trkpt lat="55.338280" lon="25.729870"></trkpt>
      <trkpt lat="55.338730" lon="25.730430"></trkpt>
      <trkpt lat="55.338970" lon="25.731020"></trkpt>
      <trkpt lat="55.339100" lon="25.731590"></trkpt>
      <trkpt lat="55.339150" lon="25.732000"></trkpt>
      <trkpt lat="55.339160" lon="25.732350"></trkpt>
      <trkpt lat="55.339060" lon="25.733090"></trkpt>
      <trkpt lat="55.338910" lon="25.733630"></trkpt>
      <trkpt lat="55.338750" lon="25.734130"></trkpt>
      <trkpt lat="55.338570" lon="25.735413"></trkpt>
      <trkpt lat="55.338390" lon="25.736697"></trkpt>
      <trkpt lat="55.338210" lon="25.737980"></trkpt>
      <trkpt lat="55.338060" lon="25.738800"></trkpt>
      <trkpt lat="55.338020" lon="25.739320"></trkpt>
      <trkpt lat="55.338040" lon="25.739910"></trkpt>
      <trkpt lat="55.338165" lon="25.740715"></trkpt>
      <trkpt lat="55.338290" lon="25.741520"></trkpt>
      <trkpt lat="55.338590" lon="25.742590"></trkpt>
      <trkpt lat="55.338850" lon="25.743130"></trkpt>
      <trkpt lat="55.339090" lon="25.743490"></trkpt>
      <trkpt lat="55.339570" lon="25.744035"></trkpt>
      <trkpt lat="55.340050" lon="25.744580"></trkpt>
      <trkpt lat="55.340713" lon="25.745377"></trkpt>
      <trkpt lat="55.341375" lon="25.746175"></trkpt>
      <trkpt lat="55.342038" lon="25.746972"></trkpt>
      <trkpt lat="55.342700" lon="25.747770"></trkpt>
      <trkpt lat="55.342850" lon="25.748090"></trkpt>
      <trkpt lat="55.343030" lon="25.748610"></trkpt>
      <trkpt lat="55.343210" lon="25.749390"></trkpt>
      <trkpt lat="55.343390" lon="25.750170"></trkpt>
      <trkpt lat="55.343690" lon="25.751315"></trkpt>
      <trkpt lat="55.343990" lon="25.752460"></trkpt>
      <trkpt lat="55.344255" lon="25.753265"></trkpt>
      <trkpt lat="55.344520" lon="25.754070"></trkpt>
      <trkpt lat="55.344620" lon="25.754420"></trkpt>
      <trkpt lat="55.344600" lon="25.754870"></trkpt>
      <trkpt lat="55.344510" lon="25.755150"></trkpt>
      <trkpt lat="55.344450" lon="25.755500"></trkpt>
      <trkpt lat="55.344390" lon="25.757040"></trkpt>
      <trkpt lat="55.344410" lon="25.757490"></trkpt>
      <trkpt lat="55.344490" lon="25.757980"></trkpt>
      <trkpt lat="55.344720" lon="25.758780"></trkpt>
      <trkpt lat="55.344890" lon="25.759190"></trkpt>
      <trkpt lat="55.345060" lon="25.759450"></trkpt>
      <trkpt lat="55.345220" lon="25.759640"></trkpt>
      <trkpt lat="55.345865" lon="25.760270"></trkpt>
      <trkpt lat="55.346510" lon="25.760900"></trkpt>
      <trkpt lat="55.346620" lon="25.761080"></trkpt>
      <trkpt lat="55.346690" lon="25.761300"></trkpt>
      <trkpt lat="55.346720" lon="25.761590"></trkpt>
      <trkpt lat="55.346660" lon="25.762180"></trkpt>
      <trkpt lat="55.346595" lon="25.763065"></trkpt>
      <trkpt lat="55.346530" lon="25.763950"></trkpt>
      <trkpt lat="55.346480" lon="25.765270"></trkpt>
      <trkpt lat="55.346480" lon="25.766120"></trkpt>
      <trkpt lat="55.346400" lon="25.767000"></trkpt>
      <trkpt lat="55.346410" lon="25.767860"></trkpt>
      <trkpt lat="55.346470" lon="25.768300"></trkpt>
      <trkpt lat="55.346570" lon="25.768810"></trkpt>
      <trkpt lat="55.346908" lon="25.770135"></trkpt>
      <trkpt lat="55.347245" lon="25.771460"></trkpt>
      <trkpt lat="55.347583" lon="25.772785"></trkpt>
      <trkpt lat="55.347920" lon="25.774110"></trkpt>
      <trkpt lat="55.347940" lon="25.774290"></trkpt>
      <trkpt lat="55.347810" lon="25.774360"></trkpt>
      <trkpt lat="55.347680" lon="25.774480"></trkpt>
      <trkpt lat="55.347540" lon="25.774720"></trkpt>
      <trkpt lat="55.347450" lon="25.775010"></trkpt>
      <trkpt lat="55.347410" lon="25.775380"></trkpt>
      <trkpt lat="55.347428" lon="25.776852"></trkpt>
      <trkpt lat="55.347445" lon="25.778325"></trkpt>
      <trkpt lat="55.347463" lon="25.779797"></trkpt>
      <trkpt lat="55.347480" lon="25.781270"></trkpt>
      <trkpt lat="55.347510" lon="25.781610"></trkpt>
      <trkpt lat="55.347580" lon="25.781970"></trkpt>
      <trkpt lat="55.347680" lon="25.782320"></trkpt>
      <trkpt lat="55.348085" lon="25.783395"></trkpt>
      <trkpt lat="55.348490" lon="25.784470"></trkpt>
      <trkpt lat="55.348550" lon="25.784770"></trkpt>
      <trkpt lat="55.348580" lon="25.785170"></trkpt>
    </trkseg>
  </trk>
</gpx>
