<?xml version="1.0" encoding="UTF-8"?>
<gpx version="1.1" creator="PointService" xmlns="http://www.topografix.com/GPX/1/1">
  <trk>
    <name>Circle Route</name>
    <trkseg>
      <trkpt lat="55.348580" lon="25.785170"></trkpt>
      <trkpt lat="55.348484" lon="25.786633"></trkpt>
      <trkpt lat="55.348389" lon="25.788096"></trkpt>
      <trkpt lat="55.348293" lon="25.789559"></trkpt>
      <trkpt lat="55.348197" lon="25.791021"></trkpt>
      <trkpt lat="55.348102" lon="25.792484"></trkpt>
      <trkpt lat="55.348006" lon="25.793947"></trkpt>
      <trkpt lat="55.347910" lon="25.795410"></trkpt>
      <trkpt lat="55.347870" lon="25.795740"></trkpt>
      <trkpt lat="55.347780" lon="25.795980"></trkpt>
      <trkpt lat="55.347680" lon="25.796150"></trkpt>
      <trkpt lat="55.347510" lon="25.796250"></trkpt>
      <trkpt lat="55.346790" lon="25.796405"></trkpt>
      <trkpt lat="55.346070" lon="25.796560"></trkpt>
      <trkpt lat="55.345900" lon="25.796680"></trkpt>
      <trkpt lat="55.345780" lon="25.796840"></trkpt>
      <trkpt lat="55.345650" lon="25.797150"></trkpt>
      <trkpt lat="55.345288" lon="25.798420"></trkpt>
      <trkpt lat="55.344925" lon="25.799690"></trkpt>
      <trkpt lat="55.344563" lon="25.800960"></trkpt>
      <trkpt lat="55.344200" lon="25.802230"></trkpt>
      <trkpt lat="55.343950" lon="25.802895"></trkpt>
      <trkpt lat="55.343700" lon="25.803560"></trkpt>
      <trkpt lat="55.343460" lon="25.804050"></trkpt>
      <trkpt lat="55.343065" lon="25.804740"></trkpt>
      <trkpt lat="55.342670" lon="25.805430"></trkpt>
      <trkpt lat="55.342590" lon="25.805620"></trkpt>
      <trkpt lat="55.342520" lon="25.805860"></trkpt>
      <trkpt lat="55.342470" lon="25.806280"></trkpt>
      <trkpt lat="55.342470" lon="25.806500"></trkpt>
      <trkpt lat="55.342550" lon="25.807000"></trkpt>
      <trkpt lat="55.342690" lon="25.807510"></trkpt>
      <trkpt lat="55.342960" lon="25.808340"></trkpt>
      <trkpt lat="55.343090" lon="25.808790"></trkpt>
      <trkpt lat="55.342950" lon="25.808990"></trkpt>
      <trkpt lat="55.342445" lon="25.809785"></trkpt>
      <trkpt lat="55.341940" lon="25.810580"></trkpt>
      <trkpt lat="55.341500" lon="25.811260"></trkpt>
      <trkpt lat="55.341320" lon="25.811440"></trkpt>
      <trkpt lat="55.341050" lon="25.811650"></trkpt>
      <trkpt lat="55.340338" lon="25.812198"></trkpt>
      <trkpt lat="55.339626" lon="25.812746"></trkpt>
      <trkpt lat="55.338914" lon="25.813294"></trkpt>
      <trkpt lat="55.338202" lon="25.813842"></trkpt>
      <trkpt lat="55.337490" lon="25.814390"></trkpt>
      <trkpt lat="55.337100" lon="25.814790"></trkpt>
      <trkpt lat="55.336680" lon="25.815300"></trkpt>
      <trkpt lat="55.336440" lon="25.815630"></trkpt>
      <trkpt lat="55.336200" lon="25.816060"></trkpt>
      <trkpt lat="55.335930" lon="25.816620"></trkpt>
      <trkpt lat="55.335615" lon="25.817380"></trkpt>
      <trkpt lat="55.335300" lon="25.818140"></trkpt>
      <trkpt lat="55.335190" lon="25.818470"></trkpt>
      <trkpt lat="55.334920" lon="25.819500"></trkpt>
      <trkpt lat="55.334740" lon="25.820070"></trkpt>
      <trkpt lat="55.334350" lon="25.821070"></trkpt>
      <trkpt lat="55.334180" lon="25.821330"></trkpt>
      <trkpt lat="55.333930" lon="25.821640"></trkpt>
      <trkpt lat="55.333280" lon="25.822620"></trkpt>
      <trkpt lat="55.332930" lon="25.823060"></trkpt>
      <trkpt lat="55.332200" lon="25.823830"></trkpt>
      <trkpt lat="55.331470" lon="25.824600"></trkpt>
      <trkpt lat="55.330930" lon="25.825263"></trkpt>
      <trkpt lat="55.330390" lon="25.825927"></trkpt>
      <trkpt lat="55.329850" lon="25.826590"></trkpt>
      <trkpt lat="55.329710" lon="25.826800"></trkpt>
      <trkpt lat="55.329420" lon="25.827350"></trkpt>
      <trkpt lat="55.329027" lon="25.828337"></trkpt>
      <trkpt lat="55.328633" lon="25.829323"></trkpt>
      <trkpt lat="55.328240" lon="25.830310"></trkpt>
      <trkpt lat="55.328160" lon="25.830480"></trkpt>
      <trkpt lat="55.327960" lon="25.830800"></trkpt>
      <trkpt lat="55.327420" lon="25.831435"></trkpt>
      <trkpt lat="55.326880" lon="25.832070"></trkpt>
      <trkpt lat="55.326700" lon="25.832210"></trkpt>
      <trkpt lat="55.326590" lon="25.832260"></trkpt>
      <trkpt lat="55.326390" lon="25.832290"></trkpt>
      <trkpt lat="55.326310" lon="25.832270"></trkpt>
      <trkpt lat="55.326090" lon="25.832140"></trkpt>
      <trkpt lat="55.325980" lon="25.832030"></trkpt>
      <trkpt lat="55.325710" lon="25.831660"></trkpt>
      <trkpt lat="55.325590" lon="25.831430"></trkpt>
      <trkpt lat="55.325430" lon="25.831000"></trkpt>
      <trkpt lat="55.325220" lon="25.830200"></trkpt>
      <trkpt lat="55.325140" lon="25.829990"></trkpt>
      <trkpt lat="55.325070" lon="25.829860"></trkpt>
      <trkpt lat="55.324870" lon="25.829630"></trkpt>
      <trkpt lat="55.324230" lon="25.829120"></trkpt>
      <trkpt lat="55.323950" lon="25.828940"></trkpt>
      <trkpt lat="55.323620" lon="25.828790"></trkpt>
      <trkpt lat="55.323440" lon="25.828760"></trkpt>
      <trkpt lat="55.322875" lon="25.828785"></trkpt>
      <trkpt lat="55.322310" lon="25.828810"></trkpt>
      <trkpt lat="55.322100" lon="25.828780"></trkpt>
      <trkpt lat="55.322000" lon="25.828730"></trkpt>
      <trkpt lat="55.321790" lon="25.828550"></trkpt>
      <trkpt lat="55.321630" lon="25.828190"></trkpt>
      <trkpt lat="55.321470" lon="25.827660"></trkpt>
      <trkpt lat="55.321350" lon="25.827150"></trkpt>
      <trkpt lat="55.321310" lon="25.826900"></trkpt>
      <trkpt lat="55.321280" lon="25.825420"></trkpt>
      <trkpt lat="55.321180" lon="25.824650"></trkpt>
      <trkpt lat="55.321050" lon="25.824080"></trkpt>
      <trkpt lat="55.320940" lon="25.823730"></trkpt>
      <trkpt lat="55.320610" lon="25.822890"></trkpt>
      <trkpt lat="55.320500" lon="25.822650"></trkpt>
      <trkpt lat="55.320350" lon="25.822390"></trkpt>
      <trkpt lat="55.320170" lon="25.822150"></trkpt>
      <trkpt lat="55.319940" lon="25.821920"></trkpt>
      <trkpt lat="55.319410" lon="25.821470"></trkpt>
      <trkpt lat="55.318620" lon="25.820970"></trkpt>
      <trkpt lat="55.318050" lon="25.820420"></trkpt>
      <trkpt lat="55.317320" lon="25.819860"></trkpt>
      <trkpt lat="55.316900" lon="25.819450"></trkpt>
      <trkpt lat="55.316740" lon="25.819330"></trkpt>
      <trkpt lat="55.316570" lon="25.819220"></trkpt>
      <trkpt lat="55.316110" lon="25.818980"></trkpt>
      <trkpt lat="55.315480" lon="25.818740"></trkpt>
      <trkpt lat="55.314870" lon="25.818607"></trkpt>
      <trkpt lat="55.314260" lon="25.818473"></trkpt>
      <trkpt lat="55.313650" lon="25.818340"></trkpt>
      <trkpt lat="55.313160" lon="25.818260"></trkpt>
      <trkpt lat="55.312830" lon="25.818250"></trkpt>
      <trkpt lat="55.312240" lon="25.818280"></trkpt>
      <trkpt lat="55.311775" lon="25.818255"></trkpt>
      <trkpt lat="55.311310" lon="25.818230"></trkpt>
      <trkpt lat="55.310980" lon="25.818250"></trkpt>
      <trkpt lat="55.310660" lon="25.818300"></trkpt>
      <trkpt lat="55.310510" lon="25.818350"></trkpt>
      <trkpt lat="55.310340" lon="25.818430"></trkpt>
      <trkpt lat="55.309990" lon="25.818660"></trkpt>
      <trkpt lat="55.309230" lon="25.819240"></trkpt>
      <trkpt lat="55.309110" lon="25.819310"></trkpt>
      <trkpt lat="55.308960" lon="25.819360"></trkpt>
      <trkpt lat="55.308740" lon="25.819360"></trkpt>
      <trkpt lat="55.308640" lon="25.819320"></trkpt>
      <trkpt lat="55.308400" lon="25.819170"></trkpt>
      <trkpt lat="55.307970" lon="25.818860"></trkpt>
      <trkpt lat="55.307550" lon="25.818670"></trkpt>
      <trkpt lat="55.307110" lon="25.818600"></trkpt>
      <trkpt lat="55.306500" lon="25.818630"></trkpt>
      <trkpt lat="55.306030" lon="25.818680"></trkpt>
      <trkpt lat="55.306030" lon="25.818790"></trkpt>
      <trkpt lat="55.305990" lon="25.818870"></trkpt>
      <trkpt lat="55.305690" lon="25.819230"></trkpt>
      <trkpt lat="55.305235" lon="25.819975"></trkpt>
      <trkpt lat="55.304780" lon="25.820720"></trkpt>
      <trkpt lat="55.304620" lon="25.821040"></trkpt>
      <trkpt lat="55.304375" lon="25.821840"></trkpt>
      <trkpt lat="55.304130" lon="25.822640"></trkpt>
      <trkpt lat="55.303990" lon="25.823010"></trkpt>
      <trkpt lat="55.303850" lon="25.823270"></trkpt>
      <trkpt lat="55.303295" lon="25.823835"></trkpt>
      <trkpt lat="55.302740" lon="25.824400"></trkpt>
      <trkpt lat="55.302300" lon="25.824935"></trkpt>
      <trkpt lat="55.301860" lon="25.825470"></trkpt>
      <trkpt lat="55.301320" lon="25.826630"></trkpt>
      <trkpt lat="55.300960" lon="25.827355"></trkpt>
      <trkpt lat="55.300600" lon="25.828080"></trkpt>
      <trkpt lat="55.300470" lon="25.828580"></trkpt>
      <trkpt lat="55.300340" lon="25.829240"></trkpt>
      <trkpt lat="55.300270" lon="25.829870"></trkpt>
      <trkpt lat="55.300225" lon="25.830915"></trkpt>
      <trkpt lat="55.300180" lon="25.831960"></trkpt>
      <trkpt lat="55.300055" lon="25.833510"></trkpt>
      <trkpt lat="55.299930" lon="25.835060"></trkpt>
      <trkpt lat="55.299930" lon="25.835470"></trkpt>
      <trkpt lat="55.300010" lon="25.836160"></trkpt>
      <trkpt lat="55.300030" lon="25.836700"></trkpt>
      <trkpt lat="55.300260" lon="25.838000"></trkpt>
      <trkpt lat="55.300365" lon="25.838910"></trkpt>
      <trkpt lat="55.300470" lon="25.839820"></trkpt>
      <trkpt lat="55.300510" lon="25.840360"></trkpt>
      <trkpt lat="55.300480" lon="25.840880"></trkpt>
      <trkpt lat="55.300290" lon="25.842370"></trkpt>
      <trkpt lat="55.300030" lon="25.843605"></trkpt>
      <trkpt lat="55.299770" lon="25.844840"></trkpt>
      <trkpt lat="55.299640" lon="25.846020"></trkpt>
      <trkpt lat="55.299530" lon="25.846760"></trkpt>
      <trkpt lat="55.299450" lon="25.847850"></trkpt>
      <trkpt lat="55.299440" lon="25.848530"></trkpt>
      <trkpt lat="55.299480" lon="25.849610"></trkpt>
      <trkpt lat="55.299470" lon="25.849970"></trkpt>
      <trkpt lat="55.299390" lon="25.850570"></trkpt>
      <trkpt lat="55.299260" lon="25.851010"></trkpt>
      <trkpt lat="55.299240" lon="25.851180"></trkpt>
      <trkpt lat="55.299260" lon="25.851750"></trkpt>
      <trkpt lat="55.299300" lon="25.852130"></trkpt>
      <trkpt lat="55.299350" lon="25.852420"></trkpt>
      <trkpt lat="55.299330" lon="25.852760"></trkpt>
      <trkpt lat="55.299040" lon="25.853420"></trkpt>
      <trkpt lat="55.298960" lon="25.853640"></trkpt>
      <trkpt lat="55.298830" lon="25.854210"></trkpt>
      <trkpt lat="55.298620" lon="25.854760"></trkpt>
      <trkpt lat="55.298500" lon="25.854990"></trkpt>
      <trkpt lat="55.298390" lon="25.855170"></trkpt>
      <trkpt lat="55.298300" lon="25.855360"></trkpt>
      <trkpt lat="55.298230" lon="25.855630"></trkpt>
      <trkpt lat="55.297990" lon="25.856850"></trkpt>
      <trkpt lat="55.297850" lon="25.857230"></trkpt>
      <trkpt lat="55.297690" lon="25.857510"></trkpt>
      <trkpt lat="55.297250" lon="25.858485"></trkpt>
      <trkpt lat="55.296810" lon="25.859460"></trkpt>
      <trkpt lat="55.296315" lon="25.860160"></trkpt>
      <trkpt lat="55.295820" lon="25.860860"></trkpt>
      <trkpt lat="55.295710" lon="25.861180"></trkpt>
      <trkpt lat="55.295450" lon="25.861040"></trkpt>
      <trkpt lat="55.295010" lon="25.860740"></trkpt>
      <trkpt lat="55.294650" lon="25.860450"></trkpt>
      <trkpt lat="55.294370" lon="25.860330"></trkpt>
      <trkpt lat="55.294120" lon="25.860300"></trkpt>
      <trkpt lat="55.293800" lon="25.860200"></trkpt>
      <trkpt lat="55.293560" lon="25.860220"></trkpt>
      <trkpt lat="55.293190" lon="25.860380"></trkpt>
      <trkpt lat="55.292810" lon="25.860590"></trkpt>
      <trkpt lat="55.292590" lon="25.860620"></trkpt>
      <trkpt lat="55.292350" lon="25.860550"></trkpt>
      <trkpt lat="55.291950" lon="25.860270"></trkpt>
      <trkpt lat="55.291470" lon="25.859900"></trkpt>
      <trkpt lat="55.290980" lon="25.859660"></trkpt>
      <trkpt lat="55.290620" lon="25.859510"></trkpt>
      <trkpt lat="55.290350" lon="25.859540"></trkpt>
      <trkpt lat="55.290070" lon="25.859530"></trkpt>
      <trkpt lat="55.289680" lon="25.859360"></trkpt>
      <trkpt lat="55.289380" lon="25.859140"></trkpt>
      <trkpt lat="55.288910" lon="25.858540"></trkpt>
      <trkpt lat="55.288710" lon="25.858350"></trkpt>
      <trkpt lat="55.288510" lon="25.858260"></trkpt>
      <trkpt lat="55.288310" lon="25.858110"></trkpt>
      <trkpt lat="55.288010" lon="25.857660"></trkpt>
      <trkpt lat="55.287820" lon="25.857310"></trkpt>
      <trkpt lat="55.287580" lon="25.856950"></trkpt>
      <trkpt lat="55.287260" lon="25.856760"></trkpt>
      <trkpt lat="55.286890" lon="25.856630"></trkpt>
      <trkpt lat="55.286250" lon="25.856320"></trkpt>
      <trkpt lat="55.286120" lon="25.856190"></trkpt>
      <trkpt lat="55.286030" lon="25.856380"></trkpt>
      <trkpt lat="55.285880" lon="25.856520"></trkpt>
      <trkpt lat="55.285460" lon="25.856580"></trkpt>
      <trkpt lat="55.285140" lon="25.856570"></trkpt>
      <trkpt lat="55.284620" lon="25.856370"></trkpt>
      <trkpt lat="55.284240" lon="25.856280"></trkpt>
      <trkpt lat="55.283600" lon="25.856280"></trkpt>
      <trkpt lat="55.282950" lon="25.856360"></trkpt>
      <trkpt lat="55.282480" lon="25.856460"></trkpt>
      <trkpt lat="55.282100" lon="25.856490"></trkpt>
      <trkpt lat="55.281770" lon="25.856410"></trkpt>
      <trkpt lat="55.281330" lon="25.856270"></trkpt>
      <trkpt lat="55.280890" lon="25.856260"></trkpt>
      <trkpt lat="55.280430" lon="25.856500"></trkpt>
      <trkpt lat="55.280170" lon="25.856470"></trkpt>
      <trkpt lat="55.279780" lon="25.856310"></trkpt>
      <trkpt lat="55.279460" lon="25.856420"></trkpt>
      <trkpt lat="55.279090" lon="25.856640"></trkpt>
      <trkpt lat="55.278870" lon="25.856990"></trkpt>
      <trkpt lat="55.278720" lon="25.857450"></trkpt>
      <trkpt lat="55.278570" lon="25.857740"></trkpt>
      <trkpt lat="55.278580" lon="25.857730"></trkpt>
      <trkpt lat="55.278560" lon="25.857780"></trkpt>
      <trkpt lat="55.278210" lon="25.858050"></trkpt>
      <trkpt lat="55.277730" lon="25.858290"></trkpt>
      <trkpt lat="55.277290" lon="25.858630"></trkpt>
      <trkpt lat="55.277020" lon="25.859490"></trkpt>
      <trkpt lat="55.276730" lon="25.859840"></trkpt>
      <trkpt lat="55.276240" lon="25.860980"></trkpt>
      <trkpt lat="55.276170" lon="25.861380"></trkpt>
      <trkpt lat="55.275990" lon="25.862110"></trkpt>
      <trkpt lat="55.275850" lon="25.862760"></trkpt>
      <trkpt lat="55.275780" lon="25.863190"></trkpt>
      <trkpt lat="55.275730" lon="25.863670"></trkpt>
      <trkpt lat="55.275670" lon="25.864930"></trkpt>
      <trkpt lat="55.275590" lon="25.865980"></trkpt>
      <trkpt lat="55.275520" lon="25.866300"></trkpt>
      <trkpt lat="55.275210" lon="25.866970"></trkpt>
      <trkpt lat="55.274900" lon="25.867640"></trkpt>
      <trkpt lat="55.274460" lon="25.868480"></trkpt>
      <trkpt lat="55.274080" lon="25.869700"></trkpt>
      <trkpt lat="55.273730" lon="25.871020"></trkpt>
      <trkpt lat="55.273505" lon="25.871755"></trkpt>
      <trkpt lat="55.273280" lon="25.872490"></trkpt>
      <trkpt lat="55.273220" lon="25.872950"></trkpt>
      <trkpt lat="55.273200" lon="25.874420"></trkpt>
      <trkpt lat="55.273240" lon="25.874990"></trkpt>
      <trkpt lat="55.273360" lon="25.875710"></trkpt>
      <trkpt lat="55.273320" lon="25.876030"></trkpt>
      <trkpt lat="55.273220" lon="25.876240"></trkpt>
      <trkpt lat="55.273170" lon="25.876410"></trkpt>
      <trkpt lat="55.272354" lon="25.876485"></trkpt>
      <trkpt lat="55.271538" lon="25.876560"></trkpt>
      <trkpt lat="55.270721" lon="25.876635"></trkpt>
      <trkpt lat="55.269905" lon="25.876710"></trkpt>
      <trkpt lat="55.269089" lon="25.876785"></trkpt>
      <trkpt lat="55.268273" lon="25.876860"></trkpt>
      <trkpt lat="55.267456" lon="25.876935"></trkpt>
      <trkpt lat="55.266640" lon="25.877010"></trkpt>
      <trkpt lat="55.266390" lon="25.877070"></trkpt>
      <trkpt lat="55.266665" lon="25.878550"></trkpt>
      <trkpt lat="55.266940" lon="25.880030"></trkpt>
      <trkpt lat="55.266330" lon="25.880050"></trkpt>
      <trkpt lat="55.265940" lon="25.880140"></trkpt>
      <trkpt lat="55.265250" lon="25.880625"></trkpt>
      <trkpt lat="55.264560" lon="25.881110"></trkpt>
      <trkpt lat="55.264350" lon="25.881340"></trkpt>
      <trkpt lat="55.263980" lon="25.882050"></trkpt>
      <trkpt lat="55.263800" lon="25.882220"></trkpt>
      <trkpt lat="55.263640" lon="25.882280"></trkpt>
      <trkpt lat="55.263250" lon="25.882350"></trkpt>
      <trkpt lat="55.263060" lon="25.882470"></trkpt>
      <trkpt lat="55.262620" lon="25.882790"></trkpt>
      <trkpt lat="55.262420" lon="25.882860"></trkpt>
      <trkpt lat="55.262160" lon="25.882780"></trkpt>
      <trkpt lat="55.261660" lon="25.882310"></trkpt>
      <trkpt lat="55.261300" lon="25.882140"></trkpt>
      <trkpt lat="55.260520" lon="25.882210"></trkpt>
      <trkpt lat="55.260150" lon="25.882280"></trkpt>
      <trkpt lat="55.259660" lon="25.882330"></trkpt>
      <trkpt lat="55.259170" lon="25.882210"></trkpt>
      <trkpt lat="55.258680" lon="25.882090"></trkpt>
      <trkpt lat="55.258360" lon="25.881180"></trkpt>
      <trkpt lat="55.258100" lon="25.880120"></trkpt>
      <trkpt lat="55.257815" lon="25.879085"></trkpt>
      <trkpt lat="55.257530" lon="25.878050"></trkpt>
      <trkpt lat="55.257090" lon="25.876710"></trkpt>
      <trkpt lat="55.256810" lon="25.875310"></trkpt>
      <trkpt lat="55.256530" lon="25.873910"></trkpt>
      <trkpt lat="55.256250" lon="25.872510"></trkpt>
      <trkpt lat="55.255960" lon="25.871326"></trkpt>
      <trkpt lat="55.255670" lon="25.870142"></trkpt>
      <trkpt lat="55.255380" lon="25.868958"></trkpt>
      <trkpt lat="55.255090" lon="25.867774"></trkpt>
      <trkpt lat="55.254800" lon="25.866590"></trkpt>
      <trkpt lat="55.254573" lon="25.865390"></trkpt>
      <trkpt lat="55.254347" lon="25.864190"></trkpt>
      <trkpt lat="55.254120" lon="25.862990"></trkpt>
      <trkpt lat="55.253825" lon="25.861990"></trkpt>
      <trkpt lat="55.253530" lon="25.860990"></trkpt>
      <trkpt lat="55.253125" lon="25.859975"></trkpt>
      <trkpt lat="55.252720" lon="25.858960"></trkpt>
      <trkpt lat="55.252975" lon="25.857635"></trkpt>
      <trkpt lat="55.253230" lon="25.856310"></trkpt>
      <trkpt lat="55.253240" lon="25.855990"></trkpt>
      <trkpt lat="55.253220" lon="25.855650"></trkpt>
      <trkpt lat="55.253110" lon="25.855210"></trkpt>
      <trkpt lat="55.253000" lon="25.854980"></trkpt>
      <trkpt lat="55.252820" lon="25.854790"></trkpt>
      <trkpt lat="55.252760" lon="25.854680"></trkpt>
      <trkpt lat="55.252700" lon="25.854210"></trkpt>
      <trkpt lat="55.252770" lon="25.853730"></trkpt>
      <trkpt lat="55.252850" lon="25.853540"></trkpt>
      <trkpt lat="55.253040" lon="25.853260"></trkpt>
      <trkpt lat="55.253040" lon="25.853120"></trkpt>
      <trkpt lat="55.252980" lon="25.852970"></trkpt>
      <trkpt lat="55.252600" lon="25.852620"></trkpt>
      <trkpt lat="55.252550" lon="25.852550"></trkpt>
      <trkpt lat="55.252380" lon="25.851990"></trkpt>
      <trkpt lat="55.252255" lon="25.851170"></trkpt>
      <trkpt lat="55.252130" lon="25.850350"></trkpt>
      <trkpt lat="55.252070" lon="25.849710"></trkpt>
      <trkpt lat="55.252055" lon="25.848665"></trkpt>
      <trkpt lat="55.252040" lon="25.847620"></trkpt>
      <trkpt lat="55.252010" lon="25.847120"></trkpt>
      <trkpt lat="55.251950" lon="25.846840"></trkpt>
      <trkpt lat="55.251830" lon="25.846550"></trkpt>
      <trkpt lat="55.251730" lon="25.846240"></trkpt>
      <trkpt lat="55.251630" lon="25.845730"></trkpt>
      <trkpt lat="55.251430" lon="25.844220"></trkpt>
      <trkpt lat="55.251160" lon="25.845530"></trkpt>
      <trkpt lat="55.251050" lon="25.846560"></trkpt>
      <trkpt lat="55.250950" lon="25.847120"></trkpt>
      <trkpt lat="55.250700" lon="25.847820"></trkpt>
      <trkpt lat="55.250540" lon="25.848540"></trkpt>
      <trkpt lat="55.250240" lon="25.849630"></trkpt>
      <trkpt lat="55.249870" lon="25.850480"></trkpt>
      <trkpt lat="55.249500" lon="25.851330"></trkpt>
      <trkpt lat="55.249370" lon="25.851960"></trkpt>
      <trkpt lat="55.249240" lon="25.852220"></trkpt>
      <trkpt lat="55.249090" lon="25.852380"></trkpt>
      <trkpt lat="55.248920" lon="25.852450"></trkpt>
      <trkpt lat="55.248080" lon="25.852570"></trkpt>
      <trkpt lat="55.247890" lon="25.852720"></trkpt>
      <trkpt lat="55.247520" lon="25.853260"></trkpt>
      <trkpt lat="55.247290" lon="25.853470"></trkpt>
      <trkpt lat="55.246910" lon="25.853570"></trkpt>
      <trkpt lat="55.246320" lon="25.853580"></trkpt>
      <trkpt lat="55.245730" lon="25.853590"></trkpt>
      <trkpt lat="55.245460" lon="25.853740"></trkpt>
      <trkpt lat="55.245110" lon="25.854230"></trkpt>
      <trkpt lat="55.244710" lon="25.854450"></trkpt>
      <trkpt lat="55.243870" lon="25.854530"></trkpt>
      <trkpt lat="55.243030" lon="25.854610"></trkpt>
      <trkpt lat="55.242530" lon="25.854800"></trkpt>
      <trkpt lat="55.242030" lon="25.854990"></trkpt>
      <trkpt lat="55.241540" lon="25.855440"></trkpt>
      <trkpt lat="55.241250" lon="25.855980"></trkpt>
      <trkpt lat="55.240970" lon="25.856860"></trkpt>
      <trkpt lat="55.240720" lon="25.857550"></trkpt>
      <trkpt lat="55.240540" lon="25.857920"></trkpt>
      <trkpt lat="55.240270" lon="25.858180"></trkpt>
      <trkpt lat="55.240200" lon="25.857800"></trkpt>
      <trkpt lat="55.239967" lon="25.856757"></trkpt>
      <trkpt lat="55.239733" lon="25.855713"></trkpt>
      <trkpt lat="55.239500" lon="25.854670"></trkpt>
      <trkpt lat="55.239390" lon="25.853590"></trkpt>
      <trkpt lat="55.239310" lon="25.853420"></trkpt>
      <trkpt lat="55.239190" lon="25.853290"></trkpt>
      <trkpt lat="55.238620" lon="25.852950"></trkpt>
      <trkpt lat="55.238510" lon="25.852860"></trkpt>
      <trkpt lat="55.238450" lon="25.852750"></trkpt>
      <trkpt lat="55.238280" lon="25.851760"></trkpt>
      <trkpt lat="55.238110" lon="25.851020"></trkpt>
      <trkpt lat="55.238030" lon="25.850810"></trkpt>
      <trkpt lat="55.237940" lon="25.850630"></trkpt>
      <trkpt lat="55.237600" lon="25.850250"></trkpt>
      <trkpt lat="55.237510" lon="25.850090"></trkpt>
      <trkpt lat="55.237420" lon="25.849850"></trkpt>
      <trkpt lat="55.237200" lon="25.849100"></trkpt>
      <trkpt lat="55.237040" lon="25.848620"></trkpt>
      <trkpt lat="55.236650" lon="25.847690"></trkpt>
      <trkpt lat="55.236500" lon="25.847400"></trkpt>
      <trkpt lat="55.236160" lon="25.846940"></trkpt>
      <trkpt lat="55.235800" lon="25.846240"></trkpt>
      <trkpt lat="55.235600" lon="25.845510"></trkpt>
      <trkpt lat="55.235290" lon="25.844650"></trkpt>
      <trkpt lat="55.235230" lon="25.844430"></trkpt>
      <trkpt lat="55.235190" lon="25.844110"></trkpt>
      <trkpt lat="55.235170" lon="25.843145"></trkpt>
      <trkpt lat="55.235150" lon="25.842180"></trkpt>
      <trkpt lat="55.235110" lon="25.841490"></trkpt>
      <trkpt lat="55.234990" lon="25.840400"></trkpt>
      <trkpt lat="55.234920" lon="25.839950"></trkpt>
      <trkpt lat="55.234670" lon="25.839065"></trkpt>
      <trkpt lat="55.234420" lon="25.838180"></trkpt>
      <trkpt lat="55.234170" lon="25.836870"></trkpt>
      <trkpt lat="55.233840" lon="25.835630"></trkpt>
      <trkpt lat="55.233510" lon="25.834390"></trkpt>
      <trkpt lat="55.233770" lon="25.834350"></trkpt>
      <trkpt lat="55.234090" lon="25.834050"></trkpt>
      <trkpt lat="55.234490" lon="25.833920"></trkpt>
      <trkpt lat="55.234870" lon="25.833940"></trkpt>
      <trkpt lat="55.235290" lon="25.834530"></trkpt>
      <trkpt lat="55.235710" lon="25.835045"></trkpt>
      <trkpt lat="55.236130" lon="25.835560"></trkpt>
      <trkpt lat="55.236550" lon="25.835710"></trkpt>
      <trkpt lat="55.236600" lon="25.835220"></trkpt>
      <trkpt lat="55.237170" lon="25.834470"></trkpt>
      <trkpt lat="55.237430" lon="25.833450"></trkpt>
      <trkpt lat="55.237440" lon="25.832620"></trkpt>
      <trkpt lat="55.237480" lon="25.831960"></trkpt>
      <trkpt lat="55.237400" lon="25.831440"></trkpt>
      <trkpt lat="55.237250" lon="25.830940"></trkpt>
      <trkpt lat="55.237080" lon="25.829480"></trkpt>
      <trkpt lat="55.236750" lon="25.828430"></trkpt>
      <trkpt lat="55.236700" lon="25.827830"></trkpt>
      <trkpt lat="55.236320" lon="25.826790"></trkpt>
      <trkpt lat="55.235960" lon="25.826100"></trkpt>
      <trkpt lat="55.235810" lon="25.824870"></trkpt>
      <trkpt lat="55.235370" lon="25.823740"></trkpt>
      <trkpt lat="55.235420" lon="25.822200"></trkpt>
      <trkpt lat="55.235540" lon="25.821840"></trkpt>
      <trkpt lat="55.235460" lon="25.820880"></trkpt>
      <trkpt lat="55.235300" lon="25.820550"></trkpt>
      <trkpt lat="55.235280" lon="25.819420"></trkpt>
      <trkpt lat="55.235590" lon="25.818680"></trkpt>
      <trkpt lat="55.235960" lon="25.818090"></trkpt>
      <trkpt lat="55.236020" lon="25.817710"></trkpt>
      <trkpt lat="55.235940" lon="25.817480"></trkpt>
      <trkpt lat="55.235450" lon="25.816900"></trkpt>
      <trkpt lat="55.235220" lon="25.815980"></trkpt>
      <trkpt lat="55.235060" lon="25.815890"></trkpt>
      <trkpt lat="55.234870" lon="25.815730"></trkpt>
      <trkpt lat="55.234530" lon="25.815330"></trkpt>
      <trkpt lat="55.234350" lon="25.815160"></trkpt>
      <trkpt lat="55.234150" lon="25.815070"></trkpt>
      <trkpt lat="55.233910" lon="25.815030"></trkpt>
      <trkpt lat="55.233520" lon="25.815040"></trkpt>
      <trkpt lat="55.233015" lon="25.815190"></trkpt>
      <trkpt lat="55.232510" lon="25.815340"></trkpt>
      <trkpt lat="55.231780" lon="25.815450"></trkpt>
      <trkpt lat="55.231050" lon="25.815560"></trkpt>
      <trkpt lat="55.230420" lon="25.815610"></trkpt>
      <trkpt lat="55.229540" lon="25.815540"></trkpt>
      <trkpt lat="55.228760" lon="25.815500"></trkpt>
      <trkpt lat="55.228660" lon="25.815480"></trkpt>
      <trkpt lat="55.228190" lon="25.815200"></trkpt>
      <trkpt lat="55.228070" lon="25.815150"></trkpt>
      <trkpt lat="55.227700" lon="25.815100"></trkpt>
      <trkpt lat="55.227620" lon="25.815060"></trkpt>
      <trkpt lat="55.227500" lon="25.814990"></trkpt>
      <trkpt lat="55.227090" lon="25.814665"></trkpt>
      <trkpt lat="55.226680" lon="25.814340"></trkpt>
      <trkpt lat="55.226480" lon="25.814210"></trkpt>
      <trkpt lat="55.225840" lon="25.813910"></trkpt>
      <trkpt lat="55.225200" lon="25.813610"></trkpt>
      <trkpt lat="55.224560" lon="25.813400"></trkpt>
      <trkpt lat="55.224450" lon="25.813310"></trkpt>
      <trkpt lat="55.223910" lon="25.812640"></trkpt>
      <trkpt lat="55.223380" lon="25.811930"></trkpt>
      <trkpt lat="55.223000" lon="25.811070"></trkpt>
      <trkpt lat="55.222494" lon="25.809842"></trkpt>
      <trkpt lat="55.221988" lon="25.808614"></trkpt>
      <trkpt lat="55.221482" lon="25.807386"></trkpt>
      <trkpt lat="55.220976" lon="25.806158"></trkpt>
      <trkpt lat="55.220470" lon="25.804930"></trkpt>
      <trkpt lat="55.220300" lon="25.804600"></trkpt>
      <trkpt lat="55.220170" lon="25.804450"></trkpt>
      <trkpt lat="55.220080" lon="25.804380"></trkpt>
      <trkpt lat="55.219720" lon="25.804150"></trkpt>
      <trkpt lat="55.219600" lon="25.804090"></trkpt>
      <trkpt lat="55.219420" lon="25.804060"></trkpt>
      <trkpt lat="55.219260" lon="25.804090"></trkpt>
      <trkpt lat="55.219250" lon="25.803900"></trkpt>
      <trkpt lat="55.219270" lon="25.803780"></trkpt>
      <trkpt lat="55.219390" lon="25.803440"></trkpt>
      <trkpt lat="55.219510" lon="25.803190"></trkpt>
      <trkpt lat="55.219560" lon="25.802920"></trkpt>
      <trkpt lat="55.219570" lon="25.802680"></trkpt>
      <trkpt lat="55.219560" lon="25.802610"></trkpt>
      <trkpt lat="55.219150" lon="25.801670"></trkpt>
      <trkpt lat="55.219030" lon="25.801560"></trkpt>
      <trkpt lat="55.218850" lon="25.801500"></trkpt>
      <trkpt lat="55.218780" lon="25.801450"></trkpt>
      <trkpt lat="55.218660" lon="25.801290"></trkpt>
      <trkpt lat="55.218240" lon="25.800575"></trkpt>
      <trkpt lat="55.217820" lon="25.799860"></trkpt>
      <trkpt lat="55.217180" lon="25.799120"></trkpt>
      <trkpt lat="55.216960" lon="25.798830"></trkpt>
      <trkpt lat="55.216580" lon="25.798420"></trkpt>
      <trkpt lat="55.215905" lon="25.797815"></trkpt>
      <trkpt lat="55.215230" lon="25.797210"></trkpt>
      <trkpt lat="55.215030" lon="25.796980"></trkpt>
      <trkpt lat="55.214580" lon="25.796570"></trkpt>
      <trkpt lat="55.214130" lon="25.796160"></trkpt>
      <trkpt lat="55.214030" lon="25.796080"></trkpt>
      <trkpt lat="55.213790" lon="25.795950"></trkpt>
      <trkpt lat="55.213550" lon="25.795780"></trkpt>
      <trkpt lat="55.213470" lon="25.795680"></trkpt>
      <trkpt lat="55.213290" lon="25.795390"></trkpt>
      <trkpt lat="55.213000" lon="25.795110"></trkpt>
      <trkpt lat="55.212860" lon="25.794940"></trkpt>
      <trkpt lat="55.212700" lon="25.794800"></trkpt>
      <trkpt lat="55.212150" lon="25.794410"></trkpt>
      <trkpt lat="55.211600" lon="25.794020"></trkpt>
      <trkpt lat="55.211430" lon="25.793040"></trkpt>
      <trkpt lat="55.211360" lon="25.792150"></trkpt>
      <trkpt lat="55.211400" lon="25.791780"></trkpt>
      <trkpt lat="55.211400" lon="25.791550"></trkpt>
      <trkpt lat="55.211370" lon="25.791380"></trkpt>
      <trkpt lat="55.211240" lon="25.791020"></trkpt>
      <trkpt lat="55.211110" lon="25.790800"></trkpt>
      <trkpt lat="55.210970" lon="25.790500"></trkpt>
      <trkpt lat="55.210570" lon="25.789960"></trkpt>
      <trkpt lat="55.210170" lon="25.789420"></trkpt>
      <trkpt lat="55.210010" lon="25.789040"></trkpt>
      <trkpt lat="55.209790" lon="25.788335"></trkpt>
      <trkpt lat="55.209570" lon="25.787630"></trkpt>
      <trkpt lat="55.209300" lon="25.786845"></trkpt>
      <trkpt lat="55.209030" lon="25.786060"></trkpt>
      <trkpt lat="55.208970" lon="25.785840"></trkpt>
      <trkpt lat="55.208850" lon="25.785130"></trkpt>
      <trkpt lat="55.208780" lon="25.784910"></trkpt>
      <trkpt lat="55.208125" lon="25.785095"></trkpt>
      <trkpt lat="55.207470" lon="25.785280"></trkpt>
      <trkpt lat="55.206620" lon="25.784960"></trkpt>
      <trkpt lat="55.205940" lon="25.784420"></trkpt>
      <trkpt lat="55.205420" lon="25.783760"></trkpt>
      <trkpt lat="55.204900" lon="25.783100"></trkpt>
      <trkpt lat="55.204520" lon="25.782700"></trkpt>
      <trkpt lat="55.203790" lon="25.782470"></trkpt>
      <trkpt lat="55.203130" lon="25.782640"></trkpt>
      <trkpt lat="55.202880" lon="25.782470"></trkpt>
      <trkpt lat="55.202660" lon="25.782370"></trkpt>
      <trkpt lat="55.202020" lon="25.782440"></trkpt>
      <trkpt lat="55.201170" lon="25.782770"></trkpt>
      <trkpt lat="55.200890" lon="25.782920"></trkpt>
      <trkpt lat="55.200770" lon="25.783090"></trkpt>
      <trkpt lat="55.200680" lon="25.783430"></trkpt>
      <trkpt lat="55.200630" lon="25.784330"></trkpt>
      <trkpt lat="55.200680" lon="25.785230"></trkpt>
      <trkpt lat="55.200480" lon="25.786010"></trkpt>
      <trkpt lat="55.200080" lon="25.786830"></trkpt>
      <trkpt lat="55.199680" lon="25.787450"></trkpt>
      <trkpt lat="55.199350" lon="25.787690"></trkpt>
      <trkpt lat="55.198875" lon="25.787920"></trkpt>
      <trkpt lat="55.198400" lon="25.788150"></trkpt>
      <trkpt lat="55.197970" lon="25.788620"></trkpt>
      <trkpt lat="55.197730" lon="25.789060"></trkpt>
      <trkpt lat="55.197640" lon="25.789300"></trkpt>
      <trkpt lat="55.197525" lon="25.790250"></trkpt>
      <trkpt lat="55.197410" lon="25.791200"></trkpt>
      <trkpt lat="55.197280" lon="25.791800"></trkpt>
      <trkpt lat="55.197120" lon="25.792360"></trkpt>
      <trkpt lat="55.196730" lon="25.792860"></trkpt>
      <trkpt lat="55.196280" lon="25.793140"></trkpt>
      <trkpt lat="55.195525" lon="25.793075"></trkpt>
      <trkpt lat="55.194770" lon="25.793010"></trkpt>
      <trkpt lat="55.194580" lon="25.792930"></trkpt>
      <trkpt lat="55.194440" lon="25.792760"></trkpt>
      <trkpt lat="55.194270" lon="25.792410"></trkpt>
      <trkpt lat="55.194110" lon="25.792140"></trkpt>
      <trkpt lat="55.193950" lon="25.792020"></trkpt>
      <trkpt lat="55.193910" lon="25.791970"></trkpt>
      <trkpt lat="55.193410" lon="25.791870"></trkpt>
      <trkpt lat="55.192840" lon="25.791880"></trkpt>
      <trkpt lat="55.192270" lon="25.791890"></trkpt>
      <trkpt lat="55.191500" lon="25.791560"></trkpt>
      <trkpt lat="55.191130" lon="25.791250"></trkpt>
      <trkpt lat="55.190760" lon="25.790760"></trkpt>
      <trkpt lat="55.190450" lon="25.790670"></trkpt>
      <trkpt lat="55.189975" lon="25.790725"></trkpt>
      <trkpt lat="55.189500" lon="25.790780"></trkpt>
      <trkpt lat="55.189160" lon="25.790780"></trkpt>
      <trkpt lat="55.188830" lon="25.790820"></trkpt>
      <trkpt lat="55.188050" lon="25.790440"></trkpt>
      <trkpt lat="55.187500" lon="25.789880"></trkpt>
      <trkpt lat="55.186840" lon="25.789700"></trkpt>
      <trkpt lat="55.186460" lon="25.789370"></trkpt>
      <trkpt lat="55.186045" lon="25.788425"></trkpt>
      <trkpt lat="55.185630" lon="25.787480"></trkpt>
      <trkpt lat="55.185540" lon="25.786860"></trkpt>
      <trkpt lat="55.185680" lon="25.785660"></trkpt>
      <trkpt lat="55.185830" lon="25.785090"></trkpt>
      <trkpt lat="55.186020" lon="25.784780"></trkpt>
      <trkpt lat="55.186520" lon="25.784180"></trkpt>
      <trkpt lat="55.186700" lon="25.782780"></trkpt>
      <trkpt lat="55.186830" lon="25.782290"></trkpt>
      <trkpt lat="55.187150" lon="25.781410"></trkpt>
      <trkpt lat="55.186750" lon="25.781370"></trkpt>
      <trkpt lat="55.186550" lon="25.781440"></trkpt>
      <trkpt lat="55.186440" lon="25.781340"></trkpt>
      <trkpt lat="55.186020" lon="25.780730"></trkpt>
      <trkpt lat="55.185870" lon="25.780600"></trkpt>
      <trkpt lat="55.185820" lon="25.780470"></trkpt>
      <trkpt lat="55.185810" lon="25.780260"></trkpt>
      <trkpt lat="55.185740" lon="25.780050"></trkpt>
      <trkpt lat="55.185480" lon="25.779900"></trkpt>
      <trkpt lat="55.185150" lon="25.779410"></trkpt>
      <trkpt lat="55.185170" lon="25.779430"></trkpt>
      <trkpt lat="55.185000" lon="25.779170"></trkpt>
      <trkpt lat="55.184870" lon="25.779090"></trkpt>
      <trkpt lat="55.184540" lon="25.778950"></trkpt>
      <trkpt lat="55.184400" lon="25.778820"></trkpt>
      <trkpt lat="55.184300" lon="25.778160"></trkpt>
      <trkpt lat="55.184090" lon="25.777760"></trkpt>
      <trkpt lat="55.183775" lon="25.776805"></trkpt>
      <trkpt lat="55.183460" lon="25.775850"></trkpt>
      <trkpt lat="55.183120" lon="25.775090"></trkpt>
      <trkpt lat="55.183050" lon="25.774630"></trkpt>
      <trkpt lat="55.182960" lon="25.774350"></trkpt>
      <trkpt lat="55.182490" lon="25.773950"></trkpt>
      <trkpt lat="55.182330" lon="25.773870"></trkpt>
      <trkpt lat="55.182020" lon="25.773760"></trkpt>
      <trkpt lat="55.181460" lon="25.773140"></trkpt>
      <trkpt lat="55.181210" lon="25.772900"></trkpt>
      <trkpt lat="55.181060" lon="25.772790"></trkpt>
      <trkpt lat="55.181090" lon="25.772310"></trkpt>
      <trkpt lat="55.180950" lon="25.770920"></trkpt>
      <trkpt lat="55.180920" lon="25.769870"></trkpt>
      <trkpt lat="55.180870" lon="25.769520"></trkpt>
      <trkpt lat="55.180630" lon="25.768280"></trkpt>
      <trkpt lat="55.180350" lon="25.767200"></trkpt>
      <trkpt lat="55.180130" lon="25.766475"></trkpt>
      <trkpt lat="55.179910" lon="25.765750"></trkpt>
      <trkpt lat="55.179650" lon="25.765070"></trkpt>
      <trkpt lat="55.179450" lon="25.764680"></trkpt>
      <trkpt lat="55.179170" lon="25.764200"></trkpt>
      <trkpt lat="55.178710" lon="25.763295"></trkpt>
      <trkpt lat="55.178250" lon="25.762390"></trkpt>
      <trkpt lat="55.178110" lon="25.762080"></trkpt>
      <trkpt lat="55.178020" lon="25.761830"></trkpt>
      <trkpt lat="55.177950" lon="25.761550"></trkpt>
      <trkpt lat="55.177780" lon="25.760324"></trkpt>
      <trkpt lat="55.177610" lon="25.759098"></trkpt>
      <trkpt lat="55.177440" lon="25.757872"></trkpt>
      <trkpt lat="55.177270" lon="25.756646"></trkpt>
      <trkpt lat="55.177100" lon="25.755420"></trkpt>
      <trkpt lat="55.177040" lon="25.754940"></trkpt>
      <trkpt lat="55.177030" lon="25.754710"></trkpt>
      <trkpt lat="55.177105" lon="25.753180"></trkpt>
      <trkpt lat="55.177180" lon="25.751650"></trkpt>
      <trkpt lat="55.177255" lon="25.750120"></trkpt>
      <trkpt lat="55.177330" lon="25.748590"></trkpt>
      <trkpt lat="55.177380" lon="25.747900"></trkpt>
      <trkpt lat="55.177520" lon="25.746980"></trkpt>
      <trkpt lat="55.177560" lon="25.746610"></trkpt>
      <trkpt lat="55.177570" lon="25.745890"></trkpt>
      <trkpt lat="55.177550" lon="25.745480"></trkpt>
      <trkpt lat="55.177380" lon="25.743950"></trkpt>
      <trkpt lat="55.177210" lon="25.742420"></trkpt>
      <trkpt lat="55.177130" lon="25.741840"></trkpt>
      <trkpt lat="55.177040" lon="25.741350"></trkpt>
      <trkpt lat="55.176865" lon="25.740565"></trkpt>
      <trkpt lat="55.176690" lon="25.739780"></trkpt>
      <trkpt lat="55.176550" lon="25.738670"></trkpt>
      <trkpt lat="55.176490" lon="25.737830"></trkpt>
      <trkpt lat="55.176500" lon="25.737160"></trkpt>
      <trkpt lat="55.176570" lon="25.736280"></trkpt>
      <trkpt lat="55.176680" lon="25.735113"></trkpt>
      <trkpt lat="55.176790" lon="25.733947"></trkpt>
      <trkpt lat="55.176900" lon="25.732780"></trkpt>
      <trkpt lat="55.176950" lon="25.732400"></trkpt>
      <trkpt lat="55.177100" lon="25.731670"></trkpt>
      <trkpt lat="55.177415" lon="25.730670"></trkpt>
      <trkpt lat="55.177730" lon="25.729670"></trkpt>
      <trkpt lat="55.177920" lon="25.728480"></trkpt>
      <trkpt lat="55.178070" lon="25.727050"></trkpt>
      <trkpt lat="55.178190" lon="25.725680"></trkpt>
      <trkpt lat="55.178280" lon="25.724980"></trkpt>
      <trkpt lat="55.178390" lon="25.724340"></trkpt>
      <trkpt lat="55.178530" lon="25.723700"></trkpt>
      <trkpt lat="55.178855" lon="25.722690"></trkpt>
      <trkpt lat="55.179180" lon="25.721680"></trkpt>
      <trkpt lat="55.179420" lon="25.720760"></trkpt>
      <trkpt lat="55.179700" lon="25.719615"></trkpt>
      <trkpt lat="55.179980" lon="25.718470"></trkpt>
      <trkpt lat="55.180100" lon="25.717670"></trkpt>
      <trkpt lat="55.180130" lon="25.717050"></trkpt>
      <trkpt lat="55.180110" lon="25.716360"></trkpt>
      <trkpt lat="55.180010" lon="25.715900"></trkpt>
      <trkpt lat="55.179880" lon="25.715580"></trkpt>
      <trkpt lat="55.179720" lon="25.715300"></trkpt>
      <trkpt lat="55.179065" lon="25.714495"></trkpt>
      <trkpt lat="55.178410" lon="25.713690"></trkpt>
      <trkpt lat="55.178350" lon="25.713530"></trkpt>
      <trkpt lat="55.178310" lon="25.713200"></trkpt>
      <trkpt lat="55.178350" lon="25.712980"></trkpt>
      <trkpt lat="55.178683" lon="25.712000"></trkpt>
      <trkpt lat="55.179017" lon="25.711020"></trkpt>
      <trkpt lat="55.179350" lon="25.710040"></trkpt>
      <trkpt lat="55.179590" lon="25.709070"></trkpt>
      <trkpt lat="55.179660" lon="25.708300"></trkpt>
      <trkpt lat="55.179680" lon="25.707030"></trkpt>
      <trkpt lat="55.179740" lon="25.706500"></trkpt>
      <trkpt lat="55.179790" lon="25.706290"></trkpt>
      <trkpt lat="55.179920" lon="25.706020"></trkpt>
      <trkpt lat="55.180335" lon="25.705260"></trkpt>
      <trkpt lat="55.180750" lon="25.704500"></trkpt>
      <trkpt lat="55.180880" lon="25.704160"></trkpt>
      <trkpt lat="55.181270" lon="25.702830"></trkpt>
      <trkpt lat="55.181620" lon="25.701520"></trkpt>
      <trkpt lat="55.181970" lon="25.700210"></trkpt>
      <trkpt lat="55.182410" lon="25.698970"></trkpt>
      <trkpt lat="55.182410" lon="25.698980"></trkpt>
      <trkpt lat="55.182710" lon="25.698250"></trkpt>
      <trkpt lat="55.183050" lon="25.697645"></trkpt>
      <trkpt lat="55.183390" lon="25.697040"></trkpt>
      <trkpt lat="55.183980" lon="25.696190"></trkpt>
      <trkpt lat="55.183540" lon="25.695655"></trkpt>
      <trkpt lat="55.183100" lon="25.695120"></trkpt>
      <trkpt lat="55.182810" lon="25.694810"></trkpt>
      <trkpt lat="55.182500" lon="25.694520"></trkpt>
      <trkpt lat="55.182060" lon="25.694190"></trkpt>
      <trkpt lat="55.181800" lon="25.694030"></trkpt>
      <trkpt lat="55.181620" lon="25.693970"></trkpt>
      <trkpt lat="55.181480" lon="25.693950"></trkpt>
      <trkpt lat="55.181260" lon="25.693940"></trkpt>
      <trkpt lat="55.180730" lon="25.693980"></trkpt>
      <trkpt lat="55.180500" lon="25.693970"></trkpt>
      <trkpt lat="55.180320" lon="25.693930"></trkpt>
      <trkpt lat="55.180030" lon="25.693820"></trkpt>
      <trkpt lat="55.179840" lon="25.693780"></trkpt>
      <trkpt lat="55.179820" lon="25.693500"></trkpt>
      <trkpt lat="55.179780" lon="25.693370"></trkpt>
      <trkpt lat="55.179300" lon="25.692320"></trkpt>
      <trkpt lat="55.179070" lon="25.691750"></trkpt>
      <trkpt lat="55.178880" lon="25.691380"></trkpt>
      <trkpt lat="55.178300" lon="25.690460"></trkpt>
      <trkpt lat="55.178140" lon="25.690260"></trkpt>
      <trkpt lat="55.177570" lon="25.689770"></trkpt>
      <trkpt lat="55.177340" lon="25.689520"></trkpt>
      <trkpt lat="55.177100" lon="25.689130"></trkpt>
      <trkpt lat="55.176870" lon="25.688880"></trkpt>
      <trkpt lat="55.176720" lon="25.688830"></trkpt>
      <trkpt lat="55.175870" lon="25.688650"></trkpt>
      <trkpt lat="55.175700" lon="25.688640"></trkpt>
      <trkpt lat="55.175060" lon="25.688720"></trkpt>
      <trkpt lat="55.174420" lon="25.688690"></trkpt>
      <trkpt lat="55.174090" lon="25.688610"></trkpt>
      <trkpt lat="55.173410" lon="25.688370"></trkpt>
      <trkpt lat="55.172840" lon="25.688240"></trkpt>
      <trkpt lat="55.172660" lon="25.688140"></trkpt>
      <trkpt lat="55.172480" lon="25.687990"></trkpt>
      <trkpt lat="55.171730" lon="25.687290"></trkpt>
      <trkpt lat="55.171590" lon="25.687110"></trkpt>
      <trkpt lat="55.171470" lon="25.686920"></trkpt>
      <trkpt lat="55.171020" lon="25.685980"></trkpt>
      <trkpt lat="55.170780" lon="25.685570"></trkpt>
      <trkpt lat="55.170530" lon="25.685260"></trkpt>
      <trkpt lat="55.170115" lon="25.684955"></trkpt>
      <trkpt lat="55.169700" lon="25.684650"></trkpt>
      <trkpt lat="55.169580" lon="25.684520"></trkpt>
      <trkpt lat="55.169400" lon="25.684270"></trkpt>
      <trkpt lat="55.168790" lon="25.683260"></trkpt>
      <trkpt lat="55.168630" lon="25.683070"></trkpt>
      <trkpt lat="55.168330" lon="25.682800"></trkpt>
      <trkpt lat="55.168080" lon="25.682610"></trkpt>
      <trkpt lat="55.167950" lon="25.682480"></trkpt>
      <trkpt lat="55.167790" lon="25.682270"></trkpt>
      <trkpt lat="55.167420" lon="25.681700"></trkpt>
      <trkpt lat="55.167320" lon="25.681490"></trkpt>
      <trkpt lat="55.167180" lon="25.680940"></trkpt>
      <trkpt lat="55.167070" lon="25.680250"></trkpt>
      <trkpt lat="55.167060" lon="25.679970"></trkpt>
      <trkpt lat="55.167120" lon="25.679610"></trkpt>
      <trkpt lat="55.167280" lon="25.679100"></trkpt>
      <trkpt lat="55.167340" lon="25.678820"></trkpt>
      <trkpt lat="55.167445" lon="25.677565"></trkpt>
      <trkpt lat="55.167550" lon="25.676310"></trkpt>
      <trkpt lat="55.167610" lon="25.675140"></trkpt>
      <trkpt lat="55.167590" lon="25.674390"></trkpt>
      <trkpt lat="55.167530" lon="25.673680"></trkpt>
      <trkpt lat="55.167345" lon="25.672555"></trkpt>
      <trkpt lat="55.167160" lon="25.671430"></trkpt>
      <trkpt lat="55.167150" lon="25.671120"></trkpt>
      <trkpt lat="55.167170" lon="25.670500"></trkpt>
      <trkpt lat="55.167230" lon="25.670290"></trkpt>
      <trkpt lat="55.167310" lon="25.670150"></trkpt>
      <trkpt lat="55.167400" lon="25.670050"></trkpt>
      <trkpt lat="55.167500" lon="25.669990"></trkpt>
      <trkpt lat="55.167600" lon="25.669970"></trkpt>
      <trkpt lat="55.167700" lon="25.670010"></trkpt>
      <trkpt lat="55.167960" lon="25.670260"></trkpt>
      <trkpt lat="55.168200" lon="25.670360"></trkpt>
      <trkpt lat="55.168300" lon="25.670340"></trkpt>
      <trkpt lat="55.168390" lon="25.670250"></trkpt>
      <trkpt lat="55.168530" lon="25.669990"></trkpt>
      <trkpt lat="55.168710" lon="25.669550"></trkpt>
      <trkpt lat="55.169000" lon="25.669000"></trkpt>
      <trkpt lat="55.169120" lon="25.668870"></trkpt>
      <trkpt lat="55.169630" lon="25.668480"></trkpt>
      <trkpt lat="55.169780" lon="25.668310"></trkpt>
      <trkpt lat="55.169920" lon="25.668090"></trkpt>
      <trkpt lat="55.170170" lon="25.667410"></trkpt>
      <trkpt lat="55.170250" lon="25.667140"></trkpt>
      <trkpt lat="55.170320" lon="25.666780"></trkpt>
      <trkpt lat="55.170430" lon="25.665650"></trkpt>
      <trkpt lat="55.170480" lon="25.665310"></trkpt>
      <trkpt lat="55.170610" lon="25.664670"></trkpt>
      <trkpt lat="55.170660" lon="25.664330"></trkpt>
      <trkpt lat="55.170720" lon="25.663690"></trkpt>
      <trkpt lat="55.170760" lon="25.663490"></trkpt>
      <trkpt lat="55.170860" lon="25.663220"></trkpt>
      <trkpt lat="55.171270" lon="25.662380"></trkpt>
      <trkpt lat="55.171623" lon="25.661390"></trkpt>
      <trkpt lat="55.171977" lon="25.660400"></trkpt>
      <trkpt lat="55.172330" lon="25.659410"></trkpt>
      <trkpt lat="55.172740" lon="25.658700"></trkpt>
      <trkpt lat="55.172980" lon="25.658150"></trkpt>
      <trkpt lat="55.173040" lon="25.657920"></trkpt>
      <trkpt lat="55.173060" lon="25.657720"></trkpt>
      <trkpt lat="55.173070" lon="25.656740"></trkpt>
      <trkpt lat="55.173140" lon="25.655470"></trkpt>
      <trkpt lat="55.173230" lon="25.654650"></trkpt>
      <trkpt lat="55.173420" lon="25.653500"></trkpt>
      <trkpt lat="55.173470" lon="25.653330"></trkpt>
      <trkpt lat="55.173710" lon="25.652850"></trkpt>
      <trkpt lat="55.174010" lon="25.652020"></trkpt>
      <trkpt lat="55.174140" lon="25.651530"></trkpt>
      <trkpt lat="55.174450" lon="25.650560"></trkpt>
      <trkpt lat="55.174540" lon="25.650340"></trkpt>
      <trkpt lat="55.174660" lon="25.650140"></trkpt>
      <trkpt lat="55.175350" lon="25.649305"></trkpt>
      <trkpt lat="55.176040" lon="25.648470"></trkpt>
      <trkpt lat="55.176190" lon="25.648210"></trkpt>
      <trkpt lat="55.176450" lon="25.647670"></trkpt>
      <trkpt lat="55.176540" lon="25.647320"></trkpt>
      <trkpt lat="55.176680" lon="25.646230"></trkpt>
      <trkpt lat="55.176800" lon="25.645810"></trkpt>
      <trkpt lat="55.176900" lon="25.645600"></trkpt>
      <trkpt lat="55.177240" lon="25.644975"></trkpt>
      <trkpt lat="55.177580" lon="25.644350"></trkpt>
      <trkpt lat="55.177970" lon="25.643550"></trkpt>
      <trkpt lat="55.178455" lon="25.642875"></trkpt>
      <trkpt lat="55.178940" lon="25.642200"></trkpt>
      <trkpt lat="55.179190" lon="25.641770"></trkpt>
      <trkpt lat="55.179330" lon="25.641490"></trkpt>
      <trkpt lat="55.179600" lon="25.640840"></trkpt>
      <trkpt lat="55.179880" lon="25.640280"></trkpt>
      <trkpt lat="55.179980" lon="25.640040"></trkpt>
      <trkpt lat="55.180090" lon="25.639680"></trkpt>
      <trkpt lat="55.180220" lon="25.639400"></trkpt>
      <trkpt lat="55.180340" lon="25.639190"></trkpt>
      <trkpt lat="55.180720" lon="25.638690"></trkpt>
      <trkpt lat="55.180900" lon="25.638510"></trkpt>
      <trkpt lat="55.181000" lon="25.638450"></trkpt>
      <trkpt lat="55.181140" lon="25.638410"></trkpt>
      <trkpt lat="55.181530" lon="25.638410"></trkpt>
      <trkpt lat="55.181750" lon="25.638340"></trkpt>
      <trkpt lat="55.182180" lon="25.638000"></trkpt>
      <trkpt lat="55.182640" lon="25.637810"></trkpt>
      <trkpt lat="55.182770" lon="25.637820"></trkpt>
      <trkpt lat="55.183280" lon="25.638030"></trkpt>
      <trkpt lat="55.183610" lon="25.638140"></trkpt>
      <trkpt lat="55.183760" lon="25.638170"></trkpt>
      <trkpt lat="55.183950" lon="25.638170"></trkpt>
      <trkpt lat="55.184550" lon="25.638030"></trkpt>
      <trkpt lat="55.185365" lon="25.637650"></trkpt>
      <trkpt lat="55.186180" lon="25.637270"></trkpt>
      <trkpt lat="55.186440" lon="25.637110"></trkpt>
      <trkpt lat="55.187060" lon="25.636620"></trkpt>
      <trkpt lat="55.187690" lon="25.636040"></trkpt>
      <trkpt lat="55.188460" lon="25.635280"></trkpt>
      <trkpt lat="55.188620" lon="25.635070"></trkpt>
      <trkpt lat="55.189085" lon="25.634190"></trkpt>
      <trkpt lat="55.189550" lon="25.633310"></trkpt>
      <trkpt lat="55.189710" lon="25.633050"></trkpt>
      <trkpt lat="55.190310" lon="25.632320"></trkpt>
      <trkpt lat="55.190480" lon="25.632090"></trkpt>
      <trkpt lat="55.190590" lon="25.631880"></trkpt>
      <trkpt lat="55.190930" lon="25.631120"></trkpt>
      <trkpt lat="55.191190" lon="25.630630"></trkpt>
      <trkpt lat="55.191580" lon="25.629805"></trkpt>
      <trkpt lat="55.191970" lon="25.628980"></trkpt>
      <trkpt lat="55.192210" lon="25.628310"></trkpt>
      <trkpt lat="55.192440" lon="25.627430"></trkpt>
      <trkpt lat="55.192590" lon="25.626720"></trkpt>
      <trkpt lat="55.192675" lon="25.625940"></trkpt>
      <trkpt lat="55.192760" lon="25.625160"></trkpt>
      <trkpt lat="55.192830" lon="25.623790"></trkpt>
      <trkpt lat="55.192880" lon="25.623570"></trkpt>
      <trkpt lat="55.192950" lon="25.623380"></trkpt>
      <trkpt lat="55.193030" lon="25.623240"></trkpt>
      <trkpt lat="55.193240" lon="25.622970"></trkpt>
      <trkpt lat="55.193380" lon="25.622760"></trkpt>
      <trkpt lat="55.193750" lon="25.622160"></trkpt>
      <trkpt lat="55.193830" lon="25.622000"></trkpt>
      <trkpt lat="55.193940" lon="25.621650"></trkpt>
      <trkpt lat="55.193990" lon="25.621330"></trkpt>
      <trkpt lat="55.194180" lon="25.619850"></trkpt>
      <trkpt lat="55.194270" lon="25.618680"></trkpt>
      <trkpt lat="55.194360" lon="25.617510"></trkpt>
      <trkpt lat="55.194450" lon="25.616340"></trkpt>
      <trkpt lat="55.194540" lon="25.615390"></trkpt>
      <trkpt lat="55.194630" lon="25.614440"></trkpt>
      <trkpt lat="55.194670" lon="25.613520"></trkpt>
      <trkpt lat="55.194730" lon="25.612740"></trkpt>
      <trkpt lat="55.194860" lon="25.611260"></trkpt>
      <trkpt lat="55.194990" lon="25.609780"></trkpt>
      <trkpt lat="55.194990" lon="25.608980"></trkpt>
      <trkpt lat="55.195010" lon="25.608650"></trkpt>
      <trkpt lat="55.195050" lon="25.608360"></trkpt>
      <trkpt lat="55.195120" lon="25.608080"></trkpt>
      <trkpt lat="55.195380" lon="25.607260"></trkpt>
      <trkpt lat="55.195460" lon="25.606690"></trkpt>
      <trkpt lat="55.195480" lon="25.606080"></trkpt>
      <trkpt lat="55.195690" lon="25.604730"></trkpt>
      <trkpt lat="55.195750" lon="25.604020"></trkpt>
      <trkpt lat="55.195750" lon="25.603530"></trkpt>
      <trkpt lat="55.195690" lon="25.602680"></trkpt>
      <trkpt lat="55.195690" lon="25.602370"></trkpt>
      <trkpt lat="55.195720" lon="25.601780"></trkpt>
      <trkpt lat="55.195700" lon="25.601560"></trkpt>
      <trkpt lat="55.195660" lon="25.601380"></trkpt>
      <trkpt lat="55.195570" lon="25.601180"></trkpt>
      <trkpt lat="55.195450" lon="25.600990"></trkpt>
      <trkpt lat="55.195320" lon="25.600840"></trkpt>
      <trkpt lat="55.195180" lon="25.600730"></trkpt>
      <trkpt lat="55.195050" lon="25.600680"></trkpt>
      <trkpt lat="55.194880" lon="25.600660"></trkpt>
      <trkpt lat="55.194740" lon="25.600680"></trkpt>
      <trkpt lat="55.194460" lon="25.600820"></trkpt>
      <trkpt lat="55.194270" lon="25.600880"></trkpt>
      <trkpt lat="55.194050" lon="25.600890"></trkpt>
      <trkpt lat="55.193860" lon="25.600750"></trkpt>
      <trkpt lat="55.193750" lon="25.600630"></trkpt>
      <trkpt lat="55.193430" lon="25.600120"></trkpt>
      <trkpt lat="55.192980" lon="25.599025"></trkpt>
      <trkpt lat="55.192530" lon="25.597930"></trkpt>
      <trkpt lat="55.192380" lon="25.597610"></trkpt>
      <trkpt lat="55.192400" lon="25.597490"></trkpt>
      <trkpt lat="55.192520" lon="25.597290"></trkpt>
      <trkpt lat="55.193075" lon="25.597605"></trkpt>
      <trkpt lat="55.193630" lon="25.597920"></trkpt>
      <trkpt lat="55.193950" lon="25.598020"></trkpt>
      <trkpt lat="55.194270" lon="25.598010"></trkpt>
      <trkpt lat="55.194500" lon="25.597940"></trkpt>
      <trkpt lat="55.194720" lon="25.597780"></trkpt>
      <trkpt lat="55.195180" lon="25.597300"></trkpt>
      <trkpt lat="55.195640" lon="25.596820"></trkpt>
      <trkpt lat="55.196213" lon="25.596303"></trkpt>
      <trkpt lat="55.196787" lon="25.595787"></trkpt>
      <trkpt lat="55.197360" lon="25.595270"></trkpt>
      <trkpt lat="55.197610" lon="25.595110"></trkpt>
      <trkpt lat="55.198070" lon="25.594270"></trkpt>
      <trkpt lat="55.198360" lon="25.593680"></trkpt>
      <trkpt lat="55.198750" lon="25.593190"></trkpt>
      <trkpt lat="55.199130" lon="25.592840"></trkpt>
      <trkpt lat="55.199230" lon="25.592670"></trkpt>
      <trkpt lat="55.199280" lon="25.592500"></trkpt>
      <trkpt lat="55.199320" lon="25.592280"></trkpt>
      <trkpt lat="55.199370" lon="25.591450"></trkpt>
      <trkpt lat="55.199630" lon="25.590130"></trkpt>
      <trkpt lat="55.199800" lon="25.589760"></trkpt>
      <trkpt lat="55.200050" lon="25.589390"></trkpt>
      <trkpt lat="55.200530" lon="25.588790"></trkpt>
      <trkpt lat="55.200660" lon="25.588600"></trkpt>
      <trkpt lat="55.200770" lon="25.588330"></trkpt>
      <trkpt lat="55.200750" lon="25.588170"></trkpt>
      <trkpt lat="55.200590" lon="25.587660"></trkpt>
      <trkpt lat="55.200430" lon="25.586930"></trkpt>
      <trkpt lat="55.199950" lon="25.586515"></trkpt>
      <trkpt lat="55.199470" lon="25.586100"></trkpt>
      <trkpt lat="55.198950" lon="25.585560"></trkpt>
      <trkpt lat="55.198420" lon="25.584980"></trkpt>
      <trkpt lat="55.198015" lon="25.584595"></trkpt>
      <trkpt lat="55.197610" lon="25.584210"></trkpt>
      <trkpt lat="55.197410" lon="25.583950"></trkpt>
      <trkpt lat="55.197320" lon="25.583680"></trkpt>
      <trkpt lat="55.197160" lon="25.583330"></trkpt>
      <trkpt lat="55.196960" lon="25.582770"></trkpt>
      <trkpt lat="55.196540" lon="25.581550"></trkpt>
      <trkpt lat="55.196460" lon="25.581050"></trkpt>
      <trkpt lat="55.196440" lon="25.580420"></trkpt>
      <trkpt lat="55.196360" lon="25.579850"></trkpt>
      <trkpt lat="55.196250" lon="25.579420"></trkpt>
      <trkpt lat="55.196120" lon="25.579130"></trkpt>
      <trkpt lat="55.195940" lon="25.578910"></trkpt>
      <trkpt lat="55.195650" lon="25.578710"></trkpt>
      <trkpt lat="55.195490" lon="25.578460"></trkpt>
      <trkpt lat="55.195280" lon="25.577840"></trkpt>
      <trkpt lat="55.194760" lon="25.576820"></trkpt>
      <trkpt lat="55.194505" lon="25.576165"></trkpt>
      <trkpt lat="55.194250" lon="25.575510"></trkpt>
      <trkpt lat="55.194005" lon="25.574315"></trkpt>
      <trkpt lat="55.193760" lon="25.573120"></trkpt>
      <trkpt lat="55.193770" lon="25.572740"></trkpt>
      <trkpt lat="55.193730" lon="25.571830"></trkpt>
      <trkpt lat="55.193700" lon="25.571500"></trkpt>
      <trkpt lat="55.193510" lon="25.570650"></trkpt>
      <trkpt lat="55.193540" lon="25.570450"></trkpt>
      <trkpt lat="55.193885" lon="25.569810"></trkpt>
      <trkpt lat="55.194230" lon="25.569170"></trkpt>
      <trkpt lat="55.194540" lon="25.568380"></trkpt>
      <trkpt lat="55.195160" lon="25.567500"></trkpt>
      <trkpt lat="55.195550" lon="25.566820"></trkpt>
      <trkpt lat="55.195990" lon="25.566180"></trkpt>
      <trkpt lat="55.196730" lon="25.565310"></trkpt>
      <trkpt lat="55.196930" lon="25.564910"></trkpt>
      <trkpt lat="55.197380" lon="25.563710"></trkpt>
      <trkpt lat="55.197775" lon="25.562443"></trkpt>
      <trkpt lat="55.198170" lon="25.561175"></trkpt>
      <trkpt lat="55.198565" lon="25.559908"></trkpt>
      <trkpt lat="55.198960" lon="25.558640"></trkpt>
      <trkpt lat="55.199450" lon="25.557790"></trkpt>
      <trkpt lat="55.199990" lon="25.556630"></trkpt>
      <trkpt lat="55.200300" lon="25.555860"></trkpt>
      <trkpt lat="55.200600" lon="25.555300"></trkpt>
      <trkpt lat="55.200940" lon="25.554520"></trkpt>
      <trkpt lat="55.201020" lon="25.554170"></trkpt>
      <trkpt lat="55.201060" lon="25.553640"></trkpt>
      <trkpt lat="55.201120" lon="25.553230"></trkpt>
      <trkpt lat="55.201490" lon="25.551850"></trkpt>
      <trkpt lat="55.201790" lon="25.550930"></trkpt>
      <trkpt lat="55.201870" lon="25.550630"></trkpt>
      <trkpt lat="55.201900" lon="25.550380"></trkpt>
      <trkpt lat="55.201890" lon="25.549630"></trkpt>
      <trkpt lat="55.201850" lon="25.548970"></trkpt>
      <trkpt lat="55.201840" lon="25.548260"></trkpt>
      <trkpt lat="55.201845" lon="25.547450"></trkpt>
      <trkpt lat="55.201850" lon="25.546640"></trkpt>
      <trkpt lat="55.201790" lon="25.546110"></trkpt>
      <trkpt lat="55.201600" lon="25.545500"></trkpt>
      <trkpt lat="55.201400" lon="25.544990"></trkpt>
      <trkpt lat="55.201340" lon="25.544760"></trkpt>
      <trkpt lat="55.201290" lon="25.543455"></trkpt>
      <trkpt lat="55.201240" lon="25.542150"></trkpt>
      <trkpt lat="55.201170" lon="25.541410"></trkpt>
      <trkpt lat="55.201180" lon="25.540240"></trkpt>
      <trkpt lat="55.201210" lon="25.539970"></trkpt>
      <trkpt lat="55.201210" lon="25.539190"></trkpt>
      <trkpt lat="55.201160" lon="25.538690"></trkpt>
      <trkpt lat="55.201220" lon="25.537980"></trkpt>
      <trkpt lat="55.201190" lon="25.537600"></trkpt>
      <trkpt lat="55.200930" lon="25.536450"></trkpt>
      <trkpt lat="55.200670" lon="25.535300"></trkpt>
      <trkpt lat="55.200410" lon="25.534150"></trkpt>
      <trkpt lat="55.200340" lon="25.533950"></trkpt>
      <trkpt lat="55.200260" lon="25.533830"></trkpt>
      <trkpt lat="55.200160" lon="25.533730"></trkpt>
      <trkpt lat="55.200020" lon="25.533690"></trkpt>
      <trkpt lat="55.200100" lon="25.533430"></trkpt>
      <trkpt lat="55.200480" lon="25.532770"></trkpt>
      <trkpt lat="55.200630" lon="25.532670"></trkpt>
      <trkpt lat="55.201290" lon="25.532290"></trkpt>
      <trkpt lat="55.201530" lon="25.532190"></trkpt>
      <trkpt lat="55.201870" lon="25.531990"></trkpt>
      <trkpt lat="55.202320" lon="25.531680"></trkpt>
      <trkpt lat="55.202550" lon="25.531490"></trkpt>
      <trkpt lat="55.202800" lon="25.531360"></trkpt>
      <trkpt lat="55.203360" lon="25.530970"></trkpt>
      <trkpt lat="55.203690" lon="25.530700"></trkpt>
      <trkpt lat="55.204300" lon="25.530350"></trkpt>
      <trkpt lat="55.204580" lon="25.530070"></trkpt>
      <trkpt lat="55.204960" lon="25.529410"></trkpt>
      <trkpt lat="55.205340" lon="25.528670"></trkpt>
      <trkpt lat="55.205720" lon="25.527930"></trkpt>
      <trkpt lat="55.206140" lon="25.527210"></trkpt>
      <trkpt lat="55.206290" lon="25.526900"></trkpt>
      <trkpt lat="55.206530" lon="25.526350"></trkpt>
      <trkpt lat="55.206650" lon="25.526200"></trkpt>
      <trkpt lat="55.206870" lon="25.525970"></trkpt>
      <trkpt lat="55.207010" lon="25.525890"></trkpt>
      <trkpt lat="55.207160" lon="25.525860"></trkpt>
      <trkpt lat="55.207260" lon="25.525890"></trkpt>
      <trkpt lat="55.207350" lon="25.525950"></trkpt>
      <trkpt lat="55.207630" lon="25.526240"></trkpt>
      <trkpt lat="55.207800" lon="25.526360"></trkpt>
      <trkpt lat="55.208140" lon="25.526670"></trkpt>
      <trkpt lat="55.208820" lon="25.527110"></trkpt>
      <trkpt lat="55.209130" lon="25.527420"></trkpt>
      <trkpt lat="55.209565" lon="25.527780"></trkpt>
      <trkpt lat="55.210000" lon="25.528140"></trkpt>
      <trkpt lat="55.210445" lon="25.528570"></trkpt>
      <trkpt lat="55.210890" lon="25.529000"></trkpt>
      <trkpt lat="55.211640" lon="25.529660"></trkpt>
      <trkpt lat="55.212175" lon="25.530155"></trkpt>
      <trkpt lat="55.212710" lon="25.530650"></trkpt>
      <trkpt lat="55.212940" lon="25.530900"></trkpt>
      <trkpt lat="55.213290" lon="25.531390"></trkpt>
      <trkpt lat="55.213490" lon="25.531720"></trkpt>
      <trkpt lat="55.213690" lon="25.532220"></trkpt>
      <trkpt lat="55.213850" lon="25.532660"></trkpt>
      <trkpt lat="55.214070" lon="25.533060"></trkpt>
      <trkpt lat="55.214605" lon="25.533885"></trkpt>
      <trkpt lat="55.215140" lon="25.534710"></trkpt>
      <trkpt lat="55.215480" lon="25.535380"></trkpt>
      <trkpt lat="55.215960" lon="25.536418"></trkpt>
      <trkpt lat="55.216440" lon="25.537457"></trkpt>
      <trkpt lat="55.216920" lon="25.538495"></trkpt>
      <trkpt lat="55.217400" lon="25.539533"></trkpt>
      <trkpt lat="55.217880" lon="25.540572"></trkpt>
      <trkpt lat="55.218360" lon="25.541610"></trkpt>
      <trkpt lat="55.218615" lon="25.542335"></trkpt>
      <trkpt lat="55.218870" lon="25.543060"></trkpt>
      <trkpt lat="55.219220" lon="25.544130"></trkpt>
      <trkpt lat="55.219390" lon="25.544810"></trkpt>
      <trkpt lat="55.219570" lon="25.545800"></trkpt>
      <trkpt lat="55.219790" lon="25.546525"></trkpt>
      <trkpt lat="55.220010" lon="25.547250"></trkpt>
      <trkpt lat="55.220345" lon="25.548420"></trkpt>
      <trkpt lat="55.220680" lon="25.549590"></trkpt>
      <trkpt lat="55.220750" lon="25.550050"></trkpt>
      <trkpt lat="55.220790" lon="25.550740"></trkpt>
      <trkpt lat="55.220760" lon="25.551775"></trkpt>
      <trkpt lat="55.220730" lon="25.552810"></trkpt>
      <trkpt lat="55.220750" lon="25.553070"></trkpt>
      <trkpt lat="55.220900" lon="25.553430"></trkpt>
      <trkpt lat="55.221040" lon="25.553450"></trkpt>
      <trkpt lat="55.221170" lon="25.553500"></trkpt>
      <trkpt lat="55.221380" lon="25.553690"></trkpt>
      <trkpt lat="55.221795" lon="25.554170"></trkpt>
      <trkpt lat="55.222210" lon="25.554650"></trkpt>
      <trkpt lat="55.222410" lon="25.554820"></trkpt>
      <trkpt lat="55.222580" lon="25.554900"></trkpt>
      <trkpt lat="55.223110" lon="25.554970"></trkpt>
      <trkpt lat="55.223600" lon="25.555120"></trkpt>
      <trkpt lat="55.224090" lon="25.555270"></trkpt>
      <trkpt lat="55.224300" lon="25.555300"></trkpt>
      <trkpt lat="55.224520" lon="25.555210"></trkpt>
      <trkpt lat="55.225150" lon="25.554695"></trkpt>
      <trkpt lat="55.225780" lon="25.554180"></trkpt>
      <trkpt lat="55.226255" lon="25.554060"></trkpt>
      <trkpt lat="55.226730" lon="25.553940"></trkpt>
      <trkpt lat="55.227390" lon="25.553590"></trkpt>
      <trkpt lat="55.228070" lon="25.553570"></trkpt>
      <trkpt lat="55.228750" lon="25.553550"></trkpt>
      <trkpt lat="55.229460" lon="25.553340"></trkpt>
      <trkpt lat="55.230290" lon="25.552890"></trkpt>
      <trkpt lat="55.230640" lon="25.552550"></trkpt>
      <trkpt lat="55.231225" lon="25.551875"></trkpt>
      <trkpt lat="55.231810" lon="25.551200"></trkpt>
      <trkpt lat="55.232455" lon="25.550665"></trkpt>
      <trkpt lat="55.233100" lon="25.550130"></trkpt>
      <trkpt lat="55.233460" lon="25.549750"></trkpt>
      <trkpt lat="55.233820" lon="25.549450"></trkpt>
      <trkpt lat="55.234160" lon="25.549340"></trkpt>
      <trkpt lat="55.234390" lon="25.549150"></trkpt>
      <trkpt lat="55.234950" lon="25.548560"></trkpt>
      <trkpt lat="55.235110" lon="25.548410"></trkpt>
      <trkpt lat="55.235240" lon="25.548330"></trkpt>
      <trkpt lat="55.235440" lon="25.548280"></trkpt>
      <trkpt lat="55.235830" lon="25.548320"></trkpt>
      <trkpt lat="55.236050" lon="25.548300"></trkpt>
      <trkpt lat="55.236280" lon="25.548200"></trkpt>
      <trkpt lat="55.236750" lon="25.547800"></trkpt>
      <trkpt lat="55.236930" lon="25.547680"></trkpt>
      <trkpt lat="55.237530" lon="25.547535"></trkpt>
      <trkpt lat="55.238130" lon="25.547390"></trkpt>
      <trkpt lat="55.240930" lon="25.546970"></trkpt>
      <trkpt lat="55.241375" lon="25.546860"></trkpt>
      <trkpt lat="55.241820" lon="25.546750"></trkpt>
      <trkpt lat="55.242500" lon="25.546640"></trkpt>
      <trkpt lat="55.243180" lon="25.546570"></trkpt>
      <trkpt lat="55.244002" lon="25.546628"></trkpt>
      <trkpt lat="55.244824" lon="25.546686"></trkpt>
      <trkpt lat="55.245646" lon="25.546744"></trkpt>
      <trkpt lat="55.246468" lon="25.546802"></trkpt>
      <trkpt lat="55.247290" lon="25.546860"></trkpt>
      <trkpt lat="55.248030" lon="25.546925"></trkpt>
      <trkpt lat="55.248770" lon="25.546990"></trkpt>
      <trkpt lat="55.249520" lon="25.547030"></trkpt>
      <trkpt lat="55.250030" lon="25.547165"></trkpt>
      <trkpt lat="55.250540" lon="25.547300"></trkpt>
      <trkpt lat="55.251235" lon="25.547545"></trkpt>
      <trkpt lat="55.251930" lon="25.547790"></trkpt>
      <trkpt lat="55.252250" lon="25.547880"></trkpt>
      <trkpt lat="55.252550" lon="25.547940"></trkpt>
      <trkpt lat="55.252850" lon="25.547960"></trkpt>
      <trkpt lat="55.253120" lon="25.547940"></trkpt>
      <trkpt lat="55.253320" lon="25.547890"></trkpt>
      <trkpt lat="55.253520" lon="25.547790"></trkpt>
      <trkpt lat="55.254120" lon="25.547370"></trkpt>
      <trkpt lat="55.254240" lon="25.547320"></trkpt>
      <trkpt lat="55.254350" lon="25.547300"></trkpt>
      <trkpt lat="55.254450" lon="25.547310"></trkpt>
      <trkpt lat="55.254690" lon="25.547400"></trkpt>
      <trkpt lat="55.255500" lon="25.547800"></trkpt>
      <trkpt lat="55.255610" lon="25.548380"></trkpt>
      <trkpt lat="55.255660" lon="25.548770"></trkpt>
      <trkpt lat="55.255745" lon="25.550085"></trkpt>
      <trkpt lat="55.255830" lon="25.551400"></trkpt>
      <trkpt lat="55.255890" lon="25.551970"></trkpt>
      <trkpt lat="55.256120" lon="25.553000"></trkpt>
      <trkpt lat="55.256350" lon="25.554030"></trkpt>
      <trkpt lat="55.256580" lon="25.555060"></trkpt>
      <trkpt lat="55.256600" lon="25.555440"></trkpt>
      <trkpt lat="55.256550" lon="25.555720"></trkpt>
      <trkpt lat="55.256460" lon="25.556040"></trkpt>
      <trkpt lat="55.256040" lon="25.557250"></trkpt>
      <trkpt lat="55.256000" lon="25.557870"></trkpt>
      <trkpt lat="55.256057" lon="25.559337"></trkpt>
      <trkpt lat="55.256113" lon="25.560803"></trkpt>
      <trkpt lat="55.256170" lon="25.562270"></trkpt>
      <trkpt lat="55.256250" lon="25.563150"></trkpt>
      <trkpt lat="55.256350" lon="25.563850"></trkpt>
      <trkpt lat="55.256740" lon="25.565220"></trkpt>
      <trkpt lat="55.257130" lon="25.566590"></trkpt>
      <trkpt lat="55.257510" lon="25.567470"></trkpt>
      <trkpt lat="55.257610" lon="25.567920"></trkpt>
      <trkpt lat="55.257680" lon="25.568380"></trkpt>
      <trkpt lat="55.257830" lon="25.568670"></trkpt>
      <trkpt lat="55.258000" lon="25.568850"></trkpt>
      <trkpt lat="55.258420" lon="25.568990"></trkpt>
      <trkpt lat="55.259050" lon="25.569060"></trkpt>
      <trkpt lat="55.259700" lon="25.569280"></trkpt>
      <trkpt lat="55.260190" lon="25.569480"></trkpt>
      <trkpt lat="55.260780" lon="25.569800"></trkpt>
      <trkpt lat="55.261340" lon="25.570010"></trkpt>
      <trkpt lat="55.261720" lon="25.570020"></trkpt>
      <trkpt lat="55.262320" lon="25.569960"></trkpt>
      <trkpt lat="55.263190" lon="25.570020"></trkpt>
      <trkpt lat="55.263430" lon="25.569990"></trkpt>
      <trkpt lat="55.263640" lon="25.569910"></trkpt>
      <trkpt lat="55.264330" lon="25.569635"></trkpt>
      <trkpt lat="55.265020" lon="25.569360"></trkpt>
      <trkpt lat="55.265170" lon="25.569210"></trkpt>
      <trkpt lat="55.265270" lon="25.569420"></trkpt>
      <trkpt lat="55.265460" lon="25.569730"></trkpt>
      <trkpt lat="55.266050" lon="25.570510"></trkpt>
      <trkpt lat="55.266640" lon="25.571290"></trkpt>
      <trkpt lat="55.267230" lon="25.572070"></trkpt>
      <trkpt lat="55.267860" lon="25.572880"></trkpt>
      <trkpt lat="55.268490" lon="25.573690"></trkpt>
      <trkpt lat="55.268750" lon="25.574050"></trkpt>
      <trkpt lat="55.268880" lon="25.574260"></trkpt>
      <trkpt lat="55.269150" lon="25.574820"></trkpt>
      <trkpt lat="55.269230" lon="25.575070"></trkpt>
      <trkpt lat="55.269290" lon="25.575340"></trkpt>
      <trkpt lat="55.269420" lon="25.576240"></trkpt>
      <trkpt lat="55.269490" lon="25.576440"></trkpt>
      <trkpt lat="55.269560" lon="25.576570"></trkpt>
      <trkpt lat="55.269650" lon="25.576680"></trkpt>
      <trkpt lat="55.269750" lon="25.576750"></trkpt>
      <trkpt lat="55.269860" lon="25.576790"></trkpt>
      <trkpt lat="55.269980" lon="25.576810"></trkpt>
      <trkpt lat="55.270745" lon="25.576760"></trkpt>
      <trkpt lat="55.271510" lon="25.576710"></trkpt>
      <trkpt lat="55.271690" lon="25.576710"></trkpt>
      <trkpt lat="55.272000" lon="25.576780"></trkpt>
      <trkpt lat="55.272140" lon="25.576830"></trkpt>
      <trkpt lat="55.272440" lon="25.577040"></trkpt>
      <trkpt lat="55.272620" lon="25.577210"></trkpt>
      <trkpt lat="55.273240" lon="25.577890"></trkpt>
      <trkpt lat="55.273450" lon="25.578090"></trkpt>
      <trkpt lat="55.273965" lon="25.578520"></trkpt>
      <trkpt lat="55.274480" lon="25.578950"></trkpt>
      <trkpt lat="55.274960" lon="25.579430"></trkpt>
      <trkpt lat="55.275330" lon="25.579900"></trkpt>
      <trkpt lat="55.275685" lon="25.580545"></trkpt>
      <trkpt lat="55.276040" lon="25.581190"></trkpt>
      <trkpt lat="55.276270" lon="25.581480"></trkpt>
      <trkpt lat="55.276720" lon="25.581930"></trkpt>
      <trkpt lat="55.276880" lon="25.582220"></trkpt>
      <trkpt lat="55.277030" lon="25.582630"></trkpt>
      <trkpt lat="55.277310" lon="25.583580"></trkpt>
      <trkpt lat="55.277450" lon="25.583940"></trkpt>
      <trkpt lat="55.277610" lon="25.584290"></trkpt>
      <trkpt lat="55.277750" lon="25.584550"></trkpt>
      <trkpt lat="55.277900" lon="25.584790"></trkpt>
      <trkpt lat="55.278150" lon="25.585130"></trkpt>
      <trkpt lat="55.278645" lon="25.585710"></trkpt>
      <trkpt lat="55.279140" lon="25.586290"></trkpt>
      <trkpt lat="55.279310" lon="25.586470"></trkpt>
      <trkpt lat="55.279520" lon="25.586630"></trkpt>
      <trkpt lat="55.279710" lon="25.586740"></trkpt>
      <trkpt lat="55.279910" lon="25.586820"></trkpt>
      <trkpt lat="55.280160" lon="25.586860"></trkpt>
      <trkpt lat="55.280645" lon="25.586875"></trkpt>
      <trkpt lat="55.281130" lon="25.586890"></trkpt>
      <trkpt lat="55.281490" lon="25.586980"></trkpt>
      <trkpt lat="55.281660" lon="25.587060"></trkpt>
      <trkpt lat="55.282110" lon="25.587370"></trkpt>
      <trkpt lat="55.282620" lon="25.587770"></trkpt>
      <trkpt lat="55.282730" lon="25.587900"></trkpt>
      <trkpt lat="55.282920" lon="25.588180"></trkpt>
      <trkpt lat="55.283060" lon="25.588490"></trkpt>
      <trkpt lat="55.283290" lon="25.589130"></trkpt>
      <trkpt lat="55.283530" lon="25.589540"></trkpt>
      <trkpt lat="55.284150" lon="25.590260"></trkpt>
      <trkpt lat="55.284260" lon="25.590420"></trkpt>
      <trkpt lat="55.284460" lon="25.590790"></trkpt>
      <trkpt lat="55.284510" lon="25.590710"></trkpt>
      <trkpt lat="55.284660" lon="25.590630"></trkpt>
      <trkpt lat="55.285220" lon="25.590750"></trkpt>
      <trkpt lat="55.285420" lon="25.590830"></trkpt>
      <trkpt lat="55.286200" lon="25.591310"></trkpt>
      <trkpt lat="55.286330" lon="25.591420"></trkpt>
      <trkpt lat="55.286850" lon="25.592040"></trkpt>
      <trkpt lat="55.287120" lon="25.592250"></trkpt>
      <trkpt lat="55.287780" lon="25.592860"></trkpt>
      <trkpt lat="55.288080" lon="25.593010"></trkpt>
      <trkpt lat="55.288520" lon="25.593140"></trkpt>
      <trkpt lat="55.289167" lon="25.593450"></trkpt>
      <trkpt lat="55.289813" lon="25.593760"></trkpt>
      <trkpt lat="55.290460" lon="25.594070"></trkpt>
      <trkpt lat="55.290740" lon="25.594060"></trkpt>
      <trkpt lat="55.291170" lon="25.593790"></trkpt>
      <trkpt lat="55.291460" lon="25.593810"></trkpt>
      <trkpt lat="55.291890" lon="25.594160"></trkpt>
      <trkpt lat="55.292580" lon="25.594940"></trkpt>
      <trkpt lat="55.293090" lon="25.595705"></trkpt>
      <trkpt lat="55.293600" lon="25.596470"></trkpt>
      <trkpt lat="55.293915" lon="25.597350"></trkpt>
      <trkpt lat="55.294230" lon="25.598230"></trkpt>
      <trkpt lat="55.294270" lon="25.598430"></trkpt>
      <trkpt lat="55.294350" lon="25.599220"></trkpt>
      <trkpt lat="55.294650" lon="25.599820"></trkpt>
      <trkpt lat="55.295050" lon="25.600200"></trkpt>
      <trkpt lat="55.295580" lon="25.600550"></trkpt>
      <trkpt lat="55.296110" lon="25.600900"></trkpt>
      <trkpt lat="55.296793" lon="25.600877"></trkpt>
      <trkpt lat="55.297477" lon="25.600853"></trkpt>
      <trkpt lat="55.298160" lon="25.600830"></trkpt>
      <trkpt lat="55.298830" lon="25.600570"></trkpt>
      <trkpt lat="55.299200" lon="25.600200"></trkpt>
      <trkpt lat="55.299740" lon="25.599340"></trkpt>
      <trkpt lat="55.300280" lon="25.598480"></trkpt>
      <trkpt lat="55.300440" lon="25.598210"></trkpt>
      <trkpt lat="55.300780" lon="25.597740"></trkpt>
      <trkpt lat="55.300620" lon="25.597960"></trkpt>
      <trkpt lat="55.300780" lon="25.597740"></trkpt>
      <trkpt lat="55.300820" lon="25.597680"></trkpt>
      <trkpt lat="55.301150" lon="25.597510"></trkpt>
      <trkpt lat="55.301650" lon="25.597155"></trkpt>
      <trkpt lat="55.302150" lon="25.596800"></trkpt>
      <trkpt lat="55.302753" lon="25.596470"></trkpt>
      <trkpt lat="55.303357" lon="25.596140"></trkpt>
      <trkpt lat="55.303960" lon="25.595810"></trkpt>
      <trkpt lat="55.304400" lon="25.595430"></trkpt>
      <trkpt lat="55.304970" lon="25.594820"></trkpt>
      <trkpt lat="55.305345" lon="25.594160"></trkpt>
      <trkpt lat="55.305720" lon="25.593500"></trkpt>
      <trkpt lat="55.306183" lon="25.592633"></trkpt>
      <trkpt lat="55.306647" lon="25.591767"></trkpt>
      <trkpt lat="55.307110" lon="25.590900"></trkpt>
      <trkpt lat="55.307620" lon="25.589890"></trkpt>
      <trkpt lat="55.307830" lon="25.589590"></trkpt>
      <trkpt lat="55.308040" lon="25.589360"></trkpt>
      <trkpt lat="55.308703" lon="25.588893"></trkpt>
      <trkpt lat="55.309367" lon="25.588427"></trkpt>
      <trkpt lat="55.310030" lon="25.587960"></trkpt>
      <trkpt lat="55.310465" lon="25.587435"></trkpt>
      <trkpt lat="55.310900" lon="25.586910"></trkpt>
      <trkpt lat="55.311350" lon="25.586830"></trkpt>
      <trkpt lat="55.311450" lon="25.586840"></trkpt>
      <trkpt lat="55.311590" lon="25.586880"></trkpt>
      <trkpt lat="55.312040" lon="25.587120"></trkpt>
      <trkpt lat="55.312270" lon="25.587160"></trkpt>
      <trkpt lat="55.312860" lon="25.587160"></trkpt>
      <trkpt lat="55.313450" lon="25.587160"></trkpt>
      <trkpt lat="55.313680" lon="25.587130"></trkpt>
      <trkpt lat="55.314190" lon="25.586870"></trkpt>
      <trkpt lat="55.314370" lon="25.587760"></trkpt>
      <trkpt lat="55.314490" lon="25.588090"></trkpt>
      <trkpt lat="55.314640" lon="25.588350"></trkpt>
      <trkpt lat="55.314830" lon="25.588560"></trkpt>
      <trkpt lat="55.315020" lon="25.588680"></trkpt>
      <trkpt lat="55.315220" lon="25.588760"></trkpt>
      <trkpt lat="55.315360" lon="25.588890"></trkpt>
      <trkpt lat="55.315500" lon="25.589120"></trkpt>
      <trkpt lat="55.315610" lon="25.589370"></trkpt>
      <trkpt lat="55.315720" lon="25.589850"></trkpt>
      <trkpt lat="55.315660" lon="25.590430"></trkpt>
      <trkpt lat="55.315415" lon="25.591715"></trkpt>
      <trkpt lat="55.315170" lon="25.593000"></trkpt>
      <trkpt lat="55.315130" lon="25.593470"></trkpt>
      <trkpt lat="55.314970" lon="25.594510"></trkpt>
      <trkpt lat="55.314815" lon="25.595795"></trkpt>
      <trkpt lat="55.314660" lon="25.597080"></trkpt>
      <trkpt lat="55.314565" lon="25.598065"></trkpt>
      <trkpt lat="55.314470" lon="25.599050"></trkpt>
      <trkpt lat="55.314450" lon="25.599770"></trkpt>
      <trkpt lat="55.314370" lon="25.600850"></trkpt>
      <trkpt lat="55.314380" lon="25.601700"></trkpt>
      <trkpt lat="55.314360" lon="25.602360"></trkpt>
      <trkpt lat="55.314230" lon="25.603290"></trkpt>
      <trkpt lat="55.314190" lon="25.603680"></trkpt>
      <trkpt lat="55.313990" lon="25.604200"></trkpt>
      <trkpt lat="55.313740" lon="25.605180"></trkpt>
      <trkpt lat="55.313470" lon="25.606360"></trkpt>
      <trkpt lat="55.313400" lon="25.607150"></trkpt>
      <trkpt lat="55.313410" lon="25.608010"></trkpt>
      <trkpt lat="55.313390" lon="25.609460"></trkpt>
      <trkpt lat="55.313360" lon="25.609920"></trkpt>
      <trkpt lat="55.313130" lon="25.611070"></trkpt>
      <trkpt lat="55.313150" lon="25.611360"></trkpt>
      <trkpt lat="55.313280" lon="25.611780"></trkpt>
      <trkpt lat="55.313310" lon="25.611980"></trkpt>
      <trkpt lat="55.313350" lon="25.613150"></trkpt>
      <trkpt lat="55.313560" lon="25.613850"></trkpt>
      <trkpt lat="55.313540" lon="25.614220"></trkpt>
      <trkpt lat="55.313420" lon="25.614600"></trkpt>
      <trkpt lat="55.313120" lon="25.615090"></trkpt>
      <trkpt lat="55.312980" lon="25.615470"></trkpt>
      <trkpt lat="55.312890" lon="25.615990"></trkpt>
      <trkpt lat="55.312820" lon="25.616570"></trkpt>
      <trkpt lat="55.312890" lon="25.617690"></trkpt>
      <trkpt lat="55.312980" lon="25.618240"></trkpt>
      <trkpt lat="55.313010" lon="25.618670"></trkpt>
      <trkpt lat="55.312960" lon="25.619280"></trkpt>
      <trkpt lat="55.312880" lon="25.619860"></trkpt>
      <trkpt lat="55.312840" lon="25.620490"></trkpt>
      <trkpt lat="55.312930" lon="25.621290"></trkpt>
      <trkpt lat="55.313120" lon="25.622420"></trkpt>
      <trkpt lat="55.313200" lon="25.623780"></trkpt>
      <trkpt lat="55.313280" lon="25.624340"></trkpt>
      <trkpt lat="55.313510" lon="25.625340"></trkpt>
      <trkpt lat="55.313490" lon="25.626530"></trkpt>
      <trkpt lat="55.313380" lon="25.627190"></trkpt>
      <trkpt lat="55.313140" lon="25.628250"></trkpt>
      <trkpt lat="55.312910" lon="25.629020"></trkpt>
      <trkpt lat="55.312680" lon="25.629790"></trkpt>
      <trkpt lat="55.312360" lon="25.630410"></trkpt>
      <trkpt lat="55.312040" lon="25.631030"></trkpt>
      <trkpt lat="55.311540" lon="25.631725"></trkpt>
      <trkpt lat="55.311040" lon="25.632420"></trkpt>
      <trkpt lat="55.310370" lon="25.633420"></trkpt>
      <trkpt lat="55.310035" lon="25.634015"></trkpt>
      <trkpt lat="55.309700" lon="25.634610"></trkpt>
      <trkpt lat="55.309570" lon="25.634890"></trkpt>
      <trkpt lat="55.309480" lon="25.635000"></trkpt>
      <trkpt lat="55.309310" lon="25.635620"></trkpt>
      <trkpt lat="55.308950" lon="25.636550"></trkpt>
      <trkpt lat="55.308590" lon="25.637480"></trkpt>
      <trkpt lat="55.308230" lon="25.638410"></trkpt>
      <trkpt lat="55.307930" lon="25.639550"></trkpt>
      <trkpt lat="55.308090" lon="25.640320"></trkpt>
      <trkpt lat="55.308250" lon="25.641090"></trkpt>
      <trkpt lat="55.308430" lon="25.642080"></trkpt>
      <trkpt lat="55.308660" lon="25.642850"></trkpt>
      <trkpt lat="55.309057" lon="25.644260"></trkpt>
      <trkpt lat="55.309453" lon="25.645670"></trkpt>
      <trkpt lat="55.309850" lon="25.647080"></trkpt>
      <trkpt lat="55.309960" lon="25.647670"></trkpt>
      <trkpt lat="55.310030" lon="25.648330"></trkpt>
      <trkpt lat="55.310220" lon="25.649110"></trkpt>
      <trkpt lat="55.310260" lon="25.649540"></trkpt>
      <trkpt lat="55.310350" lon="25.651095"></trkpt>
      <trkpt lat="55.310440" lon="25.652650"></trkpt>
      <trkpt lat="55.310630" lon="25.653630"></trkpt>
      <trkpt lat="55.310970" lon="25.654600"></trkpt>
      <trkpt lat="55.311540" lon="25.655617"></trkpt>
      <trkpt lat="55.312110" lon="25.656633"></trkpt>
      <trkpt lat="55.312680" lon="25.657650"></trkpt>
      <trkpt lat="55.313310" lon="25.658240"></trkpt>
      <trkpt lat="55.313570" lon="25.658610"></trkpt>
      <trkpt lat="55.313790" lon="25.659100"></trkpt>
      <trkpt lat="55.314173" lon="25.660070"></trkpt>
      <trkpt lat="55.314557" lon="25.661040"></trkpt>
      <trkpt lat="55.314940" lon="25.662010"></trkpt>
      <trkpt lat="55.315110" lon="25.663155"></trkpt>
      <trkpt lat="55.315280" lon="25.664300"></trkpt>
      <trkpt lat="55.315420" lon="25.664610"></trkpt>
      <trkpt lat="55.315860" lon="25.665340"></trkpt>
      <trkpt lat="55.316020" lon="25.665450"></trkpt>
      <trkpt lat="55.316410" lon="25.665430"></trkpt>
      <trkpt lat="55.316520" lon="25.665340"></trkpt>
      <trkpt lat="55.317150" lon="25.664380"></trkpt>
      <trkpt lat="55.317260" lon="25.664270"></trkpt>
      <trkpt lat="55.317590" lon="25.664200"></trkpt>
      <trkpt lat="55.318460" lon="25.664180"></trkpt>
      <trkpt lat="55.318680" lon="25.664260"></trkpt>
      <trkpt lat="55.319160" lon="25.664600"></trkpt>
      <trkpt lat="55.319280" lon="25.664630"></trkpt>
      <trkpt lat="55.319370" lon="25.664620"></trkpt>
      <trkpt lat="55.319540" lon="25.664520"></trkpt>
      <trkpt lat="55.319640" lon="25.664420"></trkpt>
      <trkpt lat="55.319730" lon="25.664290"></trkpt>
      <trkpt lat="55.319990" lon="25.663710"></trkpt>
      <trkpt lat="55.320315" lon="25.662810"></trkpt>
      <trkpt lat="55.320640" lon="25.661910"></trkpt>
      <trkpt lat="55.320870" lon="25.661065"></trkpt>
      <trkpt lat="55.321100" lon="25.660220"></trkpt>
      <trkpt lat="55.321270" lon="25.659790"></trkpt>
      <trkpt lat="55.321350" lon="25.659660"></trkpt>
      <trkpt lat="55.321820" lon="25.659520"></trkpt>
      <trkpt lat="55.322400" lon="25.659480"></trkpt>
      <trkpt lat="55.322520" lon="25.659500"></trkpt>
      <trkpt lat="55.322910" lon="25.659690"></trkpt>
      <trkpt lat="55.323040" lon="25.659680"></trkpt>
      <trkpt lat="55.323430" lon="25.659300"></trkpt>
      <trkpt lat="55.323890" lon="25.658740"></trkpt>
      <trkpt lat="55.324030" lon="25.658640"></trkpt>
      <trkpt lat="55.324150" lon="25.658490"></trkpt>
      <trkpt lat="55.324240" lon="25.658480"></trkpt>
      <trkpt lat="55.324300" lon="25.658510"></trkpt>
      <trkpt lat="55.324340" lon="25.658560"></trkpt>
      <trkpt lat="55.324650" lon="25.659800"></trkpt>
      <trkpt lat="55.324960" lon="25.661040"></trkpt>
      <trkpt lat="55.325270" lon="25.662280"></trkpt>
      <trkpt lat="55.325400" lon="25.662580"></trkpt>
      <trkpt lat="55.325580" lon="25.662890"></trkpt>
      <trkpt lat="55.325780" lon="25.663190"></trkpt>
      <trkpt lat="55.325980" lon="25.663390"></trkpt>
      <trkpt lat="55.326180" lon="25.663560"></trkpt>
      <trkpt lat="55.327003" lon="25.664027"></trkpt>
      <trkpt lat="55.327827" lon="25.664493"></trkpt>
      <trkpt lat="55.328650" lon="25.664960"></trkpt>
      <trkpt lat="55.328940" lon="25.665280"></trkpt>
      <trkpt lat="55.329140" lon="25.665560"></trkpt>
      <trkpt lat="55.329370" lon="25.665750"></trkpt>
      <trkpt lat="55.329570" lon="25.665820"></trkpt>
      <trkpt lat="55.330356" lon="25.665814"></trkpt>
      <trkpt lat="55.331141" lon="25.665809"></trkpt>
      <trkpt lat="55.331927" lon="25.665803"></trkpt>
      <trkpt lat="55.332713" lon="25.665797"></trkpt>
      <trkpt lat="55.333499" lon="25.665791"></trkpt>
      <trkpt lat="55.334284" lon="25.665786"></trkpt>
      <trkpt lat="55.335070" lon="25.665780"></trkpt>
      <trkpt lat="55.335460" lon="25.665700"></trkpt>
      <trkpt lat="55.335630" lon="25.665590"></trkpt>
      <trkpt lat="55.336130" lon="25.665075"></trkpt>
      <trkpt lat="55.336630" lon="25.664560"></trkpt>
      <trkpt lat="55.337065" lon="25.664145"></trkpt>
      <trkpt lat="55.337500" lon="25.663730"></trkpt>
      <trkpt lat="55.337870" lon="25.663430"></trkpt>
      <trkpt lat="55.337920" lon="25.663630"></trkpt>
      <trkpt lat="55.338070" lon="25.664040"></trkpt>
      <trkpt lat="55.338180" lon="25.664570"></trkpt>
      <trkpt lat="55.338320" lon="25.665640"></trkpt>
      <trkpt lat="55.338410" lon="25.666040"></trkpt>
      <trkpt lat="55.338740" lon="25.667160"></trkpt>
      <trkpt lat="55.339100" lon="25.668030"></trkpt>
      <trkpt lat="55.339460" lon="25.668900"></trkpt>
      <trkpt lat="55.339600" lon="25.669310"></trkpt>
      <trkpt lat="55.339660" lon="25.669620"></trkpt>
      <trkpt lat="55.339640" lon="25.670090"></trkpt>
      <trkpt lat="55.339560" lon="25.670560"></trkpt>
      <trkpt lat="55.339520" lon="25.671580"></trkpt>
      <trkpt lat="55.339480" lon="25.672600"></trkpt>
      <trkpt lat="55.339410" lon="25.673360"></trkpt>
      <trkpt lat="55.339205" lon="25.674220"></trkpt>
      <trkpt lat="55.339000" lon="25.675080"></trkpt>
      <trkpt lat="55.338910" lon="25.675710"></trkpt>
      <trkpt lat="55.338950" lon="25.676990"></trkpt>
      <trkpt lat="55.338860" lon="25.678300"></trkpt>
      <trkpt lat="55.338920" lon="25.678880"></trkpt>
      <trkpt lat="55.339090" lon="25.679460"></trkpt>
      <trkpt lat="55.339550" lon="25.680230"></trkpt>
      <trkpt lat="55.339730" lon="25.680580"></trkpt>
      <trkpt lat="55.339840" lon="25.680990"></trkpt>
      <trkpt lat="55.339910" lon="25.681550"></trkpt>
      <trkpt lat="55.339890" lon="25.682360"></trkpt>
      <trkpt lat="55.339760" lon="25.683070"></trkpt>
      <trkpt lat="55.339500" lon="25.683930"></trkpt>
      <trkpt lat="55.339420" lon="25.684720"></trkpt>
      <trkpt lat="55.339395" lon="25.685845"></trkpt>
      <trkpt lat="55.339370" lon="25.686970"></trkpt>
      <trkpt lat="55.339240" lon="25.688050"></trkpt>
      <trkpt lat="55.339240" lon="25.688310"></trkpt>
      <trkpt lat="55.339350" lon="25.689577"></trkpt>
      <trkpt lat="55.339460" lon="25.690845"></trkpt>
      <trkpt lat="55.339570" lon="25.692112"></trkpt>
      <trkpt lat="55.339680" lon="25.693380"></trkpt>
      <trkpt lat="55.339685" lon="25.694230"></trkpt>
      <trkpt lat="55.339690" lon="25.695080"></trkpt>
      <trkpt lat="55.339660" lon="25.695290"></trkpt>
      <trkpt lat="55.339590" lon="25.695530"></trkpt>
      <trkpt lat="55.339160" lon="25.696500"></trkpt>
      <trkpt lat="55.338765" lon="25.697135"></trkpt>
      <trkpt lat="55.338370" lon="25.697770"></trkpt>
      <trkpt lat="55.338190" lon="25.698090"></trkpt>
      <trkpt lat="55.338080" lon="25.698420"></trkpt>
      <trkpt lat="55.337990" lon="25.699120"></trkpt>
      <trkpt lat="55.337970" lon="25.699460"></trkpt>
      <trkpt lat="55.338000" lon="25.699780"></trkpt>
      <trkpt lat="55.338200" lon="25.700670"></trkpt>
      <trkpt lat="55.338360" lon="25.700940"></trkpt>
      <trkpt lat="55.338490" lon="25.701030"></trkpt>
      <trkpt lat="55.338960" lon="25.701025"></trkpt>
      <trkpt lat="55.339430" lon="25.701020"></trkpt>
      <trkpt lat="55.340010" lon="25.701140"></trkpt>
      <trkpt lat="55.340590" lon="25.701260"></trkpt>
      <trkpt lat="55.340740" lon="25.701380"></trkpt>
      <trkpt lat="55.340890" lon="25.701690"></trkpt>
      <trkpt lat="55.341350" lon="25.702800"></trkpt>
      <trkpt lat="55.341460" lon="25.703500"></trkpt>
      <trkpt lat="55.341540" lon="25.704620"></trkpt>
      <trkpt lat="55.341520" lon="25.704880"></trkpt>
      <trkpt lat="55.341410" lon="25.705715"></trkpt>
      <trkpt lat="55.341300" lon="25.706550"></trkpt>
      <trkpt lat="55.341150" lon="25.707240"></trkpt>
      <trkpt lat="55.340960" lon="25.707870"></trkpt>
      <trkpt lat="55.340930" lon="25.708020"></trkpt>
      <trkpt lat="55.340920" lon="25.708200"></trkpt>
      <trkpt lat="55.340560" lon="25.708640"></trkpt>
      <trkpt lat="55.340045" lon="25.709205"></trkpt>
      <trkpt lat="55.339530" lon="25.709770"></trkpt>
      <trkpt lat="55.338930" lon="25.710360"></trkpt>
      <trkpt lat="55.338160" lon="25.710930"></trkpt>
      <trkpt lat="55.337573" lon="25.711157"></trkpt>
      <trkpt lat="55.336987" lon="25.711383"></trkpt>
      <trkpt lat="55.336400" lon="25.711610"></trkpt>
      <trkpt lat="55.335710" lon="25.711690"></trkpt>
      <trkpt lat="55.335530" lon="25.711890"></trkpt>
      <trkpt lat="55.335440" lon="25.712070"></trkpt>
      <trkpt lat="55.335210" lon="25.712780"></trkpt>
      <trkpt lat="55.335120" lon="25.713130"></trkpt>
      <trkpt lat="55.335070" lon="25.713490"></trkpt>
      <trkpt lat="55.334980" lon="25.713750"></trkpt>
      <trkpt lat="55.334710" lon="25.714210"></trkpt>
      <trkpt lat="55.334530" lon="25.714350"></trkpt>
      <trkpt lat="55.334290" lon="25.714590"></trkpt>
      <trkpt lat="55.334190" lon="25.714760"></trkpt>
      <trkpt lat="55.334050" lon="25.715040"></trkpt>
      <trkpt lat="55.333660" lon="25.716370"></trkpt>
      <trkpt lat="55.333530" lon="25.716670"></trkpt>
      <trkpt lat="55.333430" lon="25.716850"></trkpt>
      <trkpt lat="55.332960" lon="25.717410"></trkpt>
      <trkpt lat="55.332690" lon="25.718220"></trkpt>
      <trkpt lat="55.332475" lon="25.719195"></trkpt>
      <trkpt lat="55.332260" lon="25.720170"></trkpt>
      <trkpt lat="55.332220" lon="25.720420"></trkpt>
      <trkpt lat="55.332230" lon="25.721480"></trkpt>
      <trkpt lat="55.332240" lon="25.722540"></trkpt>
      <trkpt lat="55.332210" lon="25.723080"></trkpt>
      <trkpt lat="55.332140" lon="25.724015"></trkpt>
      <trkpt lat="55.332070" lon="25.724950"></trkpt>
      <trkpt lat="55.332050" lon="25.725150"></trkpt>
      <trkpt lat="55.332000" lon="25.725360"></trkpt>
      <trkpt lat="55.332040" lon="25.725750"></trkpt>
      <trkpt lat="55.332090" lon="25.726130"></trkpt>
      <trkpt lat="55.332680" lon="25.726165"></trkpt>
      <trkpt lat="55.333270" lon="25.726200"></trkpt>
      <trkpt lat="55.334005" lon="25.726670"></trkpt>
      <trkpt lat="55.334740" lon="25.727140"></trkpt>
      <trkpt lat="55.335090" lon="25.727260"></trkpt>
      <trkpt lat="55.335390" lon="25.727300"></trkpt>
      <trkpt lat="55.335570" lon="25.727270"></trkpt>
      <trkpt lat="55.336400" lon="25.727750"></trkpt>
      <trkpt lat="55.336910" lon="25.728410"></trkpt>
      <trkpt lat="55.337670" lon="25.729200"></trkpt>
      <trkpt lat="55.338280" lon="25.729870"></trkpt>
      <trkpt lat="55.338730" lon="25.730430"></trkpt>
      <trkpt lat="55.338970" lon="25.731020"></trkpt>
      <trkpt lat="55.339100" lon="25.731590"></trkpt>
      <trkpt lat="55.339150" lon="25.732000"></trkpt>
      <trkpt lat="55.339160" lon="25.732350"></trkpt>
      <trkpt lat="55.339060" lon="25.733090"></trkpt>
      <trkpt lat="55.338910" lon="25.733630"></trkpt>
      <trkpt lat="55.338750" lon="25.734130"></trkpt>
      <trkpt lat="55.338570" lon="25.735413"></trkpt>
      <trkpt lat="55.338390" lon="25.736697"></trkpt>
      <trkpt lat="55.338210" lon="25.737980"></trkpt>
      <trkpt lat="55.338060" lon="25.738800"></trkpt>
      <trkpt lat="55.338020" lon="25.739320"></trkpt>
      <trkpt lat="55.338040" lon="25.739910"></trkpt>
      <trkpt lat="55.338165" lon="25.740715"></trkpt>
      <trkpt lat="55.338290" lon="25.741520"></trkpt>
      <trkpt lat="55.338590" lon="25.742590"></trkpt>
      <trkpt lat="55.338850" lon="25.743130"></trkpt>
      <trkpt lat="55.339090" lon="25.743490"></trkpt>
      <trkpt lat="55.339570" lon="25.744035"></trkpt>
      <trkpt lat="55.340050" lon="25.744580"></trkpt>
      <trkpt lat="55.340713" lon="25.745377"></trkpt>
      <trkpt lat="55.341375" lon="25.746175"></trkpt>
      <trkpt lat="55.342038" lon="25.746972"></trkpt>
      <trkpt lat="55.342700" lon="25.747770"></trkpt>
      <trkpt lat="55.342850" lon="25.748090"></trkpt>
      <trkpt lat="55.343030" lon="25.748610"></trkpt>
      <trkpt lat="55.343210" lon="25.749390"></trkpt>
      <trkpt lat="55.343390" lon="25.750170"></trkpt>
      <trkpt lat="55.343690" lon="25.751315"></trkpt>
      <trkpt lat="55.343990" lon="25.752460"></trkpt>
      <trkpt lat="55.344255" lon="25.753265"></trkpt>
      <trkpt lat="55.344520" lon="25.754070"></trkpt>
      <trkpt lat="55.344620" lon="25.754420"></trkpt>
      <trkpt lat="55.344600" lon="25.754870"></trkpt>
      <trkpt lat="55.344510" lon="25.755150"></trkpt>
      <trkpt lat="55.344450" lon="25.755500"></trkpt>
      <trkpt lat="55.344390" lon="25.757040"></trkpt>
      <trkpt lat="55.344410" lon="25.757490"></trkpt>
      <trkpt lat="55.344490" lon="25.757980"></trkpt>
      <trkpt lat="55.344720" lon="25.758780"></trkpt>
      <trkpt lat="55.344890" lon="25.759190"></trkpt>
      <trkpt lat="55.345060" lon="25.759450"></trkpt>
      <trkpt lat="55.345220" lon="25.759640"></trkpt>
      <trkpt lat="55.345865" lon="25.760270"></trkpt>
      <trkpt lat="55.346510" lon="25.760900"></trkpt>
      <trkpt lat="55.346620" lon="25.761080"></trkpt>
      <trkpt lat="55.346690" lon="25.761300"></trkpt>
      <trkpt lat="55.346720" lon="25.761590"></trkpt>
      <trkpt lat="55.346660" lon="25.762180"></trkpt>
      <trkpt lat="55.346595" lon="25.763065"></trkpt>
      <trkpt lat="55.346530" lon="25.763950"></trkpt>
      <trkpt lat="55.346480" lon="25.765270"></trkpt>
      <trkpt lat="55.346480" lon="25.766120"></trkpt>
      <trkpt lat="55.346400" lon="25.767000"></trkpt>
      <trkpt lat="55.346410" lon="25.767860"></trkpt>
      <trkpt lat="55.346470" lon="25.768300"></trkpt>
      <trkpt lat="55.346570" lon="25.768810"></trkpt>
      <trkpt lat="55.346908" lon="25.770135"></trkpt>
      <trkpt lat="55.347245" lon="25.771460"></trkpt>
      <trkpt lat="55.347583" lon="25.772785"></trkpt>
      <trkpt lat="55.347920" lon="25.774110"></trkpt>
      <trkpt lat="55.347940" lon="25.774290"></trkpt>
      <trkpt lat="55.347810" lon="25.774360"></trkpt>
      <trkpt lat="55.347680" lon="25.774480"></trkpt>
      <trkpt lat="55.347540" lon="25.774720"></trkpt>
      <trkpt lat="55.347450" lon="25.775010"></trkpt>
      <trkpt lat="55.347410" lon="25.775380"></trkpt>
      <trkpt lat="55.347428" lon="25.776852"></trkpt>
      <trkpt lat="55.347445" lon="25.778325"></trkpt>
      <trkpt lat="55.347463" lon="25.779797"></trkpt>
      <trkpt lat="55.347480" lon="25.781270"></trkpt>
      <trkpt lat="55.347510" lon="25.781610"></trkpt>
      <trkpt lat="55.347580" lon="25.781970"></trkpt>
      <trkpt lat="55.347680" lon="25.782320"></trkpt>
      <trkpt lat="55.348085" lon="25.783395"></trkpt>
      <trkpt lat="55.348490" lon="25.784470"></trkpt>
      <trkpt lat="55.348550" lon="25.784770"></trkpt>
      <trkpt lat="55.348580" lon="25.785170"></trkpt>
    </trkseg>
  </trk>
</gpx>
